Number,Street,City,State,PostalCode,Latitude,Longitude,Type,ApartmentNumber
33,ALMOST HOME RD,HENDERSONVILLE,NC,28739,35.2690137,-82.62676984,House, 
59,ALMOST HOME RD,HENDERSONVILLE,NC,28739,35.26864541,-82.62648295,House, 
85,ALMOST HOME RD,HENDERSONVILLE,NC,28739,35.26852579,-82.62590764,House, 
27,AMANDA DR,PENROSE,NC,28766,35.24429826,-82.63522573,House, 
97,AMANDA DR,PENROSE,NC,28766,35.24496764,-82.63593003,House, 
100,AMANDA DR,PENROSE,NC,28766,35.24519303,-82.63538205,House, 
61,AMBER CIR,PENROSE,NC,28766,35.22966304,-82.62087548,House, 
6,BABBLING BROOK LN,HENDERSONVILLE,NC,28739,35.27807466,-82.62017077,House, 
29,BABBLING BROOK LN,HENDERSONVILLE,NC,28739,35.27773528,-82.61993848,House, 
30,BABBLING BROOK LN,HENDERSONVILLE,NC,28739,35.27784981,-82.62008658,House, 
122,BANTHER DR,PENROSE,NC,28766,35.25720438,-82.63211671,House, 
28,BASS LAKE DR,PISGAH FOREST,NC,28768,35.29054833,-82.62500843,House, 
38,BASS LAKE DR,PISGAH FOREST,NC,28768,35.29050236,-82.62538731,House, 
78,BASS LAKE DR,PISGAH FOREST,NC,28768,35.29045066,-82.62588434,House, 
96,BASS LAKE DR,PISGAH FOREST,NC,28768,35.29031965,-82.62620036,House, 
156,BASS LAKE DR,PISGAH FOREST,NC,28768,35.28970703,-82.6266001,House, 
192,BASS LAKE DR,PISGAH FOREST,NC,28768,35.28919844,-82.62583271,House, 
340,BASS LAKE DR,PISGAH FOREST,NC,28768,35.28735137,-82.6253723,House, 
345,BASS LAKE DR,PISGAH FOREST,NC,28768,35.28682645,-82.62543046,House, 
361,BASS LAKE DR,PISGAH FOREST,NC,28768,35.28697607,-82.62576533,House, 
385,BASS LAKE DR,PISGAH FOREST,NC,28768,35.28736244,-82.62597783,House, 
408,BASS LAKE DR,PISGAH FOREST,NC,28768,35.28786804,-82.62586913,House, 
409,BASS LAKE DR,PISGAH FOREST,NC,28768,35.28763407,-82.62618366,House, 
426,BASS LAKE DR,PISGAH FOREST,NC,28768,35.28815846,-82.62580279,House, 
442,BASS LAKE DR,PISGAH FOREST,NC,28768,35.28844552,-82.62582979,House, 
445,BASS LAKE DR,PISGAH FOREST,NC,28768,35.28833524,-82.62637031,House, 
452,BASS LAKE DR,PISGAH FOREST,NC,28768,35.2888903,-82.62571082,House, 
468,BASS LAKE DR,PISGAH FOREST,NC,28768,35.28878281,-82.6260764,House, 
477,BASS LAKE DR,PISGAH FOREST,NC,28768,35.28878116,-82.62649855,House, 
482,BASS LAKE DR,PISGAH FOREST,NC,28768,35.28899869,-82.62623908,House, 
510,BASS LAKE DR,PISGAH FOREST,NC,28768,35.28928116,-82.62668348,House, 
517,BASS LAKE DR,PISGAH FOREST,NC,28768,35.28913973,-82.62725886,House, 
520,BASS LAKE DR,PISGAH FOREST,NC,28768,35.2894362,-82.62696072,House, 
544,BASS LAKE DR,PISGAH FOREST,NC,28768,35.28966209,-82.62728519,House, 
566,BASS LAKE DR,PISGAH FOREST,NC,28768,35.29024838,-82.62775693,House, 
577,BASS LAKE DR,PISGAH FOREST,NC,28768,35.28943653,-82.62763478,House, 
638,BASS LAKE DR,PISGAH FOREST,NC,28768,35.28865546,-82.62780381,House, 
658,BASS LAKE DR,PISGAH FOREST,NC,28768,35.28847408,-82.6274527,House, 
736,BASS LAKE DR,PISGAH FOREST,NC,28768,35.28793318,-82.62662147,House, 
51,BERTS PLACE DR,PENROSE,NC,28766,35.25299186,-82.62853057,House, 
71,BERTS PLACE DR,PENROSE,NC,28766,35.25313468,-82.62763928,House, 
147,BERTS PLACE DR,PENROSE,NC,28766,35.25327893,-82.62680958,House, 
171,BERTS PLACE DR,PENROSE,NC,28766,35.25383604,-82.62619171,House, 
230,BERTS PLACE DR,PENROSE,NC,28766,35.25352434,-82.62554378,House, 
380,BERTS PLACE DR,PENROSE,NC,28766,35.25354416,-82.62480774,House, 
10,BIRD SONG RD,PENROSE,NC,28766,35.26143617,-82.61715517,House, 
15,BIRD SONG RD,PENROSE,NC,28766,35.26072903,-82.61732542,House, 
26,BIRD SONG RD,PENROSE,NC,28766,35.26132063,-82.61757961,House, 
47,BIRD SONG RD,PENROSE,NC,28766,35.26074142,-82.61788383,House, 
96,BIRD SONG RD,PENROSE,NC,28766,35.26137865,-82.61834878,House, 
98,BIRD SONG RD,PENROSE,NC,28766,35.26181691,-82.61821296,House, 
145,BIRD SONG RD,PENROSE,NC,28766,35.26103413,-82.61911359,House, 
166,BIRD SONG RD,PENROSE,NC,28766,35.26214667,-82.61910335,House, 
209,BIRD SONG RD,PENROSE,NC,28766,35.26208378,-82.61976182,House, 
210,BIRD SONG RD,PENROSE,NC,28766,35.26222804,-82.61875024,House, 
212,BIRD SONG RD,PENROSE,NC,28766,35.26287861,-82.61971528,House, 
16,BOW HUNTER DR,HENDERSONVILLE,NC,28739,35.28540445,-82.61687012,House, 
45,BOW HUNTER DR,HENDERSONVILLE,NC,28739,35.28526028,-82.61629619,House, 
92,BOW HUNTER DR,HENDERSONVILLE,NC,28739,35.28479614,-82.61589434,House, 
94,BOW HUNTER DR,HENDERSONVILLE,NC,28739,35.28449447,-82.61578352,House, 
129,BOW HUNTER DR,HENDERSONVILLE,NC,28739,35.28437609,-82.6152954,House, 
201,BOW HUNTER DR,HENDERSONVILLE,NC,28739,35.28331764,-82.61430229,House, 
273,BOW HUNTER DR,HENDERSONVILLE,NC,28739,35.28277586,-82.61445547,House, 
7,BROOKLANE DR,PENROSE,NC,28766,35.258951,-82.63083881,House, 
30,BROOKLANE DR,PENROSE,NC,28766,35.25893081,-82.6313778,House, 
60,BROOKLANE DR,PENROSE,NC,28766,35.25826632,-82.6312547,House, 
63,BROOKLANE DR,PENROSE,NC,28766,35.25843682,-82.63078261,House, 
71,BROOKLANE DR,PENROSE,NC,28766,35.25802596,-82.63076434,House, 
75,BROOKLANE DR,PENROSE,NC,28766,35.25760812,-82.63070278,House, 
77,BROOKLANE DR,PENROSE,NC,28766,35.25773278,-82.6312754,House, 
110,BROOKLANE DR,PENROSE,NC,28766,35.25796133,-82.631728,House, 
115,BROOKLANE DR,PENROSE,NC,28766,35.25754492,-82.63168074,House, 
139,BROOKLANE DR,PENROSE,NC,28766,35.25755787,-82.63231235,House, 
150,BROOKLANE DR,PENROSE,NC,28766,35.25798195,-82.63236396,House, 
152,BROOKLANE DR,PENROSE,NC,28766,35.25775176,-82.63295691,House, 
363,BULLING CREEK RD,PENROSE,NC,28766,35.24078776,-82.60491667,House, 
895,BULLING CREEK RD,PENROSE,NC,28766,35.24689242,-82.60565301,House, 
1077,BULLING CREEK RD,PENROSE,NC,28766,35.24807482,-82.60326312,House, 
50,BUMBLE BEE TRL,PENROSE,NC,28766,35.24987673,-82.63290634,House, 
195,BUMBLE BEE TRL,PENROSE,NC,28766,35.24836799,-82.63401046,House, 
221,BUMBLE BEE TRL,PENROSE,NC,28766,35.24792282,-82.6340635,House, 
119,BUNYAN GAP TRL,CEDAR MOUNTAIN,NC,28718,35.14692065,-82.6214872,House, 
236,BUNYAN GAP TRL,CEDAR MOUNTAIN,NC,28718,35.14853891,-82.6208649,House, 
37,BYE LEAF COVE RD,PENROSE,NC,28766,35.23227992,-82.61678816,House, 
150,BYE LEAF COVE RD,PENROSE,NC,28766,35.23154182,-82.61525979,House, 
222,BYE LEAF COVE RD,PENROSE,NC,28766,35.23068841,-82.61435506,House, 
264,BYE LEAF COVE RD,PENROSE,NC,28766,35.23087405,-82.61367864,House, 
265,BYE LEAF COVE RD,PENROSE,NC,28766,35.23142058,-82.61363973,House, 
273,BYE LEAF COVE RD,PENROSE,NC,28766,35.23160777,-82.61327965,House, 
355,BYE LEAF COVE RD,PENROSE,NC,28766,35.23138395,-82.61292741,House, 
359,BYE LEAF COVE RD,PENROSE,NC,28766,35.23142787,-82.61255332,House, 
369,BYE LEAF COVE RD,PENROSE,NC,28766,35.23144673,-82.61198206,House, 
438,BYE LEAF COVE RD,PENROSE,NC,28766,35.23079724,-82.61108696,House, 
483,BYE LEAF COVE RD,PENROSE,NC,28766,35.23190857,-82.61037895,House, 
505,BYE LEAF COVE RD,PENROSE,NC,28766,35.23172986,-82.60854628,House, 
507,BYE LEAF COVE RD,PENROSE,NC,28766,35.23154277,-82.60891163,House, 
515,BYE LEAF COVE RD,PENROSE,NC,28766,35.23135647,-82.60964931,House, 
610,BYE LEAF COVE RD,PENROSE,NC,28766,35.23031636,-82.60916639,House, 
18,CABIN ROW,HENDERSONVILLE,NC,28739,35.222729,-82.60937856,House, 
21,CABIN ROW,HENDERSONVILLE,NC,28739,35.22268369,-82.60951937,House, 
28,CABIN ROW,HENDERSONVILLE,NC,28739,35.2228994,-82.60962054,House, 
31,CABIN ROW,HENDERSONVILLE,NC,28739,35.22286291,-82.60969735,House, 
30,CALVIN'S BLUEGRASS LN,PISGAH FOREST,NC,28768,35.27295947,-82.63421302,House, 
41,CALVIN'S BLUEGRASS LN,PISGAH FOREST,NC,28768,35.27253685,-82.6339819,House, 
42,CALVIN'S BLUEGRASS LN,PISGAH FOREST,NC,28768,35.27259231,-82.63417252,House, 
99,CASCADE LAKE RD,PENROSE,NC,28766,35.23988125,-82.63039057,House, 
100,CASCADE LAKE RD,PENROSE,NC,28766,35.24009712,-82.63098428,House, 
140,CASCADE LAKE RD,PENROSE,NC,28766,35.23980819,-82.63117527,House, 
141,CASCADE LAKE RD,PENROSE,NC,28766,35.23944326,-82.63071365,House, 
169,CASCADE LAKE RD,PISGAH FOREST,NC,28768,35.23922326,-82.63120295,House, 
637,CASCADE LAKE RD,PISGAH FOREST,NC,28768,35.23340866,-82.63628652,House, 
763,CASCADE LAKE RD,PISGAH FOREST,NC,28768,35.23287338,-82.63717177,House, 
1443,CASCADE LAKE RD,PISGAH FOREST,NC,28768,35.22509356,-82.63733097,House, 
1651,CASCADE LAKE RD,PISGAH FOREST,NC,28768,35.22241647,-82.63730196,House, 
2636,CASCADE LAKE RD,PISGAH FOREST,NC,28768,35.21473272,-82.63946315,House, 
3768,CASCADE LAKE RD,PISGAH FOREST,NC,28768,35.20588535,-82.63556061,House, 
3801,CASCADE LAKE RD,PISGAH FOREST,NC,28768,35.20541978,-82.63571171,House, 
3931,CASCADE LAKE RD,PISGAH FOREST,NC,28768,35.20442989,-82.63748538,House, 
20,CASCADE VILLAGE RD,PISGAH FOREST,NC,28768,35.21841563,-82.62946003,House, 
41,CASCADE VILLAGE RD,PISGAH FOREST,NC,28768,35.21832386,-82.62989807,House, 
78,CASCADE VILLAGE RD,PISGAH FOREST,NC,28768,35.21847069,-82.63068988,House, 
141,CASCADE VILLAGE RD,PISGAH FOREST,NC,28768,35.21837169,-82.63142018,House, 
180,CASCADE VILLAGE RD,PISGAH FOREST,NC,28768,35.21851781,-82.63224119,House, 
53,CEDAR CREEK DR,CEDAR MOUNTAIN,NC,28718,35.14748858,-82.61998952,House, 
165,CEDAR CREEK DR,CEDAR MOUNTAIN,NC,28718,35.14794016,-82.62043785,House, 
216,CEDAR CREEK DR,CEDAR MOUNTAIN,NC,28718,35.14958762,-82.62044574,House, 
154,CHESTNUT LN,CEDAR MOUNTAIN,NC,28718,35.15518155,-82.60889943,House, 
9,CIMMARON DR,PISGAH FOREST,NC,28768,35.22027093,-82.62834124,House, 
14,CIMMARON DR,PISGAH FOREST,NC,28768,35.21857237,-82.62864476,House, 
110,CIMMARON DR,PISGAH FOREST,NC,28768,35.219762,-82.62713436,House, 
133,CIMMARON DR,PISGAH FOREST,NC,28768,35.22077597,-82.62798199,House, 
173,CIMMARON DR,PISGAH FOREST,NC,28768,35.22054855,-82.62710132,House, 
235,CIMMARON DR,PISGAH FOREST,NC,28768,35.22072988,-82.62616972,House, 
270,CIMMARON DR,PISGAH FOREST,NC,28768,35.22024965,-82.62491151,House, 
277,CIMMARON DR,PISGAH FOREST,NC,28768,35.22097862,-82.62547172,House, 
289,CIMMARON DR,PISGAH FOREST,NC,28768,35.22103616,-82.62470452,House, 
375,CIMMARON DR,PISGAH FOREST,NC,28768,35.22138669,-82.62343065,House, 
668,CIMMARON DR,PISGAH FOREST,NC,28768,35.22272769,-82.62147631,House, 
127,CLIFF RD,PENROSE,NC,28766,35.2487797,-82.62912296,House, 
129,CLIFF RD,PENROSE,NC,28766,35.24899027,-82.6287037,House, 
257,CLIFF RD,PENROSE,NC,28766,35.24887171,-82.62654306,House, 
337,CLIFF RD,PENROSE,NC,28766,35.24923291,-82.6253979,House, 
459,CLIFF RD,PENROSE,NC,28766,35.24979472,-82.62373489,House, 
500,CLIFF RD,PENROSE,NC,28766,35.24965076,-82.62309704,House, 
574,CLIFF RD,PENROSE,NC,28766,35.25040245,-82.62331766,House, 
36,COLTON'S WAY,PENROSE,NC,28766,35.26313276,-82.61634159,House, 
79,COLTON'S WAY,PENROSE,NC,28766,35.26369206,-82.61642107,House, 
100,COLTON'S WAY,PENROSE,NC,28766,35.2639075,-82.61584475,House, 
115,COLTON'S WAY,PENROSE,NC,28766,35.2640842,-82.61630171,House, 
127,COLTON'S WAY,PENROSE,NC,28766,35.26445599,-82.61619725,House, 
131,COLTON'S WAY,PENROSE,NC,28766,35.26465206,-82.61589487,House, 
41,COUNTRY GARDENS LN,PISGAH FOREST,NC,28768,35.29958143,-82.62717088,Business, 
500,CRAB CREEK RD,PENROSE,NC,28766,35.26776346,-82.63576978,House, 
660,CRAB CREEK RD,PENROSE,NC,28766,35.26574523,-82.63471481,House, 
700,CRAB CREEK RD,PENROSE,NC,28766,35.26511349,-82.63461114,House, 
892,CRAB CREEK RD,PENROSE,NC,28766,35.26244117,-82.634664,House, 
1065,CRAB CREEK RD,PENROSE,NC,28766,35.25999531,-82.63392427,House, 
1194,CRAB CREEK RD,PENROSE,NC,28766,35.25825567,-82.63421665,House, 
1280,CRAB CREEK RD,PENROSE,NC,28766,35.25724615,-82.63476413,House, 
1320,CRAB CREEK RD,PENROSE,NC,28766,35.25648537,-82.63455639,House, 
1322,CRAB CREEK RD,PENROSE,NC,28766,35.2562418,-82.63478969,House, 
1337,CRAB CREEK RD,PENROSE,NC,28766,35.25648653,-82.63379416,House, 
1370,CRAB CREEK RD,PENROSE,NC,28766,35.25563059,-82.63429611,House, 
1388,CRAB CREEK RD,PENROSE,NC,28766,35.25539299,-82.63425039,House, 
1420,CRAB CREEK RD,PENROSE,NC,28766,35.25514854,-82.63418628,House, 
1459,CRAB CREEK RD,PENROSE,NC,28766,35.2545779,-82.6336884,House, 
1650,CRAB CREEK RD,PENROSE,NC,28766,35.25073138,-82.63307611,House, 
1695,CRAB CREEK RD,PENROSE,NC,28766,35.25199195,-82.63265284,House, 
1737,CRAB CREEK RD,PENROSE,NC,28766,35.25090761,-82.63241193,House, 
1808,CRAB CREEK RD,PENROSE,NC,28766,35.24942692,-82.63169009,House, 
1914,CRAB CREEK RD,PENROSE,NC,28766,35.24854653,-82.63148079,House, 
2010,CRAB CREEK RD,PENROSE,NC,28766,35.24741693,-82.63150678,House, 
2075,CRAB CREEK RD,PENROSE,NC,28766,35.24493957,-82.63162171,House, 
2088,CRAB CREEK RD,PENROSE,NC,28766,35.2459517,-82.63201188,House, 
2330,CRAB CREEK RD,PENROSE,NC,28766,35.24289752,-82.63149823,House, 
2345,CRAB CREEK RD,PENROSE,NC,28766,35.24323639,-82.63106761,House, 
2355,CRAB CREEK RD,PENROSE,NC,28766,35.24253144,-82.63079368,House, 
2400,CRAB CREEK RD,PENROSE,NC,28766,35.24190975,-82.63058469,House, 
2430,CRAB CREEK RD,PENROSE,NC,28766,35.24151076,-82.63030391,House, 
2556,CRAB CREEK RD,PENROSE,NC,28766,35.23982428,-82.62961541,House, 
2600,CRAB CREEK RD,PENROSE,NC,28766,35.23929263,-82.62986426,House, 
2607,CRAB CREEK RD,PENROSE,NC,28766,35.23925392,-82.62910442,House, 
2674,CRAB CREEK RD,PENROSE,NC,28766,35.23836477,-82.62880774,House, 
2686,CRAB CREEK RD,PENROSE,NC,28766,35.23821756,-82.62819674,House, 
2724,CRAB CREEK RD,PENROSE,NC,28766,35.23797694,-82.62761102,House, 
2725,CRAB CREEK RD,PENROSE,NC,28766,35.23813062,-82.62753787,House, 
2751,CRAB CREEK RD,PENROSE,NC,28766,35.23801747,-82.62712228,House, 
2754,CRAB CREEK RD,PENROSE,NC,28766,35.23632281,-82.62663589,House, 
2757,CRAB CREEK RD,PENROSE,NC,28766,35.23798826,-82.62702835,House, 
2766,CRAB CREEK RD,PENROSE,NC,28766,35.23759639,-82.62717128,House, 
2825,CRAB CREEK RD,PENROSE,NC,28766,35.23786224,-82.6259901,House, 
2863,CRAB CREEK RD,PENROSE,NC,28766,35.237685,-82.62532799,House, 
2919,CRAB CREEK RD,PENROSE,NC,28766,35.23723991,-82.62448982,House, 
2945,CRAB CREEK RD,PENROSE,NC,28766,35.23716636,-82.6240698,House, 
3079,CRAB CREEK RD,PENROSE,NC,28766,35.23673067,-82.62165768,House, 
3173,CRAB CREEK RD,PENROSE,NC,28766,35.23646588,-82.62004783,House, 
3242,CRAB CREEK RD,PENROSE,NC,28766,35.235916,-82.61889058,House, 
3291,CRAB CREEK RD,PENROSE,NC,28766,35.23722127,-82.61794351,House, 
3293,CRAB CREEK RD,PENROSE,NC,28766,35.23818522,-82.6170477,House, 
3333,CRAB CREEK RD,PENROSE,NC,28766,35.23634814,-82.61730678,House, 
3405,CRAB CREEK RD,PENROSE,NC,28766,35.23640065,-82.61610985,House, 
3471,CRAB CREEK RD,PENROSE,NC,28766,35.23642862,-82.61495163,House, 
3475,CRAB CREEK RD,PENROSE,NC,28766,35.23688716,-82.61367167,House, 
3477,CRAB CREEK RD,PENROSE,NC,28766,35.23626346,-82.61406901,House, 
3560,CRAB CREEK RD,PENROSE,NC,28766,35.23587995,-82.613379,House, 
3689,CRAB CREEK RD,PENROSE,NC,28766,35.23696265,-82.61161241,House, 
3691,CRAB CREEK RD,PENROSE,NC,28766,35.23703046,-82.61141558,House, 
3757,CRAB CREEK RD,PENROSE,NC,28766,35.23732244,-82.61029994,House, 
3759,CRAB CREEK RD,PENROSE,NC,28766,35.23778559,-82.6099783,House, 
3798,CRAB CREEK RD,PENROSE,NC,28766,35.23701292,-82.60928319,House, 
3800,CRAB CREEK RD,PENROSE,NC,28766,35.2372357,-82.60914573,House, 
3890,CRAB CREEK RD,PENROSE,NC,28766,35.23762496,-82.60791523,House, 
4040,CRAB CREEK RD,PENROSE,NC,28766,35.23715626,-82.60539334,House, 
4104,CRAB CREEK RD,PENROSE,NC,28766,35.23736268,-82.60452417,House, 
20,CREEKSIDE DR,PENROSE,NC,28766,35.25268628,-82.62610621,House, 
69,CREEKSIDE DR,PENROSE,NC,28766,35.25311337,-82.62556492,House, 
74,CREEKSIDE DR,PENROSE,NC,28766,35.2529065,-82.62524871,House, 
33,DAISY LN,PENROSE,NC,28766,35.25463547,-82.63329581,House, 
24,DANIELLE DR,PENROSE,NC,28766,35.25952477,-82.63089269,House, 
30,DANIELLE DR,PENROSE,NC,28766,35.25981544,-82.63083985,House, 
55,DANIELLE DR,PENROSE,NC,28766,35.26010094,-82.63173635,House, 
56,DANIELLE DR,PENROSE,NC,28766,35.26013521,-82.63090739,House, 
64,DANIELLE DR,PENROSE,NC,28766,35.26024413,-82.63130537,House, 
89,DANIELLE DR,PENROSE,NC,28766,35.26046294,-82.63202818,House, 
107,DANIELLE DR,PENROSE,NC,28766,35.26116017,-82.63209441,House, 
120,DANIELLE DR,PENROSE,NC,28766,35.26049479,-82.63085295,House, 
121,DANIELLE DR,PENROSE,NC,28766,35.26101875,-82.63144756,House, 
140,DANIELLE DR,PENROSE,NC,28766,35.26078855,-82.63087863,House, 
172,DANIELLE DR,PENROSE,NC,28766,35.26126808,-82.63069283,House, 
174,DANIELLE DR,PENROSE,NC,28766,35.26164801,-82.63067811,House, 
437,DEER RIDGE RD,CEDAR MOUNTAIN,NC,28718,35.1419668,-82.60339368,Other, 
937,DEER RIDGE RD,CEDAR MOUNTAIN,NC,28718,35.14355638,-82.60107253,House, 
291,DOGWOOD CIR,PENROSE,NC,28766,35.25092927,-82.6101296,House, 
75,DOGWOOD CT,PENROSE,NC,28766,35.25165726,-82.61079947,House, 
654,DOGWOOD MOUNTAIN RD,PENROSE,NC,28766,35.25505373,-82.60558955,House, 
730,DOGWOOD MOUNTAIN RD,PENROSE,NC,28766,35.25433116,-82.60805998,House, 
35,DOGWOOD TRL,PENROSE,NC,28766,35.25106702,-82.61144602,House, 
122,DOGWOOD TRL,PENROSE,NC,28766,35.25161694,-82.61203195,House, 
7,DOVES HEAVEN LN,PISGAH FOREST,NC,28768,35.22987337,-82.62643991,House, 
11,DOVES HEAVEN LN,PISGAH FOREST,NC,28768,35.22980151,-82.62653888,House, 
12,DOVES HEAVEN LN,PISGAH FOREST,NC,28768,35.22995854,-82.62660255,House, 
701,DUPONT DR,CEDAR MOUNTAIN,NC,28718,35.18451504,-82.62516832,House, 
58,DYER CV,PENROSE,NC,28766,35.24202856,-82.60501803,House, 
115,DYER CV,PENROSE,NC,28766,35.24139723,-82.60574171,House, 
104,E RIDGE VIEW RD,PENROSE,NC,28766,35.26363591,-82.62084943,House, 
91,EDGE RD,PENROSE,NC,28766,35.23899266,-82.60959171,House, 
221,EDGE RD,PENROSE,NC,28766,35.24041792,-82.60979173,House, 
10,EDWARDS RD,CEDAR MOUNTAIN,NC,28718,35.13553548,-82.63789116,House, 
60,EDWARDS RD,CEDAR MOUNTAIN,NC,28718,35.13500575,-82.63849669,House, 
71,EDWARDS RD,CEDAR MOUNTAIN,NC,28718,35.13478215,-82.63845203,House, 
101,EDWARDS RD,CEDAR MOUNTAIN,NC,28718,35.1344608,-82.63877812,House, 
16,ELIZABETH DR,PISGAH FOREST,NC,28768,35.2737751,-82.63912036,House, 
20,ELIZABETH DR,PISGAH FOREST,NC,28768,35.27412233,-82.63883857,House, 
175,ELIZABETH DR,PISGAH FOREST,NC,28768,35.27510755,-82.63903812,House, 
190,ELIZABETH DR,PISGAH FOREST,NC,28768,35.27480128,-82.63844608,House, 
3017,EVERETT RD,PISGAH FOREST,NC,28768,35.25527661,-82.63749275,House, 
3157,EVERETT RD,PISGAH FOREST,NC,28768,35.25484344,-82.6348849,House, 
41,FALLING SNOW LN,HENDERSONVILLE,NC,28739,35.28587691,-82.61633399,House, 
99,FALLING SNOW LN,HENDERSONVILLE,NC,28739,35.28576526,-82.61544432,House, 
135,FALLING SNOW LN,HENDERSONVILLE,NC,28739,35.28562304,-82.6149518,House, 
34,FALLS CABIN RD,HENDERSONVILLE,NC,28739,35.22062434,-82.61338255,House, 
50,FALLS CABIN RD,HENDERSONVILLE,NC,28739,35.22086354,-82.61340804,House, 
66,FALLS CABIN RD,HENDERSONVILLE,NC,28739,35.22113055,-82.61350797,House, 
294,FODDERSTACK MOUNTAIN RD,PISGAH FOREST,NC,28768,35.29856094,-82.63169525,House, 
1091,FODDERSTACK MOUNTAIN RD,PISGAH FOREST,NC,28768,35.29413768,-82.63510452,House, 
1200,FODDERSTACK MOUNTAIN RD,PISGAH FOREST,NC,28768,35.29296855,-82.6365247,House, 
1246,FODDERSTACK MOUNTAIN RD,PISGAH FOREST,NC,28768,35.29208076,-82.63650943,House, 
1274,FODDERSTACK MOUNTAIN RD,PISGAH FOREST,NC,28768,35.29172198,-82.63648409,House, 
22,FODDERSTACK WOODS LN,PISGAH FOREST,NC,28768,35.27996495,-82.63266415,House, 
46,FODDERSTACK WOODS LN,PISGAH FOREST,NC,28768,35.28051063,-82.6330987,House, 
64,FODDERSTACK WOODS LN,PISGAH FOREST,NC,28768,35.28014744,-82.63331994,House, 
70,FODDERSTACK WOODS LN,PISGAH FOREST,NC,28768,35.28017867,-82.63351608,House, 
100,FODDERSTACK WOODS LN,PISGAH FOREST,NC,28768,35.28048727,-82.63331745,House, 
175,FODDERSTACK WOODS LN,PISGAH FOREST,NC,28768,35.28114964,-82.63360418,House, 
17,FRIENDLY FARM RD,PENROSE,NC,28766,35.2385179,-82.62895375,House, 
19,FRIENDLY FARM RD,PENROSE,NC,28766,35.23839147,-82.62909382,House, 
32,FRIENDLY FARM RD,PENROSE,NC,28766,35.23897878,-82.62924849,House, 
44,FURMAN DR,HENDERSONVILLE,NC,28739,35.22123589,-82.61398297,House, 
228,FURMAN DR,HENDERSONVILLE,NC,28739,35.22061941,-82.61471241,House, 
240,FURMAN DR,HENDERSONVILLE,NC,28739,35.22142043,-82.61529965,House, 
54,KARRYS WAY,PENROSE,NC,28766,35.26960014,-82.61478365,House, 
99,KARRYS WAY,PENROSE,NC,28766,35.27063346,-82.61709936,House, 
198,GLASS FEATHER DR,CEDAR MOUNTAIN,NC,28718,35.15704944,-82.60959916,House, 
200,GLASS FEATHER DR,CEDAR MOUNTAIN,NC,28718,35.15735071,-82.60903684,House, 
5,GOBBLERS KNOB,PENROSE,NC,28766,35.25798903,-82.62613666,House, 
17,GOBBLERS KNOB,PENROSE,NC,28766,35.25849508,-82.62677394,House, 
90,GRANITE RDG,CEDAR MOUNTAIN,NC,28718,35.13571867,-82.6217625,House, 
202,GRANITE RDG,CEDAR MOUNTAIN,NC,28718,35.13500548,-82.62072046,House, 
37,GREEN VALLEY RD,PENROSE,NC,28766,35.2661271,-82.62126787,House, 
90,GREEN VALLEY RD,PENROSE,NC,28766,35.2664951,-82.61907377,House, 
99,GREEN VALLEY RD,PENROSE,NC,28766,35.26683982,-82.620082,House, 
11460,GREENVILLE HWY,CEDAR MOUNTAIN,NC,28718,35.13694561,-82.63963902,House, 
11588,GREENVILLE HWY,CEDAR MOUNTAIN,NC,28718,35.13361897,-82.63894272,House, 
11621,GREENVILLE HWY,CEDAR MOUNTAIN,NC,28718,35.13379315,-82.63724355,House, 
12000,GREENVILLE HWY,CEDAR MOUNTAIN,NC,28718,35.13175992,-82.63942607,House, 
12120,GREENVILLE HWY,CEDAR MOUNTAIN,NC,28718,35.1306827,-82.63976842,House, 
12145,GREENVILLE HWY,CEDAR MOUNTAIN,NC,28718,35.13006172,-82.63859103,House, 
138,HAMILTON RD,PENROSE,NC,28766,35.24953554,-82.62912546,House, 
166,HAMILTON RD,PENROSE,NC,28766,35.24952926,-82.62865345,House, 
210,HAMILTON RD,PENROSE,NC,28766,35.25068497,-82.62823313,House, 
