Number,Street,City,State,PostalCode,Latitude,Longitude,Type,ApartmentNumber
40,ANNIE BELL LN,HORSE SHOE,NC,28742,35.31006423,-82.62964635,House, 
206,ANNIE BELL LN,HORSE SHOE,NC,28742,35.31195764,-82.62960207,House, 
260,ANNIE BELL LN,HORSE SHOE,NC,28742,35.31242745,-82.63021328,House, 
8,ART DR,PISGAH FOREST,NC,28768,35.31492358,-82.65900776,House, 
19,ART DR,PISGAH FOREST,NC,28768,35.3151245,-82.65922164,House, 
55,ART DR,PISGAH FOREST,NC,28768,35.31538684,-82.65885336,House, 
5253,ASHEVILLE HWY,PISGAH FOREST,NC,28768,35.30254004,-82.67364336,House, 
5299,ASHEVILLE HWY,PISGAH FOREST,NC,28768,35.30325888,-82.67259391,House, 
5490,ASHEVILLE HWY,PISGAH FOREST,NC,28768,35.30629823,-82.66811973,House, 
5505,ASHEVILLE HWY,PISGAH FOREST,NC,28768,35.30670425,-82.66971453,House, 
5617,ASHEVILLE HWY,PISGAH FOREST,NC,28768,35.30751366,-82.66898638,House, 
5619,ASHEVILLE HWY,PISGAH FOREST,NC,28768,35.30831557,-82.66773892,House, 
5620,ASHEVILLE HWY,PISGAH FOREST,NC,28768,35.30825731,-82.6657554,House, 
5661,ASHEVILLE HWY,PISGAH FOREST,NC,28768,35.30871569,-82.66754225,House, 
5711,ASHEVILLE HWY,PISGAH FOREST,NC,28768,35.30929859,-82.66728902,House, 
5741,ASHEVILLE HWY,PISGAH FOREST,NC,28768,35.30953709,-82.66768923,House, 
5755,ASHEVILLE HWY,PISGAH FOREST,NC,28768,35.31004844,-82.66700993,House, 
5757,ASHEVILLE HWY,PISGAH FOREST,NC,28768,35.30980114,-82.66765047,House, 
5800,ASHEVILLE HWY,PISGAH FOREST,NC,28768,35.3101749,-82.66573393,Business, 
5813,ASHEVILLE HWY,PISGAH FOREST,NC,28768,35.3107842,-82.66663439,House, 
5835,ASHEVILLE HWY,PISGAH FOREST,NC,28768,35.31128787,-82.66592464,House, 
5750,ASHEVILLE HWY,PISGAH FOREST,NC,28768,35.30964304,-82.66582991,House, 
5909,ASHEVILLE HWY,PISGAH FOREST,NC,28768,35.31177323,-82.66539951,House, 
5945,ASHEVILLE HWY,PISGAH FOREST,NC,28768,35.31225451,-82.66508185,House, 
6001,ASHEVILLE HWY,PISGAH FOREST,NC,28768,35.31258965,-82.66513488,House, 
6130,ASHEVILLE HWY,PISGAH FOREST,NC,28768,35.31310148,-82.6630475,House, 
6145,ASHEVILLE HWY,PISGAH FOREST,NC,28768,35.31467827,-82.66237539,House, 
6199,ASHEVILLE HWY,PISGAH FOREST,NC,28768,35.31510104,-82.66189318,House, 
6201,ASHEVILLE HWY,PISGAH FOREST,NC,28768,35.31535285,-82.66165467,House, 
6208,ASHEVILLE HWY,PISGAH FOREST,NC,28768,35.31462102,-82.66057546,House, 
6248,ASHEVILLE HWY,PISGAH FOREST,NC,28768,35.31549646,-82.66061351,House, 
6283,ASHEVILLE HWY,PISGAH FOREST,NC,28768,35.3163039,-82.66121327,House, 
6299,ASHEVILLE HWY,PISGAH FOREST,NC,28768,35.31717432,-82.66111201,House, 
6354,ASHEVILLE HWY,PISGAH FOREST,NC,28768,35.31697413,-82.65917634,House, 
6395,ASHEVILLE HWY,PISGAH FOREST,NC,28768,35.32075624,-82.65866384,House, 
6420,ASHEVILLE HWY,PISGAH FOREST,NC,28768,35.31751265,-82.65861846,House, 
6444,ASHEVILLE HWY,PISGAH FOREST,NC,28768,35.31717356,-82.65831003,House, 
6656,ASHEVILLE HWY,PISGAH FOREST,NC,28768,35.32014335,-82.65613514,House, 
6670,ASHEVILLE HWY,PISGAH FOREST,NC,28768,35.32029485,-82.6559919,House, 
6690,ASHEVILLE HWY,PISGAH FOREST,NC,28768,35.3205319,-82.65572975,House, 
6708,ASHEVILLE HWY,PISGAH FOREST,NC,28768,35.32072695,-82.65554471,House, 
6720,ASHEVILLE HWY,PISGAH FOREST,NC,28768,35.3209941,-82.65529279,House, 
6744,ASHEVILLE HWY,PISGAH FOREST,NC,28768,35.32118092,-82.65510107,House, 
6850,ASHEVILLE HWY,PISGAH FOREST,NC,28768,35.32211603,-82.65379858,House, 
6999,ASHEVILLE HWY,PISGAH FOREST,NC,28768,35.3242662,-82.65353555,House, 
7123,ASHEVILLE HWY,PISGAH FOREST,NC,28768,35.32821333,-82.65217344,House, 
7125,ASHEVILLE HWY,PISGAH FOREST,NC,28768,35.32821204,-82.65248998,House, 
7320,ASHEVILLE HWY,PISGAH FOREST,NC,28768,35.32774451,-82.64881492,House, 
26,ASHLEY LN,PISGAH FOREST,NC,28768,35.3075039,-82.63567621,House, 
35,ASHLEY LN,PISGAH FOREST,NC,28768,35.30769219,-82.63591036,House, 
47,ASHLEY LN,PISGAH FOREST,NC,28768,35.30789282,-82.63576243,House, 
98,ASHLEY LN,PISGAH FOREST,NC,28768,35.30823791,-82.63476522,House, 
110,ASHLEY LN,PISGAH FOREST,NC,28768,35.30838813,-82.63464749,House, 
121,ASHLEY LN,PISGAH FOREST,NC,28768,35.30863021,-82.63528357,House, 
122,ASHLEY LN,PISGAH FOREST,NC,28768,35.30855183,-82.63456151,House, 
139,ASHLEY LN,PISGAH FOREST,NC,28768,35.30895578,-82.63518597,House, 
152,ASHLEY LN,PISGAH FOREST,NC,28768,35.30899967,-82.63439258,House, 
1790,AVERY'S CREEK RD,PISGAH FOREST,NC,28768,35.30860346,-82.74545781,House, 
101,BAYNARD RD,PISGAH FOREST,NC,28768,35.32091338,-82.65348381,House, 
170,BAYNARD RD,PISGAH FOREST,NC,28768,35.31980796,-82.65301088,House, 
191,BAYNARD RD,PISGAH FOREST,NC,28768,35.31930574,-82.65287845,House, 
232,BAYNARD RD,PISGAH FOREST,NC,28768,35.31988621,-82.65373075,House, 
237,BAYNARD RD,PISGAH FOREST,NC,28768,35.31906074,-82.65324594,House, 
239,BAYNARD RD,PISGAH FOREST,NC,28768,35.31870472,-82.65296469,House, 
255,BAYNARD RD,PISGAH FOREST,NC,28768,35.31888058,-82.6536361,House, 
268,BAYNARD RD,PISGAH FOREST,NC,28768,35.31917793,-82.65360215,House, 
70,BECKARUTH LN,PISGAH FOREST,NC,28768,35.31612693,-82.65792092,House, 
155,BECKARUTH LN,PISGAH FOREST,NC,28768,35.31676128,-82.65755286,House, 
165,BECKARUTH LN,PISGAH FOREST,NC,28768,35.31664773,-82.65716229,House, 
170,BECKARUTH LN,PISGAH FOREST,NC,28768,35.3162782,-82.65723496,House, 
199,BECKARUTH LN,PISGAH FOREST,NC,28768,35.31660569,-82.65679312,House, 
18,BIG BEAR DR,PISGAH FOREST,NC,28768,35.31168973,-82.65637779,House, 
47,BIG BEAR DR,PISGAH FOREST,NC,28768,35.31133687,-82.65713973,House, 
54,BIG BEAR DR,PISGAH FOREST,NC,28768,35.31234048,-82.6557145,House, 
82,BIG BEAR DR,PISGAH FOREST,NC,28768,35.31215702,-82.65614651,House, 
105,BIG BEAR DR,PISGAH FOREST,NC,28768,35.31253476,-82.65636598,House, 
92,BIG VALLEY RD,PISGAH FOREST,NC,28768,35.32052347,-82.65105531,House, 
94,BIG VALLEY RD,PISGAH FOREST,NC,28768,35.32104288,-82.6516014,House, 
129,BIG VALLEY RD,PISGAH FOREST,NC,28768,35.3221077,-82.65238823,House, 
160,BIG VALLEY RD,PISGAH FOREST,NC,28768,35.3207466,-82.64988875,House, 
198,BIG VALLEY RD,PISGAH FOREST,NC,28768,35.32196859,-82.65080124,House, 
208,BIG VALLEY RD,PISGAH FOREST,NC,28768,35.32220862,-82.64967742,House, 
210,BIG VALLEY RD,PISGAH FOREST,NC,28768,35.32140861,-82.64959013,House, 
213,BIG VALLEY RD,PISGAH FOREST,NC,28768,35.32290871,-82.65167073,House, 
44,BLANTYRE CHURCH RD,PISGAH FOREST,NC,28768,35.30503684,-82.62901214,House, 
46,BLANTYRE CHURCH RD,PISGAH FOREST,NC,28768,35.3056713,-82.62930667,House, 
226,BLANTYRE CHURCH RD,HORSE SHOE,NC,28742,35.30718819,-82.62819026,House, 
375,BLANTYRE CHURCH RD,HORSE SHOE,NC,28742,35.30779564,-82.62641016,House, 
437,BLANTYRE CHURCH RD,HORSE SHOE,NC,28742,35.30989019,-82.62648002,House, 
15,BLANTYRE HILLS DR,HORSE SHOE,NC,28742,35.30903376,-82.63158894,House, 
20,BLANTYRE HILLS DR,HORSE SHOE,NC,28742,35.30943457,-82.63270447,House, 
40,BLANTYRE HILLS DR,HORSE SHOE,NC,28742,35.30912458,-82.63275717,House, 
43,BLANTYRE HILLS DR,HORSE SHOE,NC,28742,35.30878216,-82.63205647,House, 
25,BOB DR,PISGAH FOREST,NC,28768,35.31476316,-82.65888875,House, 
35,BOB DR,PISGAH FOREST,NC,28768,35.31466587,-82.65874818,House, 
70,BOB DR,PISGAH FOREST,NC,28768,35.31395077,-82.65816702,House, 
141,BOB DR,PISGAH FOREST,NC,28768,35.31372502,-82.657412,House, 
194,BREEZY MOUNTAIN LN,MILLS RIVER,NC,28759,35.32076289,-82.63858207,House, 
68,CIRCLE T RD,PISGAH FOREST,NC,28768,35.31406891,-82.66111868,House, 
73,CIRCLE T RD,PISGAH FOREST,NC,28768,35.31418534,-82.66064496,House, 
82,CIRCLE T RD,PISGAH FOREST,NC,28768,35.31388319,-82.6609252,House, 
322,CLUB GAP  TRL,PISGAH FOREST,NC,28768,35.34615966,-82.78081044,House, 
22,COCK'S COMB LN,HORSE SHOE,NC,28742,35.32693659,-82.64637817,House, 
27,COCK'S COMB LN,HORSE SHOE,NC,28742,35.32672006,-82.64599021,House, 
30,COCK'S COMB LN,HORSE SHOE,NC,28742,35.32676751,-82.646482,House, 
50,COCK'S COMB LN,HORSE SHOE,NC,28742,35.32644999,-82.64652814,House, 
67,COCK'S COMB LN,HORSE SHOE,NC,28742,35.32621712,-82.64616278,House, 
70,COCK'S COMB LN,HORSE SHOE,NC,28742,35.32617008,-82.64669975,House, 
75,COCK'S COMB LN,HORSE SHOE,NC,28742,35.32600407,-82.64624467,House, 
94,COCK'S COMB LN,HORSE SHOE,NC,28742,35.32581542,-82.64692534,House, 
103,COCK'S COMB LN,HORSE SHOE,NC,28742,35.32563649,-82.64627938,House, 
104,COCK'S COMB LN,HORSE SHOE,NC,28742,35.32557831,-82.64697633,House, 
118,COCK'S COMB LN,HORSE SHOE,NC,28742,35.32530208,-82.64658231,House, 
130,COCK'S COMB LN,HORSE SHOE,NC,28742,35.32517114,-82.64630616,House, 
145,COCK'S COMB LN,HORSE SHOE,NC,28742,35.32553822,-82.64591508,House, 
152,COCK'S COMB LN,HORSE SHOE,NC,28742,35.32500093,-82.64597845,House, 
178,COCK'S COMB LN,HORSE SHOE,NC,28742,35.32491918,-82.64570991,House, 
185,COCK'S COMB LN,HORSE SHOE,NC,28742,35.32533611,-82.64523752,House, 
200,COCK'S COMB LN,HORSE SHOE,NC,28742,35.32481048,-82.6453577,House, 
57,COLTON DR,PISGAH FOREST,NC,28768,35.31603728,-82.6591733,House, 
75,COLTON DR,PISGAH FOREST,NC,28768,35.31585232,-82.65880775,House, 
89,COLTON DR,PISGAH FOREST,NC,28768,35.31578715,-82.65866489,House, 
97,COLTON DR,PISGAH FOREST,NC,28768,35.31568979,-82.6585506,House, 
107,COLTON DR,PISGAH FOREST,NC,28768,35.31561222,-82.65840003,House, 
119,COLTON DR,PISGAH FOREST,NC,28768,35.31552851,-82.65825287,House, 
129,COLTON DR,PISGAH FOREST,NC,28768,35.31546058,-82.65812955,House, 
139,COLTON DR,PISGAH FOREST,NC,28768,35.31535631,-82.65798975,House, 
76,COYOTE RDG,PISGAH FOREST,NC,28768,35.30443117,-82.65281627,House, 
129,COYOTE RDG,PISGAH FOREST,NC,28768,35.30391567,-82.65139301,House, 
140,COYOTE RDG,PISGAH FOREST,NC,28768,35.30395944,-82.65203344,House, 
305,COYOTE RDG,PISGAH FOREST,NC,28768,35.3018033,-82.6518537,House, 
369,COYOTE RDG,PISGAH FOREST,NC,28768,35.3006974,-82.65275381,House, 
433,COYOTE RDG,PISGAH FOREST,NC,28768,35.30001684,-82.6532433,House, 
11,CRITTER CREEK TRL,HORSE SHOE,NC,28742,35.32065058,-82.64707165,House, 
33,CRITTER CREEK TRL,HORSE SHOE,NC,28742,35.32083733,-82.64764847,House, 
40,CRITTER CREEK TRL,HORSE SHOE,NC,28742,35.32109235,-82.64756156,House, 
218,DAVID'S TRCE,PISGAH FOREST,NC,28768,35.3016485,-82.67870903,House, 
273,DAVID'S TRCE,PISGAH FOREST,NC,28768,35.3027535,-82.67926655,House, 
311,DAVID'S TRCE,PISGAH FOREST,NC,28768,35.30285678,-82.67867421,House, 
359,DAVID'S TRCE,PISGAH FOREST,NC,28768,35.30247519,-82.67667466,House, 
390,DAVID'S TRCE,PISGAH FOREST,NC,28768,35.30188991,-82.6773263,House, 
490,DAVID'S TRCE,PISGAH FOREST,NC,28768,35.30143051,-82.67616925,House, 
25,DOG CREEK PASS,PISGAH FOREST,NC,28768,35.32575434,-82.65725154,House, 
271,DOG CREEK PASS,PISGAH FOREST,NC,28768,35.32595918,-82.65581906,House, 
272,DOG CREEK PASS,PISGAH FOREST,NC,28768,35.32583352,-82.65533697,House, 
290,DOG CREEK PASS,PISGAH FOREST,NC,28768,35.32627577,-82.65530031,House, 
18,ED MCCALL RDG,PISGAH FOREST,NC,28768,35.32673448,-82.64956418,House, 
22,ED MCCALL RDG,PISGAH FOREST,NC,28768,35.32643564,-82.64934067,House, 
110,ED MCCALL RDG,PISGAH FOREST,NC,28768,35.32591498,-82.6485978,House, 
153,ED MCCALL RDG,PISGAH FOREST,NC,28768,35.32654377,-82.64876736,House, 
176,ED MCCALL RDG,PISGAH FOREST,NC,28768,35.32687577,-82.64856899,House, 
50,EXERCISE BUILDING RD,PISGAH FOREST,NC,28768,35.32500723,-82.68660014,House, 
64,FERN COVE LN,PISGAH FOREST,NC,28768,35.30461047,-82.6766033,House, 
283,FERN COVE LN,PISGAH FOREST,NC,28768,35.30476947,-82.67335403,House, 
359,FERN COVE LN,PISGAH FOREST,NC,28768,35.30472837,-82.67272787,House, 
27,FIREFLY MEADOWS RD,PISGAH FOREST,NC,28768,35.30674542,-82.63684072,House, 
133,FIREFLY MEADOWS RD,PISGAH FOREST,NC,28768,35.30492869,-82.63885353,House, 
174,FIREFLY MEADOWS RD,PISGAH FOREST,NC,28768,35.30661794,-82.64076829,House, 
176,FIREFLY MEADOWS RD,PISGAH FOREST,NC,28768,35.30684093,-82.64034554,House, 
20,FLYNN LN,PISGAH FOREST,NC,28768,35.30029657,-82.62764824,House, 
44,FLYNN LN,PISGAH FOREST,NC,28768,35.30061234,-82.62813616,House, 
5,FOUR WHEEL DR,PISGAH FOREST,NC,28768,35.31237097,-82.65498885,House, 
20,FOUR WHEEL DR,PISGAH FOREST,NC,28768,35.31160415,-82.65389615,House, 
49,FOUR WHEEL DR,PISGAH FOREST,NC,28768,35.31203444,-82.65438414,House, 
52,FOUR WHEEL DR,PISGAH FOREST,NC,28768,35.31190965,-82.65378008,House, 
75,FOUR WHEEL DR,PISGAH FOREST,NC,28768,35.31235864,-82.65417729,House, 
78,FOUR WHEEL DR,PISGAH FOREST,NC,28768,35.31203321,-82.65340644,House, 
95,FOUR WHEEL DR,PISGAH FOREST,NC,28768,35.31305414,-82.65361137,House, 
136,FOUR WHEEL DR,PISGAH FOREST,NC,28768,35.31268074,-82.65308939,House, 
45,FOX CREEK LN,PISGAH FOREST,NC,28768,35.30082408,-82.67175652,House, 
118,FOX HOLLOW RD,PISGAH FOREST,NC,28768,35.30127728,-82.67098065,House, 
281,FOX HOLLOW RD,PISGAH FOREST,NC,28768,35.3036647,-82.66963172,House, 
465,FOX HOLLOW RD,PISGAH FOREST,NC,28768,35.30430526,-82.6683589,House, 
1164,FOX HOLLOW RD,PISGAH FOREST,NC,28768,35.30085087,-82.66205301,House, 
1194,FOX HOLLOW RD,PISGAH FOREST,NC,28768,35.30139688,-82.66045255,House, 
1216,FOX HOLLOW RD,PISGAH FOREST,NC,28768,35.30191581,-82.66061272,House, 
1415,FOX HOLLOW RD,PISGAH FOREST,NC,28768,35.30440538,-82.65796321,House, 
1518,FOX HOLLOW RD,PISGAH FOREST,NC,28768,35.30359248,-82.65693608,House, 
1526,FOX HOLLOW RD,PISGAH FOREST,NC,28768,35.30421142,-82.65694537,House, 
1605,FOX HOLLOW RD,PISGAH FOREST,NC,28768,35.30597725,-82.6553595,House, 
1730,FOX HOLLOW RD,PISGAH FOREST,NC,28768,35.30404454,-82.65458665,House, 
1829,FOX HOLLOW RD,PISGAH FOREST,NC,28768,35.30368734,-82.65285479,House, 
1881,FOX HOLLOW RD,PISGAH FOREST,NC,28768,35.30306909,-82.65391058,House, 
1927,FOX HOLLOW RD,PISGAH FOREST,NC,28768,35.30268443,-82.65386189,House, 
1929,FOX HOLLOW RD,PISGAH FOREST,NC,28768,35.30259869,-82.65346724,House, 
1963,FOX HOLLOW RD,PISGAH FOREST,NC,28768,35.30221211,-82.65353438,House, 
1991,FOX HOLLOW RD,PISGAH FOREST,NC,28768,35.30175394,-82.6543605,House, 
2000,FOX HOLLOW RD,PISGAH FOREST,NC,28768,35.30111428,-82.65594147,House, 
2035,FOX HOLLOW RD,PISGAH FOREST,NC,28768,35.30140874,-82.65443583,House, 
2045,FOX HOLLOW RD,PISGAH FOREST,NC,28768,35.30146974,-82.6547351,House, 
2073,FOX HOLLOW RD,PISGAH FOREST,NC,28768,35.30056303,-82.65525099,House, 
2187,FOX HOLLOW RD,PISGAH FOREST,NC,28768,35.30036588,-82.65622602,House, 
2197,FOX HOLLOW RD,PISGAH FOREST,NC,28768,35.30056345,-82.6575186,House, 
2200,FOX HOLLOW RD,PISGAH FOREST,NC,28768,35.30095247,-82.65694858,House, 
2224,FOX HOLLOW RD,PISGAH FOREST,NC,28768,35.30118468,-82.65762561,House, 
2236,FOX HOLLOW RD,PISGAH FOREST,NC,28768,35.30071136,-82.65862383,House, 
350,GENERATION PASS,PISGAH FOREST,NC,28768,35.33117215,-82.65590439,House, 
455,GENERATION PASS,PISGAH FOREST,NC,28768,35.32873789,-82.65895051,House, 
600,GENERATION PASS,PISGAH FOREST,NC,28768,35.33031152,-82.65968508,House, 
90,GOBBLER CIR,HORSE SHOE,NC,28742,35.32628572,-82.6472225,House, 
170,GOBBLER CIR,HORSE SHOE,NC,28742,35.32592622,-82.64758321,House, 
180,GOBBLER CIR,HORSE SHOE,NC,28742,35.32612055,-82.64779639,House, 
183,GOBBLER CIR,HORSE SHOE,NC,28742,35.32594858,-82.64810806,House, 
209,GOBBLER CIR,HORSE SHOE,NC,28742,35.32630498,-82.64831673,House, 
210,GOBBLER CIR,HORSE SHOE,NC,28742,35.32647182,-82.64787038,House, 
231,GOBBLER CIR,HORSE SHOE,NC,28742,35.32672174,-82.64818127,House, 
240,GOBBLER CIR,HORSE SHOE,NC,28742,35.32678982,-82.64759155,House, 
249,GOBBLER CIR,HORSE SHOE,NC,28742,35.3274085,-82.64787131,House, 
260,GOBBLER CIR,HORSE SHOE,NC,28742,35.32702668,-82.64729641,House, 
292,GOBBLER CIR,HORSE SHOE,NC,28742,35.32741829,-82.64698158,House, 
293,GOBBLER CIR,HORSE SHOE,NC,28742,35.32789502,-82.64744142,House, 
85,GRADY LN,PISGAH FOREST,NC,28768,35.30715967,-82.63280335,House, 
123,GRADY LN,PISGAH FOREST,NC,28768,35.30762922,-82.63253119,House, 
120,GREENVIEW LN,PISGAH FOREST,NC,28768,35.32338023,-82.65425697,House, 
159,GREENVIEW LN,PISGAH FOREST,NC,28768,35.32304285,-82.65503486,House, 
250,GREENVIEW LN,PISGAH FOREST,NC,28768,35.32353142,-82.65527075,House, 
95,HAWKINS FARM RD,PISGAH FOREST,NC,28768,35.30359783,-82.63038463,House, 
127,HAWKINS FARM RD,PISGAH FOREST,NC,28768,35.30342915,-82.63087723,House, 
136,HAWKINS FARM RD,PISGAH FOREST,NC,28768,35.30353909,-82.6310779,House, 
162,HAWKINS FARM RD,PISGAH FOREST,NC,28768,35.30343513,-82.63148552,House, 
163,HAWKINS FARM RD,PISGAH FOREST,NC,28768,35.30327054,-82.63145027,House, 
575,HAWKINS FARM RD,PISGAH FOREST,NC,28768,35.30043625,-82.63222745,House, 
6185,HENDERSONVILLE HWY,PISGAH FOREST,NC,28768,35.30110694,-82.62577699,House, 
24,HOLIDAY VIEW DR,HORSE SHOE,NC,28742,35.30617293,-82.6290443,House, 
103,HOLLAND RD,PISGAH FOREST,NC,28768,35.31251535,-82.665686,House, 
143,HOLLAND RD,PISGAH FOREST,NC,28768,35.31422305,-82.66631903,House, 
210,HOLLAND RD,PISGAH FOREST,NC,28768,35.31465272,-82.66560025,House, 
244,HOLLAND RD,PISGAH FOREST,NC,28768,35.31533602,-82.6662963,House, 
364,HOLLAND RD,PISGAH FOREST,NC,28768,35.31598757,-82.66858637,House, 
365,HOLLAND RD,PISGAH FOREST,NC,28768,35.31538255,-82.66960776,House, 
600,HOLLAND RD,PISGAH FOREST,NC,28768,35.31794698,-82.67033702,House, 
22,HOLLIDAY ACRES,HORSE SHOE,NC,28742,35.30707184,-82.63042347,House, 
84,HOLLIDAY ACRES,HORSE SHOE,NC,28742,35.3070231,-82.63138829,House, 
91,HOLLIDAY ACRES,HORSE SHOE,NC,28742,35.30674997,-82.63170592,House, 
101,HOLLIDAY ACRES,HORSE SHOE,NC,28742,35.30705747,-82.63217554,House, 
103,HOLLIDAY ACRES,HORSE SHOE,NC,28742,35.30742072,-82.63223539,House, 
104,HOLLIDAY ACRES,HORSE SHOE,NC,28742,35.30741827,-82.63157075,House, 
106,HOLLIDAY ACRES,HORSE SHOE,NC,28742,35.3075968,-82.63198047,House, 
21,HOLLIDAY HILL DR,HORSE SHOE,NC,28742,35.30746138,-82.63035844,House, 
5,HOLLIDAY RD,HORSE SHOE,NC,28742,35.30622592,-82.63036338,House, 
40,HOLLIDAY RD,HORSE SHOE,NC,28742,35.30679245,-82.62957297,House, 
56,HOLLIDAY RD,HORSE SHOE,NC,28742,35.30732075,-82.62971323,House, 
475,HOLLIDAY RD,HORSE SHOE,NC,28742,35.31103181,-82.63444813,House, 
565,HOLLIDAY RD,HORSE SHOE,NC,28742,35.31147362,-82.63379032,House, 
597,HOLLIDAY RD,HORSE SHOE,NC,28742,35.31269466,-82.63479369,House, 
640,HOLLIDAY RD,HORSE SHOE,NC,28742,35.31309052,-82.63367509,House, 
694,HOLLIDAY RD,HORSE SHOE,NC,28742,35.31394807,-82.6333648,House, 
733,HOLLIDAY RD,HORSE SHOE,NC,28742,35.3138296,-82.63603301,House, 
845,HOLLIDAY RD,HORSE SHOE,NC,28742,35.31517362,-82.63607116,House, 
874,HOLLIDAY RD,HORSE SHOE,NC,28742,35.3159184,-82.63571568,House, 
910,HOLLIDAY RD,HORSE SHOE,NC,28742,35.31653195,-82.63587059,House, 
917,HOLLIDAY RD,HORSE SHOE,NC,28742,35.3166593,-82.6368438,House, 
920,HOLLIDAY RD,HORSE SHOE,NC,28742,35.31699047,-82.63627597,House, 
931,HOLLIDAY RD,HORSE SHOE,NC,28742,35.31704742,-82.63674578,House, 
985,HOLLIDAY RD,HORSE SHOE,NC,28742,35.31763505,-82.63687038,House, 
1010,HOLLIDAY RD,HORSE SHOE,NC,28742,35.31758074,-82.63629028,House, 
1021,HOLLIDAY RD,HORSE SHOE,NC,28742,35.31842513,-82.63787496,House, 
1070,HOLLIDAY RD,HORSE SHOE,NC,28742,35.31825399,-82.63603748,House, 
376,HUNTER LN,PISGAH FOREST,NC,28768,35.30355975,-82.69948137,House, 
14,IRVIN RD,PISGAH FOREST,NC,28768,35.31514638,-82.66704539,House, 
105,IRVIN RD,PISGAH FOREST,NC,28768,35.31616104,-82.66788752,House, 
134,IRVIN RD,PISGAH FOREST,NC,28768,35.31697685,-82.66787416,House, 
1810,IVY LN,PISGAH FOREST,NC,28768,35.3024294,-82.69559111,House, 
1812,IVY LN,PISGAH FOREST,NC,28768,35.30137756,-82.69548079,House, 
1875,IVY LN,PISGAH FOREST,NC,28768,35.30330791,-82.69507082,House, 
1910,IVY LN,PISGAH FOREST,NC,28768,35.30315908,-82.69381203,House, 
2199,IVY LN,PISGAH FOREST,NC,28768,35.30721688,-82.69516008,House, 
2300,IVY LN,PISGAH FOREST,NC,28768,35.30851221,-82.69466049,House, 
2383,IVY LN,PISGAH FOREST,NC,28768,35.3084456,-82.69599959,House, 
2585,IVY LN,PISGAH FOREST,NC,28768,35.31167194,-82.69696379,House, 
22,KING CIR,PISGAH FOREST,NC,28768,35.31189016,-82.63889559,House, 
47,KING CIR,PISGAH FOREST,NC,28768,35.31268621,-82.63930691,House, 
100,KING CIR,PISGAH FOREST,NC,28768,35.31179058,-82.6382261,House, 
167,KING CIR,PISGAH FOREST,NC,28768,35.31191805,-82.63745115,House, 
200,KING CIR,PISGAH FOREST,NC,28768,35.31090844,-82.63672388,House, 
270,KING CIR,PISGAH FOREST,NC,28768,35.31176201,-82.63596577,House, 
271,KING CIR,PISGAH FOREST,NC,28768,35.31131577,-82.63630702,House, 
315,KING CIR,PISGAH FOREST,NC,28768,35.31190113,-82.63685975,House, 
328,KING CIR,PISGAH FOREST,NC,28768,35.31236265,-82.636535,House, 
334,KING CIR,PISGAH FOREST,NC,28768,35.31266646,-82.6368069,House, 
424,KING CIR,PISGAH FOREST,NC,28768,35.31332603,-82.63784255,House, 
428,KING CIR,PISGAH FOREST,NC,28768,35.31333218,-82.63863887,House, 
472,KING CIR,PISGAH FOREST,NC,28768,35.31305015,-82.63888189,House, 
32,KING RD,PISGAH FOREST,NC,28768,35.31096465,-82.66522786,House, 
35,KING RD,PISGAH FOREST,NC,28768,35.31146552,-82.66432128,House, 
90,KING RD,PISGAH FOREST,NC,28768,35.3104307,-82.66408475,House, 
91,KING RD,PISGAH FOREST,NC,28768,35.31074879,-82.66363175,House, 
141,KING RD,PISGAH FOREST,NC,28768,35.31065636,-82.66313438,House, 
214,KING RD,PISGAH FOREST,NC,28768,35.30824441,-82.66308402,House, 
216,KING RD,PISGAH FOREST,NC,28768,35.30943744,-82.66174769,House, 
301,KING RD,PISGAH FOREST,NC,28768,35.31069923,-82.66071822,House, 
303,KING RD,PISGAH FOREST,NC,28768,35.31106374,-82.66061686,House, 
315,KING RD,PISGAH FOREST,NC,28768,35.31034101,-82.66060945,House, 
354,KING RD,PISGAH FOREST,NC,28768,35.30979181,-82.65993546,House, 
356,KING RD,PISGAH FOREST,NC,28768,35.30953186,-82.6599762,House, 
429,KING RD,PISGAH FOREST,NC,28768,35.30956259,-82.65854287,House, 
433,KING RD,PISGAH FOREST,NC,28768,35.310504,-82.6588658,House, 
435,KING RD,PISGAH FOREST,NC,28768,35.31099368,-82.65929791,House, 
457,KING RD,PISGAH FOREST,NC,28768,35.31031028,-82.65822455,House, 
459,KING RD,PISGAH FOREST,NC,28768,35.3105022,-82.65789998,House, 
