Number,Street,City,State,PostalCode,Latitude,Longitude,Type,ApartmentNumber
523,TURKEY PEN GAP RD,HORSE SHOE,NC,28742,35.32243502,-82.64513458,House, 
556,TURKEY PEN GAP RD,HORSE SHOE,NC,28742,35.32262514,-82.64666739,House, 
568,TURKEY PEN GAP RD,HORSE SHOE,NC,28742,35.32315571,-82.64625692,House, 
586,TURKEY PEN GAP RD,HORSE SHOE,NC,28742,35.32224685,-82.64683002,House, 
624,TURKEY PEN GAP RD,HORSE SHOE,NC,28742,35.32201503,-82.64702144,House, 
644,TURKEY PEN GAP RD,HORSE SHOE,NC,28742,35.32186741,-82.64666892,House, 
668,TURKEY PEN GAP RD,HORSE SHOE,NC,28742,35.32162786,-82.64647451,House, 
670,TURKEY PEN GAP RD,HORSE SHOE,NC,28742,35.32167402,-82.64722881,House, 
740,TURKEY PEN GAP RD,HORSE SHOE,NC,28742,35.32088515,-82.64682062,House, 
777,TURKEY PEN GAP RD,HORSE SHOE,NC,28742,35.32026615,-82.64632595,House, 
780,TURKEY PEN GAP RD,HORSE SHOE,NC,28742,35.32041354,-82.64719278,House, 
789,TURKEY PEN GAP RD,HORSE SHOE,NC,28742,35.32026162,-82.6467833,House, 
798,TURKEY PEN GAP RD,HORSE SHOE,NC,28742,35.32052193,-82.64785149,House, 
800,TURKEY PEN GAP RD,HORSE SHOE,NC,28742,35.32010794,-82.64750395,House, 
810,TURKEY PEN GAP RD,HORSE SHOE,NC,28742,35.32032196,-82.64793347,House, 
811,TURKEY PEN GAP RD,HORSE SHOE,NC,28742,35.31951152,-82.64688348,House, 
814,TURKEY PEN GAP RD,HORSE SHOE,NC,28742,35.31969065,-82.64760024,House, 
821,TURKEY PEN GAP RD,HORSE SHOE,NC,28742,35.31977132,-82.64661168,House, 
845,TURKEY PEN GAP RD,HORSE SHOE,NC,28742,35.31870133,-82.64649284,House, 
847,TURKEY PEN GAP RD,HORSE SHOE,NC,28742,35.31889167,-82.64758008,House, 
860,TURKEY PEN GAP RD,HORSE SHOE,NC,28742,35.31905531,-82.64808288,House, 
895,TURKEY PEN GAP RD,HORSE SHOE,NC,28742,35.31837181,-82.64755245,House, 
946,TURKEY PEN GAP RD,HORSE SHOE,NC,28742,35.31937501,-82.64874344,House, 
957,TURKEY PEN GAP RD,HORSE SHOE,NC,28742,35.31828531,-82.64818469,House, 
958,TURKEY PEN GAP RD,HORSE SHOE,NC,28742,35.31901857,-82.64876381,House, 
960,TURKEY PEN GAP RD,HORSE SHOE,NC,28742,35.31857113,-82.64900115,House, 
975,TURKEY PEN GAP RD,HORSE SHOE,NC,28742,35.31822388,-82.64860215,House, 
981,TURKEY PEN GAP RD,HORSE SHOE,NC,28742,35.31818971,-82.64904988,House, 
12,TURKEY PEN LN,HORSE SHOE,NC,28742,35.32160583,-82.64591771,House, 
21,TURKEY PEN LN,HORSE SHOE,NC,28742,35.32217083,-82.64633204,House, 
23,TURKEY PEN LN,HORSE SHOE,NC,28742,35.32231941,-82.64622005,House, 
27,TURKEY PEN LN,HORSE SHOE,NC,28742,35.32218649,-82.64586165,House, 
35,TURKEY PEN LN,HORSE SHOE,NC,28742,35.3219647,-82.64566798,House, 
73,TURKEY PEN LN,HORSE SHOE,NC,28742,35.32158828,-82.64532653,House, 
96,TURKEY PEN LN,HORSE SHOE,NC,28742,35.32128625,-82.64573945,House, 
65,WELLS FARM VIEW DR,HORSE SHOE,NC,28742,35.30919134,-82.63363637,House, 
69,WELLS FARM VIEW DR,HORSE SHOE,NC,28742,35.30937678,-82.63401434,House, 
50,WINNFORD LN,PISGAH FOREST,NC,28768,35.31555271,-82.65974162,House, 
53,WINNFORD LN,PISGAH FOREST,NC,28768,35.31573805,-82.65948429,House, 
60,WINNFORD LN,PISGAH FOREST,NC,28768,35.31550143,-82.65955652,House, 
71,WINNFORD LN,PISGAH FOREST,NC,28768,35.31554815,-82.6593147,House, 
72,WINNFORD LN,PISGAH FOREST,NC,28768,35.31537954,-82.65943271,House, 
79,WINNFORD LN,PISGAH FOREST,NC,28768,35.31549551,-82.65915345,House, 
86,WINNFORD LN,PISGAH FOREST,NC,28768,35.31527436,-82.65930719,House, 
87,WINNFORD LN,PISGAH FOREST,NC,28768,35.31540226,-82.65904381,House, 
109,WINNFORD LN,PISGAH FOREST,NC,28768,35.31519421,-82.65874529,House, 
117,WINNFORD LN,PISGAH FOREST,NC,28768,35.3150679,-82.65859917,House, 
131,WINNFORD LN,PISGAH FOREST,NC,28768,35.31495532,-82.65848985,House, 
85,WOODY'S RD,PISGAH FOREST,NC,28768,35.32540032,-82.6522438,House, 
91,WOODY'S RD,PISGAH FOREST,NC,28768,35.32518974,-82.65238548,House, 
135,WOODY'S RD,PISGAH FOREST,NC,28768,35.3247284,-82.6529057,House, 
168,WOODY'S RD,PISGAH FOREST,NC,28768,35.32486396,-82.65316313,House, 
1769,KING RD,PISGAH FOREST,NC,28768,35.31007,-82.6380663,House, 
2292,KING RD,PISGAH FOREST,NC,28768,35.30470155,-82.63337065,House, 
2298,KING RD,PISGAH FOREST,NC,28768,35.30399455,-82.632568,House, 
2371,KING RD,PISGAH FOREST,NC,28768,35.30474935,-82.63165623,House, 
2411,KING RD,PISGAH FOREST,NC,28768,35.30472539,-82.63076754,House, 
2459,KING RD,PISGAH FOREST,NC,28768,35.30568277,-82.62742442,House, 
2451,KING RD,PISGAH FOREST,NC,28768,35.30494572,-82.62996526,House, 
2412,KING RD,PISGAH FOREST,NC,28768,35.30417255,-82.63046919,House, 
2418,KING RD,PISGAH FOREST,NC,28768,35.30438406,-82.63040877,House, 
2334,KING RD,PISGAH FOREST,NC,28768,35.30418638,-82.63178538,House, 
2540,KING RD,PISGAH FOREST,NC,28768,35.30348491,-82.62916695,House, 
2558,KING RD,PISGAH FOREST,NC,28768,35.30289889,-82.62921123,House, 
2562,KING RD,PISGAH FOREST,NC,28768,35.30187488,-82.62835426,House, 
2560,KING RD,PISGAH FOREST,NC,28768,35.30189887,-82.62889664,House, 
2795,KING RD,PISGAH FOREST,NC,28768,35.3005821,-82.62643646,House, 
2746,KING RD,PISGAH FOREST,NC,28768,35.30138521,-82.62778953,House, 
2770,KING RD,PISGAH FOREST,NC,28768,35.30025269,-82.62693541,House, 
2772,KING RD,PISGAH FOREST,NC,28768,35.3004967,-82.62705155,House, 
2693,KING RD,PISGAH FOREST,NC,28768,35.3018908,-82.62718725,House, 
2673,KING RD,PISGAH FOREST,NC,28768,35.30222607,-82.62734736,House, 
2651,KING RD,PISGAH FOREST,NC,28768,35.30255192,-82.62755381,House, 
2629,KING RD,PISGAH FOREST,NC,28768,35.3028086,-82.62774256,House, 
2595,KING RD,PISGAH FOREST,NC,28768,35.30306787,-82.62788521,House, 
2559,KING RD,PISGAH FOREST,NC,28768,35.30382947,-82.62795563,House, 
2535,KING RD,PISGAH FOREST,NC,28768,35.30460406,-82.62816214,House, 
31,GOLDMINE RDG,PISGAH FOREST,NC,28768,35.30684347,-82.67309128,House, 
51,GOLDMINE RDG,PISGAH FOREST,NC,28768,35.307189,-82.67273731,House, 
50,GOLDMINE RDG,PISGAH FOREST,NC,28768,35.30695223,-82.67207847,House, 
81,GOLDMINE RDG,PISGAH FOREST,NC,28768,35.30743779,-82.67232354,House, 
98,GOLDMINE RDG,PISGAH FOREST,NC,28768,35.30735835,-82.67143162,House, 
103,GOLDMINE RDG,PISGAH FOREST,NC,28768,35.30773307,-82.67193473,House, 
152,GOLDMINE RDG,PISGAH FOREST,NC,28768,35.30758579,-82.67110153,House, 
131,GOLDMINE RDG,PISGAH FOREST,NC,28768,35.30788104,-82.67148089,House, 
153,GOLDMINE RDG,PISGAH FOREST,NC,28768,35.30805746,-82.67117263,House, 
176,GOLDMINE RDG,PISGAH FOREST,NC,28768,35.30824959,-82.67053793,House, 
128,STILL MEADOW DR,PISGAH FOREST,NC,28768,35.30333945,-82.62698515,House,
307,LOBDELL RD,PISGAH FOREST,NC,28768,35.30288775,-82.67673698,House,
83,JACOB'S LADDER,PISGAH FOREST,NC,28768,35.30978832,-82.69536271,House,
222,JACOB'S LADDER,PISGAH FOREST,NC,28768,35.3093707,-82.69521698,House,
49,MCGUIRE LOOP,PISGAH FOREST,NC,28768,35.31595303,-82.66189423,House,
85,HOLLIDAY HILL DR,HORSE SHOE,NC,28742,35.3080588,-82.63146416,House,
53,HOLLIDAY HILL DR,HORSE SHOE,NC,28742,35.30769727,-82.63079058,House,
88,HAWKINS FARM RD,PISGAH FOREST,NC,28768,35.30389204,-82.63054589,House,
505,FOX HOLLOW RD,PISGAH FOREST,NC,28768,35.3047803,-82.66733045,House,
507,FOX HOLLOW RD,PISGAH FOREST,NC,28768,35.30478274,-82.667581,House,
60,KING RD,PISGAH FOREST,NC,28768,35.31066311,-82.66457744,House,
1934,KING RD,PISGAH FOREST,NC,28768,35.30823155,-82.63842065,House,
258,KING CIR,PISGAH FOREST,NC,28768,35.31075711,-82.63519326,House,
119,FOREST EDGE DR,PISGAH FOREST,NC,28768,35.30158317,-82.69850902,House,
210,KING RD,PISGAH FOREST,NC,28768,35.3075397,-82.66445562,House,
159,LIMOUSINE LN,PISGAH FOREST,NC,28768,35.32339926,-82.64809475,House,
20,ROOST RD,HORSE SHOE,NC,28742,35.32264435,-82.64501165,House,
242,BREEZY MOUNTAIN LN,MILLS RIVER,NC,28759,35.3209922,-82.63887123,House,
672,TURKEY PEN GAP RD,HORSE SHOE,NC,28742,35.32145276,-82.64677641,House,
1258,FOX HOLLOW RD,PISGAH FOREST,NC,28768,35.30281676,-82.65925252,House,
2023,KING RD,PISGAH FOREST,NC,28768,35.3105543,-82.63768692,House,
1985,KING RD,PISGAH FOREST,NC,28768,35.30783948,-82.63636717,House,
442,BLANTYRE CHURCH RD,HORSE SHOE,NC,28742,35.30817291,-82.62494881,House,
78,BIG VALLEY RD,PISGAH FOREST,NC,28768,35.32000951,-82.65102297,House,
203,LIME KILN LN,PISGAH FOREST,NC,28768,35.31778453,-82.65386528,Other,
1490,KING RD,PISGAH FOREST,NC,28768,35.31332165,-82.64167368,House,
153,KING RD,PISGAH FOREST,NC,28768,35.31114573,-82.66245463,House,
2189,SUTTON CREEK RD,PISGAH FOREST,NC,28768,35.32495514,-82.6873019,House,
65,TURKEY PEN GAP RD,HORSE SHOE,NC,28742,35.32823644,-82.64626775,House,
361,HOLLAND RD,PISGAH FOREST,NC,28768,35.31564398,-82.66848805,House,
294,GENERATION PASS,PISGAH FOREST,NC,28768,35.32906604,-82.65561746,House,
6852,ASHEVILLE HWY,PISGAH FOREST,NC,28768,35.32238091,-82.65378349,House,
699,SUTTON CREEK RD,PISGAH FOREST,NC,28768,35.31111753,-82.67447959,House,
5,SUTTON MOUNTAIN RDG,PISGAH FOREST,NC,28768,35.31227586,-82.69697498,House,
362,KING RD,PISGAH FOREST,NC,28768,35.30642354,-82.66237549,House,
72,DEW HOLLOW DR,PISGAH FOREST,NC,28768,35.30980441,-82.63691813,House,
88,DEW HOLLOW DR,PISGAH FOREST,NC,28768,35.3099202,-82.63738983,House,
98,DEW HOLLOW DR,PISGAH FOREST,NC,28768,35.30982913,-82.63758084,House,
59,DEW HOLLOW DR,PISGAH FOREST,NC,28768,35.3096161,-82.63743878,House,
30,MAHAFFEY DR,PISGAH FOREST,NC,28768,35.31416268,-82.66292333,House,
840,HOLLIDAY RD,HORSE SHOE,NC,28742,35.31560575,-82.63525234,House,
890,SUTTON CREEK RD,PISGAH FOREST,NC,28768,35.31286137,-82.6777075,House,
42,TIMOTHY'S WAY,PISGAH FOREST,NC,28768,35.31509308,-82.66339311,House,
1483,KING RD,PISGAH FOREST,NC,28768,35.31358596,-82.64179482,House,
1104,KING RD,PISGAH FOREST,NC,28768,35.31221425,-82.64822142,House,
1338,NORTH PRONG RD,PISGAH FOREST,NC,28768,35.30847241,-82.70166359,House,
1366,NORTH PRONG RD,PISGAH FOREST,NC,28768,35.30913515,-82.70293764,House,
214,SILVER MINE RD,PISGAH FOREST,NC,28768,35.30176885,-82.69258926,House,
308,SILVER MINE RD,PISGAH FOREST,NC,28768,35.30147381,-82.69008601,House,
68,SILVER MINE RD,PISGAH FOREST,NC,28768,35.30225722,-82.69384938,House,
1179,KING RD,PISGAH FOREST,NC,28768,35.31312183,-82.6474835,House,
316,DAVID'S TRCE,PISGAH FOREST,NC,28768,35.30225022,-82.67827207,House,
85,SAWYER LN,HORSE SHOE,NC,28742,35.31641301,-82.6385877,House,
26,CEDARDALE RD,PISGAH FOREST,NC,28768,35.30599259,-82.69378994,House,
21,CEDARDALE RD,PISGAH FOREST,NC,28768,35.30635815,-82.6936963,House,
54,CEDARDALE RD,PISGAH FOREST,NC,28768,35.30588821,-82.69340728,House,
49,CEDARDALE RD,PISGAH FOREST,NC,28768,35.30619406,-82.69337086,House,
78,CEDARDALE RD,PISGAH FOREST,NC,28768,35.3055387,-82.69239635,House,
636,LOBDELL RD,PISGAH FOREST,NC,28768,35.3045704,-82.68067153,House,
1074,LOBDELL RD,PISGAH FOREST,NC,28768,35.3016256,-82.68567694,House,
71,HAPPY VALLEY DR,MILLS RIVER,NC,28759,35.32461074,-82.64309188,House,
93,FOGGY MOUNTAIN RD,HORSE SHOE,NC,28742,35.31225767,-82.62912331,House,
95,FOGGY MOUNTAIN RD,HORSE SHOE,NC,28742,35.31260417,-82.62910329,House,
466,LOOKOUT DR,PISGAH FOREST,NC,28768,35.31970205,-82.66666331,House,
152,FERNDALE RD,PISGAH FOREST,NC,28768,35.3082144,-82.69332228,House,
284,FERN COVE LN,PISGAH FOREST,NC,28768,35.3040565,-82.67387375,House,
324,FERN COVE LN,PISGAH FOREST,NC,28768,35.30407625,-82.67311893,House,
56,MCGUIRE LOOP,PISGAH FOREST,NC,28768,35.31666348,-82.66159199,Business,
384,HOLLYDALE RD,PISGAH FOREST,NC,28768,35.3097765,-82.6901305,House,
154,TURKEY PEN GAP RD,HORSE SHOE,NC,28742,35.32710773,-82.64632272,House,
121,SHAGGY LN,PISGAH FOREST,NC,28768,35.31456611,-82.64039142,House,
6128,ASHEVILLE HWY,PISGAH FOREST,NC,28768,35.3127768,-82.66321626,House,
528,HOLLAND RD,PISGAH FOREST,NC,28768,35.32181881,-82.66977329,Other,
6459,HENDERSONVILLE HWY,PISGAH FOREST,NC,28768,35.30523778,-82.62207099,Business,
1310,KING RD,PISGAH FOREST,NC,28768,35.3119164,-82.64391063,House,
418,DAVID'S TRCE,PISGAH FOREST,NC,28768,35.30191681,-82.67641514,House,
1052,HOLLIDAY RD,HORSE SHOE,NC,28742,35.31798052,-82.63578925,Other,
1613,FOX HOLLOW RD,PISGAH FOREST,NC,28768,35.30750601,-82.65272382,House,
100,ANNIE BELL LN,HORSE SHOE,NC,28742,35.31062836,-82.62975088,House,
308,BLANTYRE CHURCH RD,HORSE SHOE,NC,28742,35.30761501,-82.62884056,House,
125,BLANTYRE CHURCH RD,PISGAH FOREST,NC,28768,35.30595238,-82.63046613,House,
21,HOLIDAY VIEW DR,HORSE SHOE,NC,28742,35.30684054,-82.62862491,House,
105,HOLIDAY VIEW DR,HORSE SHOE,NC,28742,35.30609842,-82.62774455,House,
31,HOLIDAY VIEW DR,HORSE SHOE,NC,28742,35.30583557,-82.62807348,House,
37,GROVE BRIDGE RD,PISGAH FOREST,NC,28768,35.30010816,-82.62559845,House,
237,MORGAN CREEK DR,PISGAH FOREST,NC,28768,35.31546715,-82.66481718,House,
98,SUTTON CREEK RD,PISGAH FOREST,NC,28768,35.31200177,-82.6673189,House,
2221,KING RD,PISGAH FOREST,NC,28768,35.30630301,-82.63287296,House,
152,FRENCHMAN'S CREEK LN,PISGAH FOREST,NC,28768,35.31514375,-82.64951876,House,
276,FRENCHMAN'S CREEK LN,PISGAH FOREST,NC,28768,35.31666104,-82.64951206,House,
320,FRENCHMAN'S CREEK LN,PISGAH FOREST,NC,28768,35.3171522,-82.65011137,House,
329,FRENCHMAN'S CREEK LN,PISGAH FOREST,NC,28768,35.31692517,-82.65070197,House,
713,SUTTON CREEK RD,PISGAH FOREST,NC,28768,35.3102918,-82.6727078,House,
510,SUTTON MOUNTAIN RDG,PISGAH FOREST,NC,28768,35.31072442,-82.69153574,House,
783,HOLLYDALE RD,PISGAH FOREST,NC,28768,35.31022302,-82.68815034,House,
781,HOLLYDALE RD,PISGAH FOREST,NC,28768,35.30953917,-82.6886389,House,
185,HOLLIDAY RD,HORSE SHOE,NC,28742,35.3083966,-82.63083689,House,
448,OLD ENGLISH PLACE RD,PISGAH FOREST,NC,28768,35.31045961,-82.69489167,Other,
506,SUTTON MOUNTAIN RDG,PISGAH FOREST,NC,28768,35.30968193,-82.69232023,House,
6415,HENDERSONVILLE HWY,PISGAH FOREST,NC,28768,35.30460137,-82.62267542,Business,
814,HOLLIDAY RD,HORSE SHOE,NC,28742,35.31526433,-82.6351142,House,
442,TURKEY PEN GAP RD,HORSE SHOE,NC,28742,35.32356495,-82.64587645,House,
6021,ASHEVILLE HWY,PISGAH FOREST,NC,28768,35.31334071,-82.66410963,Business,
227,BREEZY MOUNTAIN LN,MILLS RIVER,NC,28759,35.32046323,-82.63850449,House,
21,LAKEPOINT DR,PISGAH FOREST,NC,28768,35.30898666,-82.67387103,House,
141,HOLLAND RD,PISGAH FOREST,NC,28768,35.31448248,-82.66702392,House,
6132,ASHEVILLE HWY,PISGAH FOREST,NC,28768,35.3129037,-82.66203563,House,
34,LIMOUSINE LN,PISGAH FOREST,NC,28768,35.32464674,-82.651337,House,
142,DAVID'S TRCE,PISGAH FOREST,NC,28768,35.30108798,-82.67793815,House,
100,FERNDALE RD,PISGAH FOREST,NC,28768,35.3073496,-82.69280101,House,
20,ANGELA LN,PISGAH FOREST,NC,28768,35.30435502,-82.67029341,Business,
37,ANGELA LN,PISGAH FOREST,NC,28768,35.30422614,-82.6699494,Business,
39,ANGELA LN,PISGAH FOREST,NC,28768,35.30418074,-82.66997814,Business,
43,ANGELA LN,PISGAH FOREST,NC,28768,35.30409141,-82.67009071,Business,
45,ANGELA LN,PISGAH FOREST,NC,28768,35.30408219,-82.67017049,Business,
41,ANGELA LN,PISGAH FOREST,NC,28768,35.30413074,-82.6700328,Business,
136,TEDDY LN,PISGAH FOREST,NC,28768,35.30466489,-82.66953917,Business,
128,TEDDY LN,PISGAH FOREST,NC,28768,35.30468538,-82.66988657,House,
57,MCGUIRE LOOP,PISGAH FOREST,NC,28768,35.31622732,-82.66263962,House,
59,MCGUIRE LOOP,PISGAH FOREST,NC,28768,35.31642088,-82.662395,House,
104,FERNDALE RD,PISGAH FOREST,NC,28768,35.3078005,-82.69260092,House,
71,MCGUIRE RD,PISGAH FOREST,NC,28768,35.31807616,-82.66009082,Business,
551,HOLLYDALE RD,PISGAH FOREST,NC,28768,35.31283018,-82.68965414,House,
553,HOLLYDALE RD,PISGAH FOREST,NC,28768,35.31373679,-82.68991754,House,
89,CIRCLE T RD,PISGAH FOREST,NC,28768,35.31406684,-82.66046537,House,
824,HOLLYDALE RD,PISGAH FOREST,NC,28768,35.30840375,-82.68910694,House,
1958,IVY LN,PISGAH FOREST,NC,28768,35.3029217,-82.69104328,House,
321,OLD ENGLISH PLACE RD,PISGAH FOREST,NC,28768,35.30970521,-82.69368395,House,
2000,IVY LN,PISGAH FOREST,NC,28768,35.30398745,-82.69173601,House,
106,CEDARDALE RD,PISGAH FOREST,NC,28768,35.30547559,-82.69274886,House,
163,FERNDALE RD,PISGAH FOREST,NC,28768,35.30810078,-82.6940587,House,
1056,BLACKSNAKE BRANCH RD,PISGAH FOREST,NC,28768,35.30150495,-82.71807869,House,
60,WOODSIA TRL,PISGAH FOREST,NC,28768,35.30541921,-82.67552645,House,
100,CIRCLE T RD,PISGAH FOREST,NC,28768,35.31366514,-82.6607915,House,
50,CIRCLE T RD,PISGAH FOREST,NC,28768,35.31429323,-82.66122975,House,
124,BIG VALLEY RD,PISGAH FOREST,NC,28768,35.3209518,-82.65092094,House,
965,FOX HOLLOW RD,PISGAH FOREST,NC,28768,35.30239728,-82.66275898,House,
2582,IVY LN,PISGAH FOREST,NC,28768,35.3112579,-82.69607819,House,
130,KUBOTA DR,HORSE SHOE,NC,28742,35.31456555,-82.63153208,House,
126,KUBOTA DR,HORSE SHOE,NC,28742,35.31452299,-82.63272473,House,
2190,IVY LN,PISGAH FOREST,NC,28768,35.3064461,-82.69462611,House,
49,CIRCLE T RD,PISGAH FOREST,NC,28768,35.31454318,-82.66092365,House,
39,CIRCLE T RD,PISGAH FOREST,NC,28768,35.3146511,-82.66101703,House,
22,CIRCLE T RD,PISGAH FOREST,NC,28768,35.31457905,-82.6615053,House,
639,FOX HOLLOW RD,PISGAH FOREST,NC,28768,35.30574525,-82.66422514,House,
480,HAWKINS FARM RD,PISGAH FOREST,NC,28768,35.30095602,-82.63280413,House,
14,ANNIE BELL LN,HORSE SHOE,NC,28742,35.30946686,-82.63080749,Other,
62,LOBDELL RD,PISGAH FOREST,NC,28768,35.30243106,-82.6745266,House,
50,RED CLOVER LN,PISGAH FOREST,NC,28768,35.30083417,-82.6790808,House,
6524,ASHEVILLE HWY,PISGAH FOREST,NC,28768,35.31768248,-82.65665496,House,
75,DAVID'S TRCE,PISGAH FOREST,NC,28768,35.3002682,-82.67705209,House,
2292,IVY LN,PISGAH FOREST,NC,28768,35.30721185,-82.69441115,House,
1200,KING RD,PISGAH FOREST,NC,28768,35.31097171,-82.64565238,House,
1000,FOX HOLLOW RD,PISGAH FOREST,NC,28768,35.30123174,-82.66554359,House,
728,KING RD,PISGAH FOREST,NC,28768,35.31088621,-82.65303311,House,
89,BLANTYRE CHURCH RD,PISGAH FOREST,NC,28768,35.30573449,-82.63056751,House,
2537,KING RD,PISGAH FOREST,NC,28768,35.30403958,-82.62862604,House,
271,BAYNARD RD,PISGAH FOREST,NC,28768,35.31874965,-82.65393188,House,
670,HOLLYDALE RD,PISGAH FOREST,NC,28768,35.31024811,-82.68930733,House,
818,KING RD,PISGAH FOREST,NC,28768,35.31023331,-82.65119857,House,
782,HOLLIDAY RD,HORSE SHOE,NC,28742,35.31482287,-82.63456505,House,
64,OLD ENGLISH PLACE RD,PISGAH FOREST,NC,28768,35.31068053,-82.69528826,House,
192,TURKEY PEN GAP RD,HORSE SHOE,NC,28742,35.32625615,-82.64505238,House,
2302,IVY LN,PISGAH FOREST,NC,28768,35.30888936,-82.69521822,Other,
104,FOREST EDGE DR,PISGAH FOREST,NC,28768,35.30241934,-82.69845543,House,
247,FERN COVE LN,PISGAH FOREST,NC,28768,35.3048913,-82.67420559,House,
73,TICA FARM DR,PISGAH FOREST,NC,28768,35.30489466,-82.62551253,Other,
190,BECKARUTH LN,PISGAH FOREST,NC,28768,35.315635,-82.657091,Other,
572,HOLLIDAY RD,HORSE SHOE,NC,28742,35.31194,-82.633441,House,
740,HOLLYDALE RD,PISGAH FOREST,NC,28768,35.309107,-82.689414,House,
580,HOLLYDALE RD,PISGAH FOREST,NC,28768,35.311168,-82.689394,House,
39,GROVE BRIDGE RD,PISGAH FOREST,NC,28768,35.300229,-82.625523,Business,
7405,ASHEVILLE HWY,PISGAH FOREST,NC,28768,35.328927,-82.649078,House,
253,BREEZY MOUNTAIN LN,MILLS RIVER,NC,28759,35.319944,-82.63943,House,
239,CHAMPIONS RDG,PISGAH FOREST,NC,28768,35.319727,-82.670272,House,
241,CHAMPIONS RDG,PISGAH FOREST,NC,28768,35.320483,-82.670843,House,
455,CHAMPIONS RDG,PISGAH FOREST,NC,28768,35.321924,-82.669852,House,
201,SAWYER LN,HORSE SHOE,NC,28742,35.317469,-82.638609,House,
93,KING RD,PISGAH FOREST,NC,28768,35.310724,-82.663562,House,
255,BREEZY MOUNTAIN LN,MILLS RIVER,NC,28759,35.319966,-82.639623,House,
200,DOG CREEK PASS,PISGAH FOREST,NC,28768,35.325141,-82.655625,House,
5802,ASHEVILLE HWY,PISGAH FOREST,NC,28768,35.309576,-82.664323,Business,
158,BIG VALLEY RD,PISGAH FOREST,NC,28768,35.321298,-82.650627,Other,
262,TEDDY LN,PISGAH FOREST,NC,28768,35.305689,-82.669072,Business,
268,TEDDY LN,PISGAH FOREST,NC,28768,35.305622,-82.669073,Business,
272,TEDDY LN,PISGAH FOREST,NC,28768,35.305551,-82.66907,Business,
236,TEDDY LN,PISGAH FOREST,NC,28768,35.305799,-82.668448,Business,
232,TEDDY LN,PISGAH FOREST,NC,28768,35.305652,-82.668576,Business,
226,TEDDY LN,PISGAH FOREST,NC,28768,35.305595,-82.668637,Business,
220,TEDDY LN,PISGAH FOREST,NC,28768,35.30554,-82.66869,Business,
214,TEDDY LN,PISGAH FOREST,NC,28768,35.305486,-82.668755,Business,
210,TEDDY LN,PISGAH FOREST,NC,28768,35.305428,-82.668806,Business,
204,TEDDY LN,PISGAH FOREST,NC,28768,35.305374,-82.668873,Business,
200,TEDDY LN,PISGAH FOREST,NC,28768,35.305327,-82.668923,Business,
194,TEDDY LN,PISGAH FOREST,NC,28768,35.305259,-82.668968,Business,
188,TEDDY LN,PISGAH FOREST,NC,28768,35.305222,-82.669032,Business,
184,TEDDY LN,PISGAH FOREST,NC,28768,35.305154,-82.669089,Business,
178,TEDDY LN,PISGAH FOREST,NC,28768,35.305103,-82.669138,Business,
172,TEDDY LN,PISGAH FOREST,NC,28768,35.305045,-82.669203,Business,
166,TEDDY LN,PISGAH FOREST,NC,28768,35.304996,-82.669257,Business,
162,TEDDY LN,PISGAH FOREST,NC,28768,35.304929,-82.669308,Business,
156,TEDDY LN,PISGAH FOREST,NC,28768,35.304884,-82.669368,Business,
150,TEDDY LN,PISGAH FOREST,NC,28768,35.30483,-82.669429,Business,
144,TEDDY LN,PISGAH FOREST,NC,28768,35.304773,-82.669475,Business,
151,TEDDY LN,PISGAH FOREST,NC,28768,35.305019,-82.669577,Business,
161,TEDDY LN,PISGAH FOREST,NC,28768,35.305112,-82.669507,Business,
171,TEDDY LN,PISGAH FOREST,NC,28768,35.305211,-82.669404,Business,
6385,ASHEVILLE HWY,PISGAH FOREST,NC,28768,35.317266,-82.659983,House,
200,LIMOUSINE LN,PISGAH FOREST,NC,28768,35.325484,-82.649635,House,
34,GOLDMINE RDG,PISGAH FOREST,NC,28768,35.306594,-82.672621,House,
205,LIME KILN LN,PISGAH FOREST,NC,28768,35.317956,-82.653729,Other,
225,FOX HOLLOW RD,PISGAH FOREST,NC,28768,35.302769,-82.67082,House,
339,MCGUIRE RD,PISGAH FOREST,NC,28768,35.321412,-82.665419,House,
