Number,Street,City,State,PostalCode,Latitude,Longitude,Type,ApartmentNumber
6298,BLUE RIDGE RD,LAKE TOXAWAY,NC,28747,35.18693282,-82.95018521,House, 
6300,BLUE RIDGE RD,LAKE TOXAWAY,NC,28747,35.19134172,-82.9535263,House, 
105,BOULDER KNOB DR,LAKE TOXAWAY,NC,28747,35.15388878,-82.95921949,House, 
113,CANAAN LAND RD,LAKE TOXAWAY,NC,28747,35.16022402,-82.9980689,House, 
27,CARDINAL DR E,LAKE TOXAWAY,NC,28747,35.15051741,-82.95987805,House, 
39,CARDINAL DR E,LAKE TOXAWAY,NC,28747,35.15045132,-82.96065989,House, 
85,CARDINAL DR E,LAKE TOXAWAY,NC,28747,35.15068108,-82.96182572,House, 
151,CARDINAL DR E,LAKE TOXAWAY,NC,28747,35.1506469,-82.96248664,House, 
209,CARDINAL DR E,LAKE TOXAWAY,NC,28747,35.15121959,-82.963315,House, 
350,CARDINAL DR W,LAKE TOXAWAY,NC,28747,35.14947808,-82.96433956,House, 
358,CARDINAL DR W,LAKE TOXAWAY,NC,28747,35.14982162,-82.964662,House, 
396,CARDINAL DR W,LAKE TOXAWAY,NC,28747,35.1505008,-82.96444104,House, 
518,CARDINAL DR W,LAKE TOXAWAY,NC,28747,35.15108227,-82.96500175,House, 
530,CARDINAL DR W,LAKE TOXAWAY,NC,28747,35.15178971,-82.96506133,House, 
614,CARDINAL DR W,LAKE TOXAWAY,NC,28747,35.152235,-82.96522258,House, 
95,CARDINAL TRCE,LAKE TOXAWAY,NC,28747,35.14855075,-82.96324279,House, 
171,CARDINAL TRCE,LAKE TOXAWAY,NC,28747,35.14794303,-82.96190535,House, 
233,CARDINAL TRCE,LAKE TOXAWAY,NC,28747,35.14750486,-82.96211849,House, 
826,CHEROKEE TRCE,LAKE TOXAWAY,NC,28747,35.13501753,-82.95184938,House, 
910,CHEROKEE TRCE,LAKE TOXAWAY,NC,28747,35.13636164,-82.95211686,House, 
918,CHEROKEE TRCE,LAKE TOXAWAY,NC,28747,35.13658847,-82.95249067,House, 
1042,CHEROKEE TRCE,LAKE TOXAWAY,NC,28747,35.13676946,-82.95309942,House, 
698,CHESTNUT TRCE,LAKE TOXAWAY,NC,28747,35.13542052,-82.95639857,House, 
700,CHESTNUT TRCE,LAKE TOXAWAY,NC,28747,35.13521817,-82.9570445,House, 
779,CHESTNUT TRCE,LAKE TOXAWAY,NC,28747,35.13568159,-82.95843393,House, 
781,CHESTNUT TRCE,LAKE TOXAWAY,NC,28747,35.13616965,-82.95822629,House, 
830,CHESTNUT TRCE,LAKE TOXAWAY,NC,28747,35.13672537,-82.95734313,House, 
17,CLUB COTTAGES WAY,LAKE TOXAWAY,NC,28747,35.13916706,-82.95143751,House, 
26,CLUB COTTAGES WAY,LAKE TOXAWAY,NC,28747,35.13922549,-82.95177286,House, 
42,CLUB COTTAGES WAY,LAKE TOXAWAY,NC,28747,35.13927303,-82.95204934,House, 
56,CLUB COTTAGES WAY,LAKE TOXAWAY,NC,28747,35.1392578,-82.95224753,House, 
65,CLUB CT,LAKE TOXAWAY,NC,28747,35.1359232,-82.95512454,House, 
70,CLUB CT,LAKE TOXAWAY,NC,28747,35.13551358,-82.95513998,House, 
1528,COLD MOUNTAIN RD,LAKE TOXAWAY,NC,28747,35.14571425,-82.95111704,House, 
1717,COLD MOUNTAIN RD,LAKE TOXAWAY,NC,28747,35.14266349,-82.95018309,House, 
1739,COLD MOUNTAIN RD,LAKE TOXAWAY,NC,28747,35.14272256,-82.95044196,House, 
1747,COLD MOUNTAIN RD,LAKE TOXAWAY,NC,28747,35.14293119,-82.95069262,House, 
1803,COLD MOUNTAIN RD,LAKE TOXAWAY,NC,28747,35.14337511,-82.95115386,House, 
1855,COLD MOUNTAIN RD,LAKE TOXAWAY,NC,28747,35.14427271,-82.95185047,House, 
1889,COLD MOUNTAIN RD,LAKE TOXAWAY,NC,28747,35.14470654,-82.95228805,House, 
1923,COLD MOUNTAIN RD,LAKE TOXAWAY,NC,28747,35.14511175,-82.95275865,House, 
1957,COLD MOUNTAIN RD,LAKE TOXAWAY,NC,28747,35.145505,-82.95314025,House, 
1981,COLD MOUNTAIN RD,LAKE TOXAWAY,NC,28747,35.14574432,-82.9532623,House, 
2003,COLD MOUNTAIN RD,LAKE TOXAWAY,NC,28747,35.14606417,-82.95330802,House, 
2041,COLD MOUNTAIN RD,LAKE TOXAWAY,NC,28747,35.14634395,-82.95320584,House, 
2065,COLD MOUNTAIN RD,LAKE TOXAWAY,NC,28747,35.14656079,-82.95414264,House, 
2365,COLD MOUNTAIN RD,LAKE TOXAWAY,NC,28747,35.14760848,-82.95737273,House, 
2403,COLD MOUNTAIN RD,LAKE TOXAWAY,NC,28747,35.14814573,-82.95755663,House, 
2454,COLD MOUNTAIN RD,LAKE TOXAWAY,NC,28747,35.14914005,-82.95710436,House, 
2509,COLD MOUNTAIN RD,LAKE TOXAWAY,NC,28747,35.14915906,-82.95819468,House, 
2525,COLD MOUNTAIN RD,LAKE TOXAWAY,NC,28747,35.14964824,-82.95816665,House, 
2641,COLD MOUNTAIN RD,LAKE TOXAWAY,NC,28747,35.1503437,-82.95870215,House, 
2667,COLD MOUNTAIN RD,LAKE TOXAWAY,NC,28747,35.15084633,-82.95953542,House, 
4812,COLD MOUNTAIN RD,LAKE TOXAWAY,NC,28747,35.15943665,-82.98389294,House, 
5412,COLD MOUNTAIN RD,LAKE TOXAWAY,NC,28747,35.15816068,-82.99149177,House, 
5458,COLD MOUNTAIN RD,LAKE TOXAWAY,NC,28747,35.1595112,-82.99280043,House, 
5572,COLD MOUNTAIN RD,LAKE TOXAWAY,NC,28747,35.16104393,-82.99345927,House, 
16,FAIRWAY DR,LAKE TOXAWAY,NC,28747,35.13764672,-82.95807227,House, 
52,FAIRWAY DR,LAKE TOXAWAY,NC,28747,35.13791074,-82.95859134,House, 
170,FAIRWAY DR,LAKE TOXAWAY,NC,28747,35.13862269,-82.95964467,House, 
198,FAIRWAY DR,LAKE TOXAWAY,NC,28747,35.13913861,-82.95979592,House, 
226,FAIRWAY DR,LAKE TOXAWAY,NC,28747,35.13938389,-82.96014869,House, 
250,FAIRWAY DR,LAKE TOXAWAY,NC,28747,35.139559,-82.96049848,House, 
278,FAIRWAY DR,LAKE TOXAWAY,NC,28747,35.13984434,-82.96074466,House, 
360,FAIRWAY DR,LAKE TOXAWAY,NC,28747,35.14011297,-82.96269878,House, 
369,FAIRWAY DR,LAKE TOXAWAY,NC,28747,35.13877697,-82.96351759,House, 
424,FAIRWAY DR,LAKE TOXAWAY,NC,28747,35.14065493,-82.96317546,House, 
456,FAIRWAY DR,LAKE TOXAWAY,NC,28747,35.1409435,-82.9634502,House, 
468,FAIRWAY DR,LAKE TOXAWAY,NC,28747,35.14139916,-82.96363127,House, 
510,FAIRWAY DR,LAKE TOXAWAY,NC,28747,35.14181435,-82.96363841,House, 
614,FAIRWAY DR,LAKE TOXAWAY,NC,28747,35.14278867,-82.9646912,House, 
626,FAIRWAY DR,LAKE TOXAWAY,NC,28747,35.1429268,-82.96514525,House, 
880,FAIRWAY DR,LAKE TOXAWAY,NC,28747,35.14448893,-82.96565261,House, 
882,FAIRWAY DR,LAKE TOXAWAY,NC,28747,35.14478918,-82.96516756,House, 
1004,FAIRWAY DR,LAKE TOXAWAY,NC,28747,35.14496842,-82.96432624,House, 
1090,FAIRWAY DR,LAKE TOXAWAY,NC,28747,35.14507696,-82.96338127,House, 
1124,FAIRWAY DR,LAKE TOXAWAY,NC,28747,35.14508503,-82.96272444,House, 
1188,FAIRWAY DR,LAKE TOXAWAY,NC,28747,35.14535915,-82.961275,House, 
1215,FAIRWAY DR,LAKE TOXAWAY,NC,28747,35.14612889,-82.96066045,House, 
1240,FAIRWAY DR,LAKE TOXAWAY,NC,28747,35.14524257,-82.96082894,House, 
1248,FAIRWAY DR,LAKE TOXAWAY,NC,28747,35.14534603,-82.96021075,House, 
1280,FAIRWAY DR,LAKE TOXAWAY,NC,28747,35.14529056,-82.95975243,House, 
1330,FAIRWAY DR,LAKE TOXAWAY,NC,28747,35.14548771,-82.95912555,House, 
1338,FAIRWAY DR,LAKE TOXAWAY,NC,28747,35.14548274,-82.95858083,House, 
1390,FAIRWAY DR,LAKE TOXAWAY,NC,28747,35.14549705,-82.9580814,House, 
1524,FAIRWAY DR,LAKE TOXAWAY,NC,28747,35.14440032,-82.95712455,House, 
1563,FAIRWAY DR,LAKE TOXAWAY,NC,28747,35.14314825,-82.95586571,House, 
1580,FAIRWAY DR,LAKE TOXAWAY,NC,28747,35.14304,-82.95650435,House, 
1585,FAIRWAY DR,LAKE TOXAWAY,NC,28747,35.14272324,-82.95595821,House, 
1588,FAIRWAY DR,LAKE TOXAWAY,NC,28747,35.14373623,-82.95726636,House, 
1600,FAIRWAY DR,LAKE TOXAWAY,NC,28747,35.14337058,-82.95733351,House, 
1628,FAIRWAY DR,LAKE TOXAWAY,NC,28747,35.1429371,-82.9574779,House, 
125,GREYSTONE LN,LAKE TOXAWAY,NC,28747,35.13917931,-82.95373937,House, 
220,GREYSTONE LN,LAKE TOXAWAY,NC,28747,35.14089887,-82.95269145,House, 
415,HORSE SHOE COVE RD,LAKE TOXAWAY,NC,28747,35.16658587,-82.96557781,House, 
475,HORSE SHOE COVE RD,LAKE TOXAWAY,NC,28747,35.16638785,-82.96657764,House, 
30,IVY RDG,LAKE TOXAWAY,NC,28747,35.13755638,-82.95210294,House, 
69,IVY RDG,LAKE TOXAWAY,NC,28747,35.13788061,-82.95060346,House, 
95,IVY RDG,LAKE TOXAWAY,NC,28747,35.13734059,-82.95052883,House, 
111,IVY RDG,LAKE TOXAWAY,NC,28747,35.1372398,-82.95080473,House, 
129,IVY RDG,LAKE TOXAWAY,NC,28747,35.1370934,-82.95112205,House, 
32,LAKE CARDINAL COVE,LAKE TOXAWAY,NC,28747,35.14650982,-82.96097274,House, 
86,LAKE CARDINAL COVE,LAKE TOXAWAY,NC,28747,35.14697274,-82.96107503,House, 
426,LITTLE PANTHERTAIL RD,LAKE TOXAWAY,NC,28747,35.16055433,-82.95228077,House, 
609,LONG RIDGE RD,LAKE TOXAWAY,NC,28747,35.15580291,-82.98165395,House, 
33,LONGVIEW RDG,LAKE TOXAWAY,NC,28747,35.16384924,-82.95038087,House, 
35,LONGVIEW RDG,LAKE TOXAWAY,NC,28747,35.16430086,-82.95084389,House, 
75,LONGVIEW RDG,LAKE TOXAWAY,NC,28747,35.16476256,-82.95010531,House, 
301,MCINTOSH RD,LAKE TOXAWAY,NC,28747,35.16027828,-82.95389751,House, 
302,MCINTOSH RD,LAKE TOXAWAY,NC,28747,35.16325325,-82.95163935,House, 
580,McINTOSH RD,LAKE TOXAWAY,NC,28747,35.16686066,-82.95430426,House, 
586,MCINTOSH RD,LAKE TOXAWAY,NC,28747,35.1656122,-82.95460012,House, 
637,McINTOSH RD,LAKE TOXAWAY,NC,28747,35.16531738,-82.95573531,House, 
809,MCINTOSH RD,LAKE TOXAWAY,NC,28747,35.16588492,-82.95787521,House, 
819,McINTOSH RD,LAKE TOXAWAY,NC,28747,35.16589164,-82.95819761,House, 
874,MCINTOSH RD,LAKE TOXAWAY,NC,28747,35.16574535,-82.95908772,House, 
943,MCINTOSH RD,LAKE TOXAWAY,NC,28747,35.16471401,-82.96073661,House, 
100,MEADOW RIDGE DR,LAKE TOXAWAY,NC,28747,35.14575126,-82.97538387,House, 
240,MEADOW RIDGE DR,LAKE TOXAWAY,NC,28747,35.14736485,-82.97623226,House, 
250,MEADOW RIDGE DR,LAKE TOXAWAY,NC,28747,35.14760238,-82.97564235,House, 
296,MEADOW RIDGE DR,LAKE TOXAWAY,NC,28747,35.14806109,-82.97572606,House, 
378,MEADOW RIDGE DR,LAKE TOXAWAY,NC,28747,35.14956001,-82.9754821,House, 
466,MEADOW RIDGE DR,LAKE TOXAWAY,NC,28747,35.150814,-82.97621483,House, 
607,MEADOW RIDGE DR,LAKE TOXAWAY,NC,28747,35.15152526,-82.97802457,House, 
770,MEADOW RIDGE DR,LAKE TOXAWAY,NC,28747,35.15327823,-82.98014618,House, 
869,MEADOW RIDGE DR,LAKE TOXAWAY,NC,28747,35.15348261,-82.9817158,House, 
45,MILL CREEK DR,LAKE TOXAWAY,NC,28747,35.14032163,-82.96208772,House, 
46,MILL CREEK DR,LAKE TOXAWAY,NC,28747,35.14034104,-82.96113428,House, 
110,MILL CREEK DR,LAKE TOXAWAY,NC,28747,35.14108217,-82.96096156,House, 
199,MILLS CREEK PT,LAKE TOXAWAY,NC,28747,35.14809783,-82.97270208,House, 
251,MILLS CREEK PT,LAKE TOXAWAY,NC,28747,35.14675245,-82.97221581,House, 
375,MILLS CREEK PT,LAKE TOXAWAY,NC,28747,35.14471737,-82.97171805,House, 
405,MILLS CREEK PT,LAKE TOXAWAY,NC,28747,35.14405686,-82.97147003,House, 
19,MILLS CREEK TRCE,LAKE TOXAWAY,NC,28747,35.14484552,-82.95725508,House, 
50,MILLS CREEK TRCE,LAKE TOXAWAY,NC,28747,35.14522873,-82.95780807,House, 
173,MILLS CREEK TRCE,LAKE TOXAWAY,NC,28747,35.1434948,-82.95899207,House, 
228,MILLS CREEK TRCE,LAKE TOXAWAY,NC,28747,35.14397169,-82.96037004,House, 
246,MILLS CREEK TRCE,LAKE TOXAWAY,NC,28747,35.14410987,-82.96135813,House, 
249,MILLS CREEK TRCE,LAKE TOXAWAY,NC,28747,35.14283294,-82.95943078,House, 
315,MILLS CREEK TRCE,LAKE TOXAWAY,NC,28747,35.14238604,-82.96107473,House, 
23,NORTH CLUB BLVD,LAKE TOXAWAY,NC,28747,35.14710882,-82.955525,House, 
47,NORTH CLUB BLVD,LAKE TOXAWAY,NC,28747,35.14674577,-82.95565918,House, 
75,NORTH CLUB BLVD,LAKE TOXAWAY,NC,28747,35.14661518,-82.95614767,House, 
185,NORTH CLUB BLVD,LAKE TOXAWAY,NC,28747,35.14561869,-82.95661412,House, 
247,NORTH CLUB BLVD,LAKE TOXAWAY,NC,28747,35.14511863,-82.95604708,House, 
271,NORTH CLUB BLVD,LAKE TOXAWAY,NC,28747,35.14480156,-82.95537485,House, 
307,NORTH CLUB BLVD,LAKE TOXAWAY,NC,28747,35.14437936,-82.95527356,House, 
335,NORTH CLUB BLVD,LAKE TOXAWAY,NC,28747,35.14376151,-82.95541478,House, 
387,NORTH CLUB BLVD,LAKE TOXAWAY,NC,28747,35.14305085,-82.95493727,House, 
419,NORTH CLUB BLVD,LAKE TOXAWAY,NC,28747,35.14245952,-82.95484344,House, 
427,NORTH CLUB BLVD,LAKE TOXAWAY,NC,28747,35.14226726,-82.95505337,House, 
439,NORTH CLUB BLVD,LAKE TOXAWAY,NC,28747,35.14216637,-82.95540691,House, 
455,NORTH CLUB BLVD,LAKE TOXAWAY,NC,28747,35.14210085,-82.95565665,House, 
509,NORTH CLUB BLVD,LAKE TOXAWAY,NC,28747,35.14226569,-82.95672009,House, 
612,NORTH CLUB BLVD,LAKE TOXAWAY,NC,28747,35.14220408,-82.95836491,House, 
640,NORTH CLUB BLVD,LAKE TOXAWAY,NC,28747,35.14127543,-82.95898396,House, 
707,NORTH CLUB BLVD,LAKE TOXAWAY,NC,28747,35.14134508,-82.95736953,House, 
727,NORTH CLUB BLVD,LAKE TOXAWAY,NC,28747,35.14119668,-82.95702632,House, 
761,NORTH CLUB BLVD,LAKE TOXAWAY,NC,28747,35.14104838,-82.95625708,House, 
797,NORTH CLUB BLVD,LAKE TOXAWAY,NC,28747,35.14096845,-82.95588202,House, 
807,NORTH CLUB BLVD,LAKE TOXAWAY,NC,28747,35.1411004,-82.95478175,House, 
809,NORTH CLUB BLVD,LAKE TOXAWAY,NC,28747,35.14119106,-82.95424057,House, 
829,NORTH CLUB BLVD,LAKE TOXAWAY,NC,28747,35.14091798,-82.95547566,House, 
841,NORTH CLUB BLVD,LAKE TOXAWAY,NC,28747,35.14044884,-82.95558452,House, 
843,NORTH CLUB BLVD,LAKE TOXAWAY,NC,28747,35.14025391,-82.95488196,House, 
880,NORTH CLUB BLVD,LAKE TOXAWAY,NC,28747,35.14031589,-82.95614098,House, 
907,NORTH CLUB BLVD,LAKE TOXAWAY,NC,28747,35.13920104,-82.95643162,House, 
951,NORTH CLUB BLVD,LAKE TOXAWAY,NC,28747,35.13903927,-82.95708881,House, 
1055,NORTH CLUB BLVD,LAKE TOXAWAY,NC,28747,35.13802716,-82.95777677,House, 
44,OLD MINE PT,LAKE TOXAWAY,NC,28747,35.14256599,-82.96352527,House, 
111,OLD TOM MORRIS WAY,LAKE TOXAWAY,NC,28747,35.13740379,-82.96091251,House, 
122,PANTHER RIDGE RD,LAKE TOXAWAY,NC,28747,35.14910219,-82.95576345,House, 
154,PANTHER RIDGE RD,LAKE TOXAWAY,NC,28747,35.14946159,-82.95563869,House, 
191,PANTHER RIDGE RD,LAKE TOXAWAY,NC,28747,35.1499318,-82.95627643,House, 
211,PANTHER RIDGE RD,LAKE TOXAWAY,NC,28747,35.15048125,-82.95628106,House, 
224,PANTHER RIDGE RD,LAKE TOXAWAY,NC,28747,35.15039789,-82.95542174,House, 
235,PANTHER RIDGE RD,LAKE TOXAWAY,NC,28747,35.15102817,-82.95625035,House, 
254,PANTHER RIDGE RD,LAKE TOXAWAY,NC,28747,35.15425806,-82.95304082,House, 
275,PANTHER RIDGE RD,LAKE TOXAWAY,NC,28747,35.15146664,-82.9562908,House, 
312,PANTHER RIDGE RD,LAKE TOXAWAY,NC,28747,35.15186448,-82.95536346,House, 
429,PANTHER RIDGE RD,LAKE TOXAWAY,NC,28747,35.15341351,-82.95754818,House, 
478,PANTHER RIDGE RD,LAKE TOXAWAY,NC,28747,35.1528947,-82.95640525,House, 
562,PANTHER RIDGE RD,LAKE TOXAWAY,NC,28747,35.15394957,-82.95565405,House, 
715,PANTHER RIDGE RD,LAKE TOXAWAY,NC,28747,35.15497145,-82.95900284,House, 
784,PANTHER RIDGE RD,LAKE TOXAWAY,NC,28747,35.15532614,-82.95771135,House, 
914,PANTHER RIDGE RD,LAKE TOXAWAY,NC,28747,35.15532154,-82.95516792,House, 
684,PANTHERTAIL TER,LAKE TOXAWAY,NC,28747,35.16770772,-82.97143003,House, 
673,PANTHERTOWN RD,LAKE TOXAWAY,NC,28747,35.15306682,-82.99221805,House, 
25,RIDGE COLONY DR,LAKE TOXAWAY,NC,28747,35.13575039,-82.97195176,House, 
49,RIDGE COLONY DR,LAKE TOXAWAY,NC,28747,35.13539727,-82.97215374,House, 
65,RIDGE COLONY DR,LAKE TOXAWAY,NC,28747,35.13506395,-82.97230103,House, 
597,SEMINOLE WAY,LAKE TOXAWAY,NC,28747,35.13639788,-82.95001071,House, 
633,SEMINOLE WAY,LAKE TOXAWAY,NC,28747,35.13673915,-82.95036852,House, 
57,SHOREBROOK LN,LAKE TOXAWAY,NC,28747,35.13982233,-82.95767187,House, 
95,SHOREBROOK LN,LAKE TOXAWAY,NC,28747,35.1403177,-82.95813504,House, 
129,SHOREBROOK LN,LAKE TOXAWAY,NC,28747,35.14044351,-82.95836244,House, 
76,SHORTIA DR,LAKE TOXAWAY,NC,28747,35.14308798,-82.97514422,House, 
4111,SLICK FISHER RD,LAKE TOXAWAY,NC,28747,35.18132625,-82.95014823,House, 
4151,SLICK FISHER RD,LAKE TOXAWAY,NC,28747,35.18111118,-82.9520281,House, 
4153,SLICK FISHER RD,LAKE TOXAWAY,NC,28747,35.1815896,-82.95326196,House, 
4409,SLICK FISHER RD,LAKE TOXAWAY,NC,28747,35.18466269,-82.9509375,House, 
187,SPENCER LN,LAKE TOXAWAY,NC,28747,35.14601157,-82.97815107,House, 
363,SPENCER LN,LAKE TOXAWAY,NC,28747,35.14508419,-82.97950233,House, 
417,SPENCER LN,LAKE TOXAWAY,NC,28747,35.14422455,-82.98031383,House, 
661,SPENCER LN,LAKE TOXAWAY,NC,28747,35.14219654,-82.97986113,House, 
700,SPENCER LN,LAKE TOXAWAY,NC,28747,35.14094776,-82.97829968,House, 
767,SPENCER LN,LAKE TOXAWAY,NC,28747,35.14392795,-82.97792989,House, 
21,SUMMIT RIDGE RD,LAKE TOXAWAY,NC,28747,35.1376531,-82.97344333,House, 
84,SUMMIT RIDGE RD,LAKE TOXAWAY,NC,28747,35.13867715,-82.97352079,House, 
220,SUMMIT RIDGE RD,LAKE TOXAWAY,NC,28747,35.13895023,-82.97609435,House, 
276,SUMMIT RIDGE RD,LAKE TOXAWAY,NC,28747,35.13907332,-82.977969,House, 
351,SUMMIT RIDGE RD,LAKE TOXAWAY,NC,28747,35.13810035,-82.9751237,House, 
473,SUMMIT RIDGE RD,LAKE TOXAWAY,NC,28747,35.13630755,-82.97415903,House, 
558,SUMMIT RIDGE RD,LAKE TOXAWAY,NC,28747,35.13554452,-82.97689349,House, 
587,SUMMIT RIDGE RD,LAKE TOXAWAY,NC,28747,35.13550033,-82.97459307,House, 
1052,TOXAWAY DR,LAKE TOXAWAY,NC,28747,35.13689002,-82.96957419,House, 
1482,TOXAWAY DR,LAKE TOXAWAY,NC,28747,35.13596726,-82.97264557,House, 
1734,TOXAWAY DR,LAKE TOXAWAY,NC,28747,35.13880464,-82.97072347,House, 
1737,TOXAWAY DR,LAKE TOXAWAY,NC,28747,35.13860765,-82.97201691,House, 
1926,TOXAWAY DR,LAKE TOXAWAY,NC,28747,35.14126491,-82.9716964,House, 
2148,TOXAWAY DR,LAKE TOXAWAY,NC,28747,35.14403685,-82.97356595,House, 
80,TOXAWAY LN,LAKE TOXAWAY,NC,28747,35.13685838,-82.96843514,House, 
90,TOXAWAY LN,LAKE TOXAWAY,NC,28747,35.13746599,-82.96863056,House, 
4067,WEST CLUB BLVD,LAKE TOXAWAY,NC,28747,35.13651252,-82.95076683,House, 
4301,WEST CLUB BLVD,LAKE TOXAWAY,NC,28747,35.13783172,-82.95290174,House, 
4366,WEST CLUB BLVD,LAKE TOXAWAY,NC,28747,35.13850509,-82.95351848,House, 
4548,WEST CLUB BLVD,LAKE TOXAWAY,NC,28747,35.13717687,-82.95637971,House, 
10,WEST SHORE DR,LAKE TOXAWAY,NC,28747,35.13866275,-82.95018181,House, 
36,WEST SHORE DR,LAKE TOXAWAY,NC,28747,35.13884351,-82.95047197,House, 
44,WEST SHORE DR,LAKE TOXAWAY,NC,28747,35.1392802,-82.95063107,House, 
55,WEST SHORE DR,LAKE TOXAWAY,NC,28747,35.13888997,-82.95146626,House, 
61,WEST SHORE DR,LAKE TOXAWAY,NC,28747,35.13883329,-82.95130878,House, 
78,WEST SHORE DR,LAKE TOXAWAY,NC,28747,35.13941938,-82.95100907,House, 
90,WEST SHORE DR,LAKE TOXAWAY,NC,28747,35.13973738,-82.95118744,House, 
104,WEST SHORE DR,LAKE TOXAWAY,NC,28747,35.13966835,-82.95169105,House, 
106,WEST SHORE DR,LAKE TOXAWAY,NC,28747,35.13982274,-82.95165464,House, 
171,WEST SHORE DR,LAKE TOXAWAY,NC,28747,35.13929394,-82.95262369,House, 
100,WINDING GAP RD,LAKE TOXAWAY,NC,28747,35.18735718,-82.95361751,House, 
500,WINDING GAP RD,LAKE TOXAWAY,NC,28747,35.18582284,-82.95664751,House, 
1401,PANTHERTOWN RD,LAKE TOXAWAY,NC,28774,35.1496272,-82.98242205,House, 
1407,PANTHERTOWN RD,LAKE TOXAWAY,NC,28774,35.15032298,-82.98085901,House, 
1542,PANTHERTOWN RD,LAKE TOXAWAY,NC,28774,35.14962988,-82.97741665,House, 
1715,PANTHERTOWN RD,LAKE TOXAWAY,NC,28774,35.15259389,-82.98002185,House, 
43,PANTHERTOWN RD,LAKE TOXAWAY,NC,28747,35.15902374,-82.99711522,House, 
168,SUMMIT RIDGE RD,LAKE TOXAWAY,NC,28747,35.1391327,-82.97504441,House, 
299,MCINTOSH RD,LAKE TOXAWAY,NC,28747,35.16237711,-82.95278137,House, 
38,COUNTRY CLUB VILLAGE DR,LAKE TOXAWAY,NC,28747,35.14005406,-82.95126314,House, 
42,COUNTRY CLUB VILLAGE DR,LAKE TOXAWAY,NC,28747,35.14013747,-82.95125247,House, 
44,COUNTRY CLUB VILLAGE DR,LAKE TOXAWAY,NC,28747,35.14018609,-82.95128976,House, 
46,COUNTRY CLUB VILLAGE DR,LAKE TOXAWAY,NC,28747,35.14029164,-82.95124892,House, 
50,COUNTRY CLUB VILLAGE DR,LAKE TOXAWAY,NC,28747,35.14032777,-82.95129847,House, 
52,COUNTRY CLUB VILLAGE DR,LAKE TOXAWAY,NC,28747,35.14040974,-82.9512859,House, 
54,COUNTRY CLUB VILLAGE DR,LAKE TOXAWAY,NC,28747,35.14044184,-82.95136651,House, 
58,COUNTRY CLUB VILLAGE DR,LAKE TOXAWAY,NC,28747,35.14039487,-82.95146352,House, 
62,COUNTRY CLUB VILLAGE DR,LAKE TOXAWAY,NC,28747,35.14042178,-82.95151815,House, 
64,COUNTRY CLUB VILLAGE DR,LAKE TOXAWAY,NC,28747,35.14037058,-82.95160576,House, 
66,COUNTRY CLUB VILLAGE DR,LAKE TOXAWAY,NC,28747,35.14039429,-82.95166574,House, 
68,COUNTRY CLUB VILLAGE DR,LAKE TOXAWAY,NC,28747,35.14033966,-82.95176605,House, 
338,CARDINAL DR W,LAKE TOXAWAY,NC,28747,35.14894216,-82.96416197,House, 
4323,SLICK FISHER RD,LAKE TOXAWAY,NC,28747,35.18241434,-82.9511104,House, 
4225,SLICK FISHER RD,LAKE TOXAWAY,NC,28747,35.18154794,-82.95045375,House, 
4282,SLICK FISHER RD,LAKE TOXAWAY,NC,28747,35.18279111,-82.95023432,House, 
816,TOXAWAY DR,LAKE TOXAWAY,NC,28747,35.13534357,-82.96727849,House, 
800,TOXAWAY DR,LAKE TOXAWAY,NC,28747,35.1352346,-82.96671262,House, 
900,TOXAWAY DR,LAKE TOXAWAY,NC,28747,35.13552467,-82.96860258,House, 
878,TOXAWAY DR,LAKE TOXAWAY,NC,28747,35.13569106,-82.96744677,House, 
1005,TOXAWAY DR,LAKE TOXAWAY,NC,28747,35.13586113,-82.96993663,House, 
1118,TOXAWAY DR,LAKE TOXAWAY,NC,28747,35.13758072,-82.9693071,House, 
1164,TOXAWAY DR,LAKE TOXAWAY,NC,28747,35.13806301,-82.96892801,House, 
2,TOXAWAY CLF,LAKE TOXAWAY,NC,28747,35.13850444,-82.9696021,House, 
1361,TOXAWAY DR,LAKE TOXAWAY,NC,28747,35.13615426,-82.9718102,House, 
1289,TOXAWAY DR,LAKE TOXAWAY,NC,28747,35.13653772,-82.97135606,House, 
1655,TOXAWAY DR,LAKE TOXAWAY,NC,28747,35.13811876,-82.97211709,House, 
1625,TOXAWAY DR,LAKE TOXAWAY,NC,28747,35.13787136,-82.97257938,House, 
1624,TOXAWAY DR,LAKE TOXAWAY,NC,28747,35.13732966,-82.97208098,House, 
1710,TOXAWAY DR,LAKE TOXAWAY,NC,28747,35.13789654,-82.97129243,House, 
80,RAVEN ROCK VISTA,LAKE TOXAWAY,NC,28747,35.13562755,-82.95901981,House, 
289,TOXAWAY DR,LAKE TOXAWAY,NC,28747,35.13525476,-82.96005858,House, 
228,TOXAWAY DR,LAKE TOXAWAY,NC,28747,35.13517853,-82.96168884,House, 
774,MCINTOSH RD,LAKE TOXAWAY,NC,28747,35.16641691,-82.95723531,House, 
782,MCINTOSH RD,LAKE TOXAWAY,NC,28747,35.16668615,-82.95832395,House, 
76,HORSE SHOE COVE RD,LAKE TOXAWAY,NC,28747,35.16665968,-82.96001747,House, 
373,MCINTOSH RD,LAKE TOXAWAY,NC,28747,35.16328784,-82.95336253,House, 
520,PANTHERTAIL TER,LAKE TOXAWAY,NC,28747,35.16237827,-82.96105716,House, 
658,PANTHERTAIL TER,LAKE TOXAWAY,NC,28747,35.1635153,-82.96355092,House, 
660,PANTHERTAIL TER,LAKE TOXAWAY,NC,28747,35.16371375,-82.96429333,House, 
196,PANTHERTAIL TER,LAKE TOXAWAY,NC,28747,35.16370998,-82.95847198,House, 
164,PANTHERTAIL TER,LAKE TOXAWAY,NC,28747,35.16373195,-82.95691886,House, 
400,PANTHERTAIL TER,LAKE TOXAWAY,NC,28747,35.16204372,-82.95966092,House, 
248,PANTHERTAIL TER,LAKE TOXAWAY,NC,28747,35.16325283,-82.95815726,House, 
227,HORSE SHOE COVE RD,LAKE TOXAWAY,NC,28747,35.1651366,-82.96223187,House, 
117,MOLTZ CT,LAKE TOXAWAY,NC,28747,35.1490461,-82.97487347,House, 
96,MOLTZ CT,LAKE TOXAWAY,NC,28747,35.14797066,-82.97431117,House, 
82,CEDARWOOD RD,LAKE TOXAWAY,NC,28747,35.14716645,-82.95127098,House,
474,LITTLE PANTHERTAIL RD,LAKE TOXAWAY,NC,28747,35.15981887,-82.95269555,House,
22,COUNTRY CLUB VILLAGE DR,LAKE TOXAWAY,NC,28747,35.13984464,-82.95137716,House,
6190,BLUE RIDGE RD,LAKE TOXAWAY,NC,28747,35.18719689,-82.95017969,House,
1922,TOXAWAY DR,LAKE TOXAWAY,NC,28747,35.14097123,-82.97134909,House,
51,GREYSTONE LN,LAKE TOXAWAY,NC,28747,35.13883644,-82.95344862,House,
2453,COLD MOUNTAIN RD,LAKE TOXAWAY,NC,28747,35.14869603,-82.95770352,House,
