Number,Street,City,State,PostalCode,Latitude,Longitude,Type,ApartmentNumber
26,AIKEN RD,ROSMAN,NC,28772,35.12047451,-82.82362338,House, 
50,AIKEN RD,ROSMAN,NC,28772,35.12005451,-82.823928,House, 
52,AIKEN RD,ROSMAN,NC,28772,35.12084208,-82.82484717,House, 
54,AIKEN RD,ROSMAN,NC,28772,35.12020187,-82.82488375,House, 
143,AIKEN RD,ROSMAN,NC,28772,35.11890178,-82.8252293,House, 
190,AIKEN RD,ROSMAN,NC,28772,35.11916239,-82.82668909,House, 
194,AIKEN RD,ROSMAN,NC,28772,35.11945591,-82.82507288,House, 
214,AIKEN RD,ROSMAN,NC,28772,35.11873816,-82.82662205,House, 
216,AIKEN RD,ROSMAN,NC,28772,35.11859106,-82.82626276,House, 
246,AIKEN RD,ROSMAN,NC,28772,35.11805653,-82.82689694,House, 
319,AIKEN RD,ROSMAN,NC,28772,35.11797887,-82.82484414,House, 
386,AIKEN RD,ROSMAN,NC,28772,35.11667191,-82.82506267,House, 
387,AIKEN RD,ROSMAN,NC,28772,35.11722997,-82.82467425,House, 
428,AIKEN RD,ROSMAN,NC,28772,35.1171697,-82.8236863,House, 
447,AIKEN RD,ROSMAN,NC,28772,35.11747128,-82.82373107,House, 
455,AIKEN RD,ROSMAN,NC,28772,35.11745873,-82.82383785,House, 
475,AIKEN RD,ROSMAN,NC,28772,35.11755203,-82.82340446,House, 
18,ANNIE'S WAY,BREVARD,NC,28712,35.11528304,-82.83645813,House, 
36,BEE TREE WAY,LAKE TOXAWAY,NC,28747,35.12610341,-82.95413221,House, 
64,BEE TREE WAY,LAKE TOXAWAY,NC,28747,35.12567831,-82.9540757,House, 
76,BEE TREE WAY,LAKE TOXAWAY,NC,28747,35.12534413,-82.95393009,House, 
106,BEE TREE WAY,LAKE TOXAWAY,NC,28747,35.12496566,-82.95378261,House, 
110,BEE TREE WAY,LAKE TOXAWAY,NC,28747,35.12484395,-82.95346612,House, 
148,BEE TREE WAY,LAKE TOXAWAY,NC,28747,35.1248774,-82.95312899,House, 
384,BEN NEVIS RD,BREVARD,NC,28712,35.1157909,-82.83092263,House, 
24,BIG PINE RD,SAPPHIRE,NC,28774,35.11503562,-82.98298527,House, 
9,BLUE GRASS CIR,ROSMAN,NC,28772,35.12650657,-82.83510217,House, 
38,BLUE GRASS CIR,ROSMAN,NC,28772,35.12638077,-82.83557485,House, 
71,BLUE GRASS CIR,ROSMAN,NC,28772,35.12598639,-82.83555697,House, 
62,BLUE RIDGE OVERLOOK DR,BREVARD,NC,28712,35.11625791,-82.83515711,House, 
126,BLUE RIDGE OVERLOOK DR,BREVARD,NC,28712,35.11598381,-82.83489941,House, 
166,BLUE RIDGE OVERLOOK DR,BREVARD,NC,28712,35.1157397,-82.83547193,House, 
188,BLUE RIDGE OVERLOOK DR,BREVARD,NC,28712,35.11554572,-82.83576182,House, 
259,BLUE RIDGE OVERLOOK DR,BREVARD,NC,28712,35.115245,-82.83553376,House, 
295,BLUE RIDGE OVERLOOK DR,BREVARD,NC,28712,35.11554483,-82.83498874,House, 
10,BLUE RIDGE PARK,BREVARD,NC,28712,35.12083193,-82.83244854,House, 
17,BLUE RIDGE PARK,BREVARD,NC,28712,35.1206472,-82.83286191,House, 
24,BLUE RIDGE PARK,BREVARD,NC,28712,35.12098331,-82.83263821,House, 
34,BLUE RIDGE PARK,BREVARD,NC,28712,35.12097416,-82.83282157,House, 
37,BLUE RIDGE PARK,BREVARD,NC,28712,35.1206562,-82.83297066,House, 
47,BLUE RIDGE PARK,BREVARD,NC,28712,35.12077862,-82.83310412,House, 
49,BLUE RIDGE PARK,BREVARD,NC,28712,35.12104186,-82.83321641,House, 
72,BLUE RIDGE PARK,BREVARD,NC,28712,35.12143371,-82.83331205,House, 
274,BLUE RIDGE RD,LAKE TOXAWAY,NC,28747,35.13034269,-82.93076659,House, 
298,BLUE RIDGE RD,LAKE TOXAWAY,NC,28747,35.13042174,-82.93110616,House, 
362,BLUE RIDGE RD,LAKE TOXAWAY,NC,28747,35.13081126,-82.93180923,House, 
364,BLUE RIDGE RD,LAKE TOXAWAY,NC,28747,35.1322885,-82.92891912,House, 
436,BLUE RIDGE RD,LAKE TOXAWAY,NC,28747,35.13170529,-82.93261346,House, 
502,BLUE RIDGE RD,LAKE TOXAWAY,NC,28747,35.13241375,-82.93337251,House, 
504,BLUE RIDGE RD,LAKE TOXAWAY,NC,28747,35.13250449,-82.93350008,House, 
547,BLUE RIDGE RD,LAKE TOXAWAY,NC,28747,35.13255715,-82.93418866,House, 
556,BLUE RIDGE RD,LAKE TOXAWAY,NC,28747,35.13352389,-82.93349841,House, 
565,BLUE RIDGE RD,LAKE TOXAWAY,NC,28747,35.13304438,-82.93450048,House, 
595,BLUE RIDGE RD,LAKE TOXAWAY,NC,28747,35.13363596,-82.93461709,House, 
621,BLUE RIDGE RD,LAKE TOXAWAY,NC,28747,35.1339761,-82.93446306,House, 
672,BLUE RIDGE RD,LAKE TOXAWAY,NC,28747,35.13457042,-82.93291167,House, 
689,BLUE RIDGE RD,LAKE TOXAWAY,NC,28747,35.13482851,-82.93398462,House, 
800,BLUE RIDGE RD,LAKE TOXAWAY,NC,28747,35.13419919,-82.93038599,House, 
25,BLUE RIDGE SHADOWS DR,ROSMAN,NC,28772,35.11508987,-82.82142667,House, 
40,BOTHY RD,BREVARD,NC,28712,35.13247492,-82.85752991,House, 
47,BOTHY RD,BREVARD,NC,28712,35.13338949,-82.85621179,House, 
72,BOTHY RD,BREVARD,NC,28712,35.132075,-82.85719266,House, 
95,BOTHY RD,BREVARD,NC,28712,35.13193962,-82.85667635,House, 
109,BOTHY RD,BREVARD,NC,28712,35.13173203,-82.85662748,House, 
115,BOTHY RD,BREVARD,NC,28712,35.13155239,-82.85632913,House, 
30,BOULDER DR,LAKE TOXAWAY,NC,28747,35.11815547,-82.9360388,House, 
31,BOULDER DR,LAKE TOXAWAY,NC,28747,35.11836603,-82.93598757,House, 
38,BOULDER DR,LAKE TOXAWAY,NC,28747,35.11815666,-82.93588114,House, 
39,BOULDER DR,LAKE TOXAWAY,NC,28747,35.11839847,-82.93587107,House, 
42,BOULDER DR,LAKE TOXAWAY,NC,28747,35.11818098,-82.93578753,House, 
43,BOULDER DR,LAKE TOXAWAY,NC,28747,35.11841564,-82.93576736,House, 
48,BOULDER DR,LAKE TOXAWAY,NC,28747,35.11819311,-82.93569729,House, 
49,BOULDER DR,LAKE TOXAWAY,NC,28747,35.11842691,-82.93567058,House, 
50,BOULDER DR,LAKE TOXAWAY,NC,28747,35.11822024,-82.93559269,House, 
61,BOULDER DR,LAKE TOXAWAY,NC,28747,35.11848518,-82.93539748,House, 
37,BOULDER RIDGE RD,BREVARD,NC,28712,35.11733739,-82.83737922,House, 
135,BOULDER RIDGE RD,BREVARD,NC,28712,35.1176033,-82.83775587,House, 
629,BREEDLOVE RD,LAKE TOXAWAY,NC,28747,35.13489525,-82.92543447,House, 
682,BREEDLOVE RD,LAKE TOXAWAY,NC,28747,35.13430781,-82.92538247,House, 
686,BREEDLOVE RD,LAKE TOXAWAY,NC,28747,35.13419171,-82.92563389,House, 
766,BREEDLOVE RD,LAKE TOXAWAY,NC,28747,35.13396605,-82.92344683,House, 
855,BREEDLOVE RD,LAKE TOXAWAY,NC,28747,35.13389648,-82.92152249,House, 
6,BRETT LN,BREVARD,NC,28712,35.12150879,-82.82250732,House, 
10,BRETT LN,BREVARD,NC,28712,35.12149882,-82.82261103,House, 
18,BRETT LN,BREVARD,NC,28712,35.12146239,-82.82275201,House, 
58,BROWN'S HIDDEN VALLEY DR,LAKE TOXAWAY,NC,28747,35.12571237,-82.89063,House, 
107,BROWN'S HIDDEN VALLEY DR,LAKE TOXAWAY,NC,28747,35.12499008,-82.88834206,House, 
108,BROWN'S HIDDEN VALLEY DR,LAKE TOXAWAY,NC,28747,35.12524637,-82.89004739,House, 
253,BROWN'S HIDDEN VALLEY DR,LAKE TOXAWAY,NC,28747,35.12429762,-82.88669183,House, 
413,BROWN'S HIDDEN VALLEY DR,LAKE TOXAWAY,NC,28747,35.12409017,-82.88606234,House, 
58,BROWN'S RIDGE,LAKE TOXAWAY,NC,28747,35.12339409,-82.88930315,House, 
300,BROWN'S RIDGE,LAKE TOXAWAY,NC,28747,35.12122277,-82.89032556,House, 
17,BUCKBERRY HILL DR,LAKE TOXAWAY,NC,28747,35.1209645,-82.93053815,House, 
45,BUCKBERRY HILL DR,LAKE TOXAWAY,NC,28747,35.12025269,-82.93080369,House, 
63,BUCKBERRY HILL DR,LAKE TOXAWAY,NC,28747,35.12014004,-82.93106942,House, 
149,BUCKBERRY HILL DR,LAKE TOXAWAY,NC,28747,35.12055199,-82.93270643,House, 
37,CAMDEN WAY,ROSMAN,NC,28772,35.11659551,-82.8233306,House, 
69,CAMDEN WAY,ROSMAN,NC,28772,35.11602296,-82.82338125,House, 
70,CAMDEN WAY,ROSMAN,NC,28772,35.11662838,-82.82384412,House, 
127,CAMDEN WAY,ROSMAN,NC,28772,35.11629138,-82.82413362,House, 
39,CAREFREE LN,LAKE TOXAWAY,NC,28747,35.12939124,-82.89227507,House, 
48,CAREFREE LN,LAKE TOXAWAY,NC,28747,35.129206,-82.89199627,House, 
60,CAREFREE LN,LAKE TOXAWAY,NC,28747,35.12921968,-82.89180354,House, 
72,CAREFREE LN,LAKE TOXAWAY,NC,28747,35.12937518,-82.89168729,House, 
97,CAREFREE LN,LAKE TOXAWAY,NC,28747,35.12987567,-82.89185376,House, 
102,CAREFREE LN,LAKE TOXAWAY,NC,28747,35.12976392,-82.89129421,House, 
109,CAREFREE LN,LAKE TOXAWAY,NC,28747,35.13002402,-82.89168134,House, 
131,CAREFREE LN,LAKE TOXAWAY,NC,28747,35.1302148,-82.89147355,House, 
162,CAREFREE LN,LAKE TOXAWAY,NC,28747,35.13043494,-82.89087554,House, 
164,CAREFREE LN,LAKE TOXAWAY,NC,28747,35.13017651,-82.89091954,House, 
22,CARRIAGE TRCE,LAKE TOXAWAY,NC,28747,35.13183088,-82.95735516,House, 
29,CARRIAGE TRCE,LAKE TOXAWAY,NC,28747,35.13270069,-82.95792744,House, 
30,CARRIAGE TRCE,LAKE TOXAWAY,NC,28747,35.13221133,-82.9575925,House, 
10,CATABWA RD,LAKE TOXAWAY,NC,28747,35.12405255,-82.91324482,House, 
29,CHAPMAN RDG,LAKE TOXAWAY,NC,28747,35.11699973,-82.90374337,House, 
31,CHAPMAN RDG,LAKE TOXAWAY,NC,28747,35.11690246,-82.90472014,House, 
87,CHAPMAN RDG,LAKE TOXAWAY,NC,28747,35.11669058,-82.90588848,House, 
94,CHAPMAN RDG,LAKE TOXAWAY,NC,28747,35.11868239,-82.90419052,House, 
155,CHAPMAN RDG,LAKE TOXAWAY,NC,28747,35.1187778,-82.90582686,House, 
43,CHEROKEE PT,LAKE TOXAWAY,NC,28747,35.13275582,-82.95051787,House, 
360,CHEROKEE TRCE,LAKE TOXAWAY,NC,28747,35.13476333,-82.95488549,House, 
412,CHEROKEE TRCE,LAKE TOXAWAY,NC,28747,35.13394235,-82.95569429,House, 
424,CHEROKEE TRCE,LAKE TOXAWAY,NC,28747,35.13362114,-82.95578661,House, 
516,CHEROKEE TRCE,LAKE TOXAWAY,NC,28747,35.13246689,-82.95403758,House, 
590,CHEROKEE TRCE,LAKE TOXAWAY,NC,28747,35.1322458,-82.9529559,House, 
636,CHEROKEE TRCE,LAKE TOXAWAY,NC,28747,35.13228606,-82.95236967,House, 
660,CHEROKEE TRCE,LAKE TOXAWAY,NC,28747,35.13275734,-82.95163494,House, 
662,CHEROKEE TRCE,LAKE TOXAWAY,NC,28747,35.13283092,-82.95163289,House, 
111,CHESTNUT TRCE,LAKE TOXAWAY,NC,28747,35.12833271,-82.95498337,House, 
161,CHESTNUT TRCE,LAKE TOXAWAY,NC,28747,35.12864666,-82.95529392,House, 
287,CHESTNUT TRCE,LAKE TOXAWAY,NC,28747,35.1299751,-82.95742141,House, 
91,CLUB COLONY LN,LAKE TOXAWAY,NC,28747,35.13408158,-82.95182143,House, 
93,CLUB COLONY LN,LAKE TOXAWAY,NC,28747,35.13361155,-82.95187773,House, 
131,CLUB COLONY LN,LAKE TOXAWAY,NC,28747,35.13340315,-82.95228989,House, 
147,CLUB COLONY LN,LAKE TOXAWAY,NC,28747,35.13329454,-82.95284557,House, 
160,CLUB COLONY LN,LAKE TOXAWAY,NC,28747,35.13367845,-82.95310631,House, 
188,CLUB COLONY LN,LAKE TOXAWAY,NC,28747,35.13374034,-82.95352413,House, 
212,CLUB COLONY LN,LAKE TOXAWAY,NC,28747,35.13390706,-82.95397869,House, 
226,CLUB COLONY LN,LAKE TOXAWAY,NC,28747,35.13383281,-82.95440475,House, 
242,CLUB COLONY LN,LAKE TOXAWAY,NC,28747,35.13355353,-82.95470396,House, 
258,CLUB COLONY LN,LAKE TOXAWAY,NC,28747,35.13322598,-82.95433768,House, 
280,CLUB COLONY LN,LAKE TOXAWAY,NC,28747,35.133192,-82.95386664,House, 
294,CLUB COLONY LN,LAKE TOXAWAY,NC,28747,35.13326388,-82.95343129,House, 
140,COOLIDGE DR,ROSMAN,NC,28772,35.13106491,-82.82837273,House, 
150,COOLIDGE DR,ROSMAN,NC,28772,35.13212392,-82.8291775,House, 
229,COOLIDGE DR,ROSMAN,NC,28772,35.13176089,-82.83005481,House, 
71,COUNTRY FAIR LN,ROSMAN,NC,28772,35.13060527,-82.83170734,House, 
118,COUNTRY FAIR LN,ROSMAN,NC,28772,35.12983445,-82.83104332,House, 
6,CROWE COUNTRY LN,ROSMAN,NC,28772,35.1318642,-82.82045035,House, 
26,DAN REID RD,LAKE TOXAWAY,NC,28747,35.13110155,-82.90329931,House, 
50,DAN REID RD,LAKE TOXAWAY,NC,28747,35.13131678,-82.9031275,House, 
70,DAN REID RD,LAKE TOXAWAY,NC,28747,35.13155208,-82.90291565,House, 
90,DAN REID RD,LAKE TOXAWAY,NC,28747,35.13187892,-82.90270296,House, 
175,DEEP FORD FLS,LAKE TOXAWAY,NC,28747,35.12804784,-82.95791217,House, 
233,DEEP FORD FLS,LAKE TOXAWAY,NC,28747,35.12769237,-82.95693536,House, 
13,DUNCAN KNOB RD,ROSMAN,NC,28772,35.12815991,-82.83143078,House, 
41,DUNCAN KNOB RD,ROSMAN,NC,28772,35.12766009,-82.83104133,House, 
95,DUNCAN KNOB RD,ROSMAN,NC,28772,35.12795971,-82.82954677,House, 
101,DUNCAN KNOB RD,ROSMAN,NC,28772,35.12667467,-82.82980415,House, 
125,DUNCAN KNOB RD,ROSMAN,NC,28772,35.12630556,-82.83029514,House, 
175,DUNCAN KNOB RD,ROSMAN,NC,28772,35.12529975,-82.8311136,House, 
980,EAGLE DR,SAPPHIRE,NC,28774,35.12310445,-82.97201478,House, 
1132,EAGLE DR,SAPPHIRE,NC,28774,35.124611,-82.97318919,House, 
21,ECHO SPRINGS CT,LAKE TOXAWAY,NC,28747,35.11692687,-82.94256248,House, 
34,ECHO SPRINGS CT,LAKE TOXAWAY,NC,28747,35.11689936,-82.94344108,House, 
44,ECHO SPRINGS CT,LAKE TOXAWAY,NC,28747,35.11655489,-82.94343849,House, 
67,ECHO SPRINGS CT,LAKE TOXAWAY,NC,28747,35.11644746,-82.94309636,House, 
35,ECHO SPRINGS PT,LAKE TOXAWAY,NC,28747,35.11735599,-82.9434879,House, 
74,ECHO SPRINGS PT,LAKE TOXAWAY,NC,28747,35.11741233,-82.94266041,House, 
100,ECHO SPRINGS PT,LAKE TOXAWAY,NC,28747,35.11787416,-82.9423373,House, 
48,FALLSVIEW DR,LAKE TOXAWAY,NC,28747,35.1195922,-82.92294694,House, 
70,FALLSVIEW DR,LAKE TOXAWAY,NC,28747,35.11937658,-82.9230717,House, 
90,FALLSVIEW DR,LAKE TOXAWAY,NC,28747,35.11913064,-82.92336273,House, 
120,FALLSVIEW DR,LAKE TOXAWAY,NC,28747,35.11871871,-82.92348903,House, 
175,FALLSVIEW DR,LAKE TOXAWAY,NC,28747,35.11824074,-82.92492612,House, 
180,FALLSVIEW DR,LAKE TOXAWAY,NC,28747,35.11841673,-82.92401107,House, 
193,FALLSVIEW DR,LAKE TOXAWAY,NC,28747,35.11842741,-82.92474409,House, 
218,FALLSVIEW DR,LAKE TOXAWAY,NC,28747,35.11903575,-82.92420947,House, 
300,FALLSVIEW DR,LAKE TOXAWAY,NC,28747,35.11938055,-82.92429152,House, 
6,FERN BANK RD,SAPPHIRE,NC,28774,35.11603224,-82.9805224,House, 
11,FERN BANK RD,SAPPHIRE,NC,28774,35.11650402,-82.98147688,House, 
21,FERN BANK RD,SAPPHIRE,NC,28774,35.116284,-82.98079374,House, 
34,FERN BANK RD,SAPPHIRE,NC,28774,35.11627745,-82.98051401,House, 
40,FERN BANK RD,SAPPHIRE,NC,28774,35.11650143,-82.98051542,House, 
91,FLAT CREEK VALLEY RD,LAKE TOXAWAY,NC,28747,35.127725,-82.88938306,House, 
93,FLAT CREEK VALLEY RD,LAKE TOXAWAY,NC,28747,35.12748678,-82.88923067,House, 
95,FLAT CREEK VALLEY RD,LAKE TOXAWAY,NC,28747,35.12678496,-82.89044127,House, 
180,FLAT CREEK VALLEY RD,LAKE TOXAWAY,NC,28747,35.12654887,-82.89202402,House, 
287,FLAT CREEK VALLEY RD,LAKE TOXAWAY,NC,28747,35.12430435,-82.88988336,House, 
343,FLAT CREEK VALLEY RD,LAKE TOXAWAY,NC,28747,35.12390693,-82.89132761,House, 
347,FLAT CREEK VALLEY RD,LAKE TOXAWAY,NC,28747,35.12359919,-82.89160215,House, 
415,FLAT CREEK VALLEY RD,LAKE TOXAWAY,NC,28747,35.12316159,-82.89207539,House, 
419,FLAT CREEK VALLEY RD,LAKE TOXAWAY,NC,28747,35.12319589,-82.89117733,House, 
570,FLAT CREEK VALLEY RD,LAKE TOXAWAY,NC,28747,35.1212147,-82.89497229,House, 
572,FLAT CREEK VALLEY RD,LAKE TOXAWAY,NC,28747,35.1208134,-82.89523262,House, 
635,FLAT CREEK VALLEY RD,LAKE TOXAWAY,NC,28747,35.12047207,-82.8937922,House, 
876,FLAT CREEK VALLEY RD,LAKE TOXAWAY,NC,28747,35.11595759,-82.89827162,House, 
878,FLAT CREEK VALLEY RD,LAKE TOXAWAY,NC,28747,35.11654674,-82.89747484,House, 
880,FLAT CREEK VALLEY RD,LAKE TOXAWAY,NC,28747,35.11807694,-82.89672873,House, 
937,FLAT CREEK VALLEY RD,LAKE TOXAWAY,NC,28747,35.11650258,-82.89517202,House, 
1033,FLAT CREEK VALLEY RD,LAKE TOXAWAY,NC,28747,35.11531643,-82.8950633,House, 
1088,FLAT CREEK VALLEY RD,LAKE TOXAWAY,NC,28747,35.11506689,-82.896408,House, 
2579,FLAT CREEK VALLEY RD,LAKE TOXAWAY,NC,28747,35.1153821,-82.91129037,House, 
2686,FLAT CREEK VALLEY RD,LAKE TOXAWAY,NC,28747,35.11764391,-82.90999951,House, 
2700,FLAT CREEK VALLEY RD,LAKE TOXAWAY,NC,28747,35.11846546,-82.90947737,House, 
2984,FLAT CREEK VALLEY RD,LAKE TOXAWAY,NC,28747,35.12211552,-82.9092767,House, 
3044,FLAT CREEK VALLEY RD,LAKE TOXAWAY,NC,28747,35.12259771,-82.90912802,House, 
3064,FLAT CREEK VALLEY RD,LAKE TOXAWAY,NC,28747,35.12352397,-82.909417,House, 
3066,FLAT CREEK VALLEY RD,LAKE TOXAWAY,NC,28747,35.12336619,-82.90895061,House, 
3069,FLAT CREEK VALLEY RD,LAKE TOXAWAY,NC,28747,35.1234737,-82.90990805,House, 
3114,FLAT CREEK VALLEY RD,LAKE TOXAWAY,NC,28747,35.12452949,-82.90935217,House, 
95,FOREVER FARM WAY,LAKE TOXAWAY,NC,28747,35.11556528,-82.90112381,House, 
119,FOREVER FARM WAY,LAKE TOXAWAY,NC,28747,35.1155573,-82.90061912,House, 
181,FOREVER FARM WAY,LAKE TOXAWAY,NC,28747,35.11609861,-82.89964925,House, 
49,FOREVER POLLY'S HL,ROSMAN,NC,28772,35.12648967,-82.83231303,House, 
50,FOREVER POLLY'S HL,ROSMAN,NC,28772,35.12646803,-82.83251196,House, 
53,FOREVER POLLY'S HL,ROSMAN,NC,28772,35.12643461,-82.83230415,House, 
56,FOREVER POLLY'S HL,ROSMAN,NC,28772,35.12638543,-82.83249864,House, 
465,FROZEN CREEK RD,BREVARD,NC,28712,35.13373262,-82.85661268,House, 
554,FROZEN CREEK RD,BREVARD,NC,28712,35.13321956,-82.85838491,House, 
558,FROZEN CREEK RD,BREVARD,NC,28712,35.13392087,-82.85994132,House, 
574,FROZEN CREEK RD,BREVARD,NC,28712,35.13272375,-82.85832815,House, 
901,FROZEN CREEK RD,BREVARD,NC,28712,35.12834053,-82.86131666,House, 
944,FROZEN CREEK RD,BREVARD,NC,28712,35.12872338,-82.86300339,House, 
945,FROZEN CREEK RD,BREVARD,NC,28712,35.12783362,-82.86220343,House, 
946,FROZEN CREEK RD,BREVARD,NC,28712,35.1292534,-82.86413956,House, 
1234,FROZEN CREEK RD,BREVARD,NC,28712,35.12602441,-82.86694678,House, 
1295,FROZEN CREEK RD,BREVARD,NC,28712,35.12481385,-82.86548356,House, 
1555,FROZEN CREEK RD,BREVARD,NC,28712,35.12099648,-82.8663663,House, 
1896,FROZEN CREEK RD,BREVARD,NC,28712,35.11879969,-82.8724348,House, 
2000,FROZEN CREEK RD,BREVARD,NC,28712,35.11751637,-82.8732963,House, 
2041,FROZEN CREEK RD,BREVARD,NC,28712,35.11696585,-82.87359347,House, 
2081,FROZEN CREEK RD,BREVARD,NC,28712,35.11622504,-82.87393225,House, 
2145,FROZEN CREEK RD,BREVARD,NC,28712,35.11571454,-82.87459476,House, 
2290,FROZEN CREEK RD,BREVARD,NC,28712,35.11614787,-82.87740163,House, 
2536,FROZEN CREEK RD,BREVARD,NC,28712,35.11530911,-82.88182584,House, 
31,G W WHITMIRE RD,ROSMAN,NC,28772,35.12946523,-82.82432461,House, 
67,G W WHITMIRE RD,ROSMAN,NC,28772,35.1288939,-82.82590491,House, 
75,G W WHITMIRE RD,ROSMAN,NC,28772,35.12970243,-82.8256134,House, 
110,G W WHITMIRE RD,ROSMAN,NC,28772,35.13020134,-82.82546053,House, 
132,G W WHITMIRE RD,ROSMAN,NC,28772,35.13217829,-82.82834809,House, 
169,G W WHITMIRE RD,ROSMAN,NC,28772,35.12945641,-82.82620216,House, 
200,G W WHITMIRE RD,ROSMAN,NC,28772,35.12965476,-82.82706977,House, 
226,G W WHITMIRE RD,ROSMAN,NC,28772,35.12987074,-82.82875438,House, 
354,G W WHITMIRE RD,ROSMAN,NC,28772,35.13009437,-82.83008842,House, 
505,G W WHITMIRE RD,ROSMAN,NC,28772,35.12900847,-82.8320969,House, 
614,G W WHITMIRE RD,ROSMAN,NC,28772,35.12973951,-82.83356448,House, 
616,G W WHITMIRE RD,ROSMAN,NC,28772,35.13039774,-82.83454099,House, 
634,G W WHITMIRE RD,ROSMAN,NC,28772,35.13044196,-82.83553291,House, 
656,G W WHITMIRE RD,ROSMAN,NC,28772,35.12842792,-82.83485064,House, 
658,G W WHITMIRE RD,ROSMAN,NC,28772,35.12840966,-82.83558433,House, 
688,G W WHITMIRE RD,ROSMAN,NC,28772,35.12837119,-82.83618438,House, 
730,G W WHITMIRE RD,ROSMAN,NC,28772,35.12762498,-82.83594539,House, 
738,G W WHITMIRE RD,ROSMAN,NC,28772,35.12756169,-82.83670944,House, 
878,G W WHITMIRE RD,ROSMAN,NC,28772,35.12601944,-82.83446308,House, 
940,G W WHITMIRE RD,ROSMAN,NC,28772,35.12399976,-82.83287963,House, 
83,HARDWOOD HL,LAKE TOXAWAY,NC,28747,35.13488893,-82.88966184,House, 
53,HICKORY HOLLOW RD,LAKE TOXAWAY,NC,28747,35.12225484,-82.89444225,House, 
111,HICKORY HOLLOW RD,LAKE TOXAWAY,NC,28747,35.12281442,-82.89519829,House, 
125,HICKORY HOLLOW RD,LAKE TOXAWAY,NC,28747,35.12326742,-82.89495891,House, 
126,HICKORY HOLLOW RD,LAKE TOXAWAY,NC,28747,35.12285826,-82.89413978,House, 
152,HICKORY HOLLOW RD,LAKE TOXAWAY,NC,28747,35.12326873,-82.89399442,House, 
175,HICKORY HOLLOW RD,LAKE TOXAWAY,NC,28747,35.1235045,-82.894783,House, 
200,HICKORY HOLLOW RD,LAKE TOXAWAY,NC,28747,35.12382078,-82.89398897,House, 
893,HICKORY SHAFT DR,SAPPHIRE,NC,28774,35.11826964,-82.96436613,House, 
924,HICKORY SHAFT DR,SAPPHIRE,NC,28774,35.11740575,-82.96383481,House, 
90,HOLLY CIR,LAKE TOXAWAY,NC,28747,35.12570324,-82.93947706,House, 
31,HOMESTEAD RD,LAKE TOXAWAY,NC,28747,35.1316153,-82.94772923,House, 
97,HOMESTEAD RD,LAKE TOXAWAY,NC,28747,35.13082168,-82.94620297,House, 
116,HOMESTEAD RD,LAKE TOXAWAY,NC,28747,35.12959864,-82.94681691,House, 
131,HOMESTEAD RD,LAKE TOXAWAY,NC,28747,35.13053262,-82.94564772,House, 
152,HOMESTEAD RD,LAKE TOXAWAY,NC,28747,35.12944625,-82.94637322,House, 
154,HOMESTEAD RD,LAKE TOXAWAY,NC,28747,35.12970156,-82.94602573,House, 
20,HORSEPLAY LN,LAKE TOXAWAY,NC,28747,35.13097947,-82.8880205,House,UNIT 1
20,HORSEPLAY LN,LAKE TOXAWAY,NC,28747,35.13097947,-82.8880205,House,UNIT 2
80,HORSEPLAY LN,LAKE TOXAWAY,NC,28747,35.13152422,-82.88880897,House, 
81,HORSEPLAY LN,LAKE TOXAWAY,NC,28747,35.13138534,-82.8889222,House, 
164,HORSEPLAY LN,LAKE TOXAWAY,NC,28747,35.13211722,-82.88997242,House, 
169,HORSEPLAY LN,LAKE TOXAWAY,NC,28747,35.13202576,-82.89016501,House, 
194,HORSEPLAY LN,LAKE TOXAWAY,NC,28747,35.1322653,-82.89049763,House, 
17,HOWELL RD,BREVARD,NC,28712,35.11672293,-82.83986655,House, 
20,HOWELL RD,BREVARD,NC,28712,35.1164753,-82.83886786,House, 
42,HOWELL RD,BREVARD,NC,28712,35.11697835,-82.83850424,House, 
56,HOWELL RD,BREVARD,NC,28712,35.11712999,-82.83827324,House, 
294,HOWELL RD,BREVARD,NC,28712,35.1195835,-82.84029638,House, 
296,HOWELL RD,BREVARD,NC,28712,35.12020841,-82.84014681,House, 
298,HOWELL RD,BREVARD,NC,28712,35.12070599,-82.84100843,House, 
500,HOWELL RD,BREVARD,NC,28712,35.11850691,-82.84447067,House, 
330,INDIAN CREEK DR,LAKE TOXAWAY,NC,28747,35.12368266,-82.91585788,House, 
639,INDIAN CREEK DR,LAKE TOXAWAY,NC,28747,35.11927484,-82.91628843,House, 
683,INDIAN CREEK DR,LAKE TOXAWAY,NC,28747,35.11849071,-82.91649763,House, 
23,INDIAN CREEK TRL,LAKE TOXAWAY,NC,28747,35.12120559,-82.91555901,House, 
51,INDIAN CREEK TRL,LAKE TOXAWAY,NC,28747,35.12081949,-82.91562313,House, 
63,INDIAN CREEK TRL,LAKE TOXAWAY,NC,28747,35.12044809,-82.91562574,House, 
13,INDIAN FALLS WAY,LAKE TOXAWAY,NC,28747,35.12408055,-82.91454535,House, 
19,INDIAN FALLS WAY,LAKE TOXAWAY,NC,28747,35.1242514,-82.91476487,House, 
31,INDIAN FALLS WAY,LAKE TOXAWAY,NC,28747,35.12427789,-82.9150308,House, 
45,INDIAN FALLS WAY,LAKE TOXAWAY,NC,28747,35.12436686,-82.9153174,House, 
61,INDIAN FALLS WAY,LAKE TOXAWAY,NC,28747,35.12449747,-82.91549108,House, 
63,INDIAN FALLS WAY,LAKE TOXAWAY,NC,28747,35.12451615,-82.91586543,House, 
