Number,Street,City,State,PostalCode,Latitude,Longitude,Type,ApartmentNumber
120,HOSPITAL DR,BREVARD,NC,28712,35.2557072,-82.71450325,Apartment,APT 111
120,HOSPITAL DR,BREVARD,NC,28712,35.25553991,-82.71448485,Apartment,APT 112
120,HOSPITAL DR,BREVARD,NC,28712,35.25570412,-82.71460364,Apartment,APT 113
120,HOSPITAL DR,BREVARD,NC,28712,35.25553966,-82.71458895,Apartment,APT 114
120,HOSPITAL DR,BREVARD,NC,28712,35.25570225,-82.71466458,Apartment,APT 115
120,HOSPITAL DR,BREVARD,NC,28712,35.25553779,-82.7146499,Apartment,APT 116
120,HOSPITAL DR,BREVARD,NC,28712,35.25569964,-82.71398234,Apartment,APT 201
120,HOSPITAL DR,BREVARD,NC,28712,35.25563266,-82.71395774,Apartment,APT 202
120,HOSPITAL DR,BREVARD,NC,28712,35.25570387,-82.71403638,Apartment,APT 203
120,HOSPITAL DR,BREVARD,NC,28712,35.25562774,-82.71402214,Apartment,APT 204
120,HOSPITAL DR,BREVARD,NC,28712,35.25569807,-82.71412946,Apartment,APT 205
120,HOSPITAL DR,BREVARD,NC,28712,35.25561889,-82.71411867,Apartment,APT 206
120,HOSPITAL DR,BREVARD,NC,28712,35.2556988,-82.7142013,Apartment,APT 207
120,HOSPITAL DR,BREVARD,NC,28712,35.25561352,-82.71419741,Apartment,APT 208
120,HOSPITAL DR,BREVARD,NC,28712,35.25557493,-82.71430335,Apartment,APT 209
120,HOSPITAL DR,BREVARD,NC,28712,35.25568239,-82.71444827,Apartment,APT 210
120,HOSPITAL DR,BREVARD,NC,28712,35.25560626,-82.71443402,Apartment,APT 211
120,HOSPITAL DR,BREVARD,NC,28712,35.25567485,-82.71450178,Apartment,APT 212
120,HOSPITAL DR,BREVARD,NC,28712,35.25559556,-82.71449457,Apartment,APT 213
120,HOSPITAL DR,BREVARD,NC,28712,35.25567166,-82.71460574,Apartment,APT 214
120,HOSPITAL DR,BREVARD,NC,28712,35.25559531,-82.71459867,Apartment,APT 215
120,HOSPITAL DR,BREVARD,NC,28712,35.25566979,-82.71466669,Apartment,APT 216
120,HOSPITAL DR,BREVARD,NC,28712,35.25559627,-82.71466333,Apartment,APT 217
120,HOSPITAL DR,BREVARD,NC,28712,35.25574777,-82.71433278,House,
15,HUMBLE DR,BREVARD,NC,28712,35.25302843,-82.70199801,House,
20,HUMBLE DR,BREVARD,NC,28712,35.25314224,-82.70183307,House,
37,HUMBLE DR,BREVARD,NC,28712,35.25323981,-82.70222942,House,
40,HUMBLE DR,BREVARD,NC,28712,35.25351161,-82.70190216,House,
49,HUMBLE DR,BREVARD,NC,28712,35.25356561,-82.70235067,House,
63,HUMBLE DR,BREVARD,NC,28712,35.25373047,-82.70226568,House,
77,HUMBLE DR,BREVARD,NC,28712,35.2539122,-82.70229818,House,
129,HUMBLE DR,BREVARD,NC,28712,35.25451202,-82.70257639,House,
21,IDLEWOOD ST,BREVARD,NC,28712,35.25239511,-82.70910409,House,
48,IDLEWOOD ST,BREVARD,NC,28712,35.25273595,-82.70849959,House,
49,IDLEWOOD ST,BREVARD,NC,28712,35.2528315,-82.70903729,House,
61,JACKSON CT,BREVARD,NC,28712,35.24684247,-82.72407122,House,
6,JASMINE LN,BREVARD,NC,28712,35.2574914,-82.72102591,House,
14,JASMINE LN,BREVARD,NC,28712,35.25738512,-82.72087708,House,
22,JASMINE LN,BREVARD,NC,28712,35.2573085,-82.72071631,House,
32,JASMINE LN,BREVARD,NC,28712,35.25724868,-82.72052374,House,
38,JASMINE LN,BREVARD,NC,28712,35.25720862,-82.72033886,House,
50,JASMINE LN,BREVARD,NC,28712,35.25719176,-82.72014219,House,
184,KINGS CREEK LOOP,BREVARD,NC,28712,35.23637772,-82.72686499,House,
194,KINGS CREEK LOOP,BREVARD,NC,28712,35.2360604,-82.72643515,House,
271,KINGS CREEK LOOP,BREVARD,NC,28712,35.23812638,-82.72567124,House,
281,KINGS CREEK LOOP,BREVARD,NC,28712,35.2376197,-82.72599041,House,
283,KINGS CREEK LOOP,BREVARD,NC,28712,35.23858098,-82.72545303,House,
285,KINGS CREEK LOOP,BREVARD,NC,28712,35.23804112,-82.72505733,House,
290,KINGS CREEK LOOP,BREVARD,NC,28712,35.23680522,-82.72532575,House,
292,KINGS CREEK LOOP,BREVARD,NC,28712,35.23615692,-82.72293869,House,
378,KINGS CREEK LOOP,BREVARD,NC,28712,35.23812227,-82.724036,House,
406,KINGS CREEK LOOP,BREVARD,NC,28712,35.23871631,-82.72286612,Apartment,R101
406,KINGS CREEK LOOP,BREVARD,NC,28712,35.23871631,-82.72286612,Apartment,R102
406,KINGS CREEK LOOP,BREVARD,NC,28712,35.23871631,-82.72286612,Apartment,R103
406,KINGS CREEK LOOP,BREVARD,NC,28712,35.23871631,-82.72286612,Apartment,R104
406,KINGS CREEK LOOP,BREVARD,NC,28712,35.23871631,-82.72286612,Apartment,R201
406,KINGS CREEK LOOP,BREVARD,NC,28712,35.23871631,-82.72286612,Apartment,R202
406,KINGS CREEK LOOP,BREVARD,NC,28712,35.23871631,-82.72286612,Apartment,R203
440,KINGS CREEK LOOP,BREVARD,NC,28712,35.2391685,-82.72435764,House,
454,KINGS CREEK LOOP,BREVARD,NC,28712,35.23928089,-82.72466018,House,
476,KINGS CREEK LOOP,BREVARD,NC,28712,35.23935465,-82.72493911,House,
478,KINGS CREEK LOOP,BREVARD,NC,28712,35.23939366,-82.7250689,House,
494,KINGS CREEK LOOP,BREVARD,NC,28712,35.23944535,-82.72525181,House,
496,KINGS CREEK LOOP,BREVARD,NC,28712,35.23948537,-82.7253846,House,
520,KINGS CREEK LOOP,BREVARD,NC,28712,35.23957864,-82.72576355,House,
595,KINGS CREEK LOOP,BREVARD,NC,28712,35.23953356,-82.72720691,Apartment,APT 11
595,KINGS CREEK LOOP,BREVARD,NC,28712,35.23953356,-82.72720691,Apartment,APT 12
595,KINGS CREEK LOOP,BREVARD,NC,28712,35.23953356,-82.72720691,Apartment,APT 13
595,KINGS CREEK LOOP,BREVARD,NC,28712,35.23953356,-82.72720691,Apartment,APT 14
595,KINGS CREEK LOOP,BREVARD,NC,28712,35.23953356,-82.72720691,Apartment,APT 15
595,KINGS CREEK LOOP,BREVARD,NC,28712,35.23953356,-82.72720691,Apartment,APT 16
595,KINGS CREEK LOOP,BREVARD,NC,28712,35.23953356,-82.72720691,Apartment,APT 17
595,KINGS CREEK LOOP,BREVARD,NC,28712,35.23953356,-82.72720691,Apartment,APT 18
595,KINGS CREEK LOOP,BREVARD,NC,28712,35.23953356,-82.72720691,Apartment,APT 21
595,KINGS CREEK LOOP,BREVARD,NC,28712,35.23953356,-82.72720691,Apartment,APT 22
595,KINGS CREEK LOOP,BREVARD,NC,28712,35.23953356,-82.72720691,Apartment,APT 23
595,KINGS CREEK LOOP,BREVARD,NC,28712,35.23953356,-82.72720691,Apartment,APT 24
595,KINGS CREEK LOOP,BREVARD,NC,28712,35.23953356,-82.72720691,Apartment,APT 25
595,KINGS CREEK LOOP,BREVARD,NC,28712,35.23953356,-82.72720691,Apartment,APT 26
595,KINGS CREEK LOOP,BREVARD,NC,28712,35.23953356,-82.72720691,Apartment,APT 27
595,KINGS CREEK LOOP,BREVARD,NC,28712,35.23953356,-82.72720691,Apartment,APT 28
595,KINGS CREEK LOOP,BREVARD,NC,28712,35.23953356,-82.72720691,Apartment,APT 31
595,KINGS CREEK LOOP,BREVARD,NC,28712,35.23953356,-82.72720691,Apartment,APT 32
595,KINGS CREEK LOOP,BREVARD,NC,28712,35.23953356,-82.72720691,Apartment,APT 33
595,KINGS CREEK LOOP,BREVARD,NC,28712,35.23953356,-82.72720691,Apartment,APT 34
595,KINGS CREEK LOOP,BREVARD,NC,28712,35.23953356,-82.72720691,Apartment,APT 35
595,KINGS CREEK LOOP,BREVARD,NC,28712,35.23953356,-82.72720691,Apartment,APT 36
595,KINGS CREEK LOOP,BREVARD,NC,28712,35.23953356,-82.72720691,Apartment,APT 37
595,KINGS CREEK LOOP,BREVARD,NC,28712,35.23953356,-82.72720691,Apartment,APT 38
595,KINGS CREEK LOOP,BREVARD,NC,28712,35.23953356,-82.72720691,Apartment,APT 41
595,KINGS CREEK LOOP,BREVARD,NC,28712,35.23953356,-82.72720691,Apartment,APT 42
595,KINGS CREEK LOOP,BREVARD,NC,28712,35.23953356,-82.72720691,Apartment,APT 43
595,KINGS CREEK LOOP,BREVARD,NC,28712,35.23953356,-82.72720691,Apartment,APT 44
595,KINGS CREEK LOOP,BREVARD,NC,28712,35.23953356,-82.72720691,Apartment,APT 45
595,KINGS CREEK LOOP,BREVARD,NC,28712,35.23953356,-82.72720691,Apartment,APT 46
595,KINGS CREEK LOOP,BREVARD,NC,28712,35.23953356,-82.72720691,Apartment,APT 47
595,KINGS CREEK LOOP,BREVARD,NC,28712,35.23953356,-82.72720691,Apartment,APT 48
595,KINGS CREEK LOOP,BREVARD,NC,28712,35.23953356,-82.72720691,Apartment,APT 51
595,KINGS CREEK LOOP,BREVARD,NC,28712,35.23953356,-82.72720691,Apartment,APT 52
595,KINGS CREEK LOOP,BREVARD,NC,28712,35.23953356,-82.72720691,Apartment,APT 53
595,KINGS CREEK LOOP,BREVARD,NC,28712,35.23953356,-82.72720691,Apartment,APT 54
595,KINGS CREEK LOOP,BREVARD,NC,28712,35.23953356,-82.72720691,Apartment,APT 55
595,KINGS CREEK LOOP,BREVARD,NC,28712,35.23953356,-82.72720691,Apartment,APT 56
595,KINGS CREEK LOOP,BREVARD,NC,28712,35.23953356,-82.72720691,Apartment,APT 57
595,KINGS CREEK LOOP,BREVARD,NC,28712,35.23953356,-82.72720691,Apartment,APT 58
595,KINGS CREEK LOOP,BREVARD,NC,28712,35.23953356,-82.72720691,Apartment,APT 61
595,KINGS CREEK LOOP,BREVARD,NC,28712,35.23953356,-82.72720691,Apartment,APT 62
595,KINGS CREEK LOOP,BREVARD,NC,28712,35.23953356,-82.72720691,Apartment,APT 63
595,KINGS CREEK LOOP,BREVARD,NC,28712,35.23953356,-82.72720691,Apartment,APT 64
595,KINGS CREEK LOOP,BREVARD,NC,28712,35.23953356,-82.72720691,Apartment,APT 65
595,KINGS CREEK LOOP,BREVARD,NC,28712,35.23953356,-82.72720691,Apartment,APT 66
595,KINGS CREEK LOOP,BREVARD,NC,28712,35.23953356,-82.72720691,Apartment,APT 67
595,KINGS CREEK LOOP,BREVARD,NC,28712,35.23953356,-82.72720691,Apartment,APT 68
595,KINGS CREEK LOOP,BREVARD,NC,28712,35.23953356,-82.72720691,Apartment,APT 71
595,KINGS CREEK LOOP,BREVARD,NC,28712,35.23953356,-82.72720691,Apartment,APT 72
595,KINGS CREEK LOOP,BREVARD,NC,28712,35.23953356,-82.72720691,Apartment,APT 73
595,KINGS CREEK LOOP,BREVARD,NC,28712,35.23953356,-82.72720691,Apartment,APT 74
595,KINGS CREEK LOOP,BREVARD,NC,28712,35.23953356,-82.72720691,Apartment,APT 75
595,KINGS CREEK LOOP,BREVARD,NC,28712,35.23953356,-82.72720691,Apartment,APT 76
595,KINGS CREEK LOOP,BREVARD,NC,28712,35.23953356,-82.72720691,Apartment,APT 77
595,KINGS CREEK LOOP,BREVARD,NC,28712,35.23953356,-82.72720691,Apartment,APT 78
595,KINGS CREEK LOOP,BREVARD,NC,28712,35.23953356,-82.72720691,Apartment,APT 81
595,KINGS CREEK LOOP,BREVARD,NC,28712,35.23953356,-82.72720691,Apartment,APT 82
595,KINGS CREEK LOOP,BREVARD,NC,28712,35.23953356,-82.72720691,Apartment,APT 83
595,KINGS CREEK LOOP,BREVARD,NC,28712,35.23953356,-82.72720691,Apartment,APT 84
595,KINGS CREEK LOOP,BREVARD,NC,28712,35.23953356,-82.72720691,Apartment,APT 85
595,KINGS CREEK LOOP,BREVARD,NC,28712,35.23953356,-82.72720691,Apartment,APT 86
595,KINGS CREEK LOOP,BREVARD,NC,28712,35.23953356,-82.72720691,Apartment,APT 87
595,KINGS CREEK LOOP,BREVARD,NC,28712,35.23953356,-82.72720691,Apartment,APT 88
651,KINGS CREEK LOOP,BREVARD,NC,28712,35.23894576,-82.72736784,Apartment,APT 11
651,KINGS CREEK LOOP,BREVARD,NC,28712,35.23894576,-82.72736784,Apartment,APT 12
651,KINGS CREEK LOOP,BREVARD,NC,28712,35.23894576,-82.72736784,Apartment,APT 13
651,KINGS CREEK LOOP,BREVARD,NC,28712,35.23894576,-82.72736784,Apartment,APT 14
651,KINGS CREEK LOOP,BREVARD,NC,28712,35.23894576,-82.72736784,Apartment,APT 15
651,KINGS CREEK LOOP,BREVARD,NC,28712,35.23894576,-82.72736784,Apartment,APT 16
651,KINGS CREEK LOOP,BREVARD,NC,28712,35.23894576,-82.72736784,Apartment,APT 21
651,KINGS CREEK LOOP,BREVARD,NC,28712,35.23894576,-82.72736784,Apartment,APT 22
651,KINGS CREEK LOOP,BREVARD,NC,28712,35.23894576,-82.72736784,Apartment,APT 23
651,KINGS CREEK LOOP,BREVARD,NC,28712,35.23894576,-82.72736784,Apartment,APT 24
651,KINGS CREEK LOOP,BREVARD,NC,28712,35.23894576,-82.72736784,Apartment,APT 25
651,KINGS CREEK LOOP,BREVARD,NC,28712,35.23894576,-82.72736784,Apartment,APT 26
651,KINGS CREEK LOOP,BREVARD,NC,28712,35.23894576,-82.72736784,Apartment,APT 31
651,KINGS CREEK LOOP,BREVARD,NC,28712,35.23894576,-82.72736784,Apartment,APT 32
651,KINGS CREEK LOOP,BREVARD,NC,28712,35.23894576,-82.72736784,Apartment,APT 33
651,KINGS CREEK LOOP,BREVARD,NC,28712,35.23894576,-82.72736784,Apartment,APT 34
651,KINGS CREEK LOOP,BREVARD,NC,28712,35.23894576,-82.72736784,Apartment,APT 35
651,KINGS CREEK LOOP,BREVARD,NC,28712,35.23894576,-82.72736784,Apartment,APT 36
651,KINGS CREEK LOOP,BREVARD,NC,28712,35.23894576,-82.72736784,Apartment,APT 41
651,KINGS CREEK LOOP,BREVARD,NC,28712,35.23894576,-82.72736784,Apartment,APT 42
651,KINGS CREEK LOOP,BREVARD,NC,28712,35.23894576,-82.72736784,Apartment,APT 43
651,KINGS CREEK LOOP,BREVARD,NC,28712,35.23894576,-82.72736784,Apartment,APT 44
651,KINGS CREEK LOOP,BREVARD,NC,28712,35.23894576,-82.72736784,Apartment,APT 45
651,KINGS CREEK LOOP,BREVARD,NC,28712,35.23894576,-82.72736784,Apartment,APT 46
651,KINGS CREEK LOOP,BREVARD,NC,28712,35.23894576,-82.72736784,Apartment,APT 51
651,KINGS CREEK LOOP,BREVARD,NC,28712,35.23894576,-82.72736784,Apartment,APT 52
651,KINGS CREEK LOOP,BREVARD,NC,28712,35.23894576,-82.72736784,Apartment,APT 53
651,KINGS CREEK LOOP,BREVARD,NC,28712,35.23894576,-82.72736784,Apartment,APT 54
651,KINGS CREEK LOOP,BREVARD,NC,28712,35.23894576,-82.72736784,Apartment,APT 55
651,KINGS CREEK LOOP,BREVARD,NC,28712,35.23894576,-82.72736784,Apartment,APT 56
651,KINGS CREEK LOOP,BREVARD,NC,28712,35.23894576,-82.72736784,Apartment,APT 61
651,KINGS CREEK LOOP,BREVARD,NC,28712,35.23894576,-82.72736784,Apartment,APT 62
651,KINGS CREEK LOOP,BREVARD,NC,28712,35.23894576,-82.72736784,Apartment,APT 63
651,KINGS CREEK LOOP,BREVARD,NC,28712,35.23894576,-82.72736784,Apartment,APT 64
651,KINGS CREEK LOOP,BREVARD,NC,28712,35.23894576,-82.72736784,Apartment,APT 65
651,KINGS CREEK LOOP,BREVARD,NC,28712,35.23894576,-82.72736784,Apartment,APT 66
651,KINGS CREEK LOOP,BREVARD,NC,28712,35.23894576,-82.72736784,Apartment,APT 71
651,KINGS CREEK LOOP,BREVARD,NC,28712,35.23894576,-82.72736784,Apartment,APT 72
651,KINGS CREEK LOOP,BREVARD,NC,28712,35.23894576,-82.72736784,Apartment,APT 73
651,KINGS CREEK LOOP,BREVARD,NC,28712,35.23894576,-82.72736784,Apartment,APT 74
651,KINGS CREEK LOOP,BREVARD,NC,28712,35.23894576,-82.72736784,Apartment,APT 75
651,KINGS CREEK LOOP,BREVARD,NC,28712,35.23894576,-82.72736784,Apartment,APT 76
651,KINGS CREEK LOOP,BREVARD,NC,28712,35.23894576,-82.72736784,Apartment,APT 81
651,KINGS CREEK LOOP,BREVARD,NC,28712,35.23894576,-82.72736784,Apartment,APT 82
651,KINGS CREEK LOOP,BREVARD,NC,28712,35.23894576,-82.72736784,Apartment,APT 83
651,KINGS CREEK LOOP,BREVARD,NC,28712,35.23894576,-82.72736784,Apartment,APT 84
651,KINGS CREEK LOOP,BREVARD,NC,28712,35.23894576,-82.72736784,Apartment,APT 85
651,KINGS CREEK LOOP,BREVARD,NC,28712,35.23894576,-82.72736784,Apartment,APT 86
695,KINGS CREEK LOOP,BREVARD,NC,28712,35.23844592,-82.72767895,Apartment,R101
695,KINGS CREEK LOOP,BREVARD,NC,28712,35.23844592,-82.72767895,Apartment,R103
695,KINGS CREEK LOOP,BREVARD,NC,28712,35.23844592,-82.72767895,Apartment,R105
695,KINGS CREEK LOOP,BREVARD,NC,28712,35.23844592,-82.72767895,Apartment,R111
695,KINGS CREEK LOOP,BREVARD,NC,28712,35.23844592,-82.72767895,Apartment,R112
695,KINGS CREEK LOOP,BREVARD,NC,28712,35.23844592,-82.72767895,Apartment,R115
695,KINGS CREEK LOOP,BREVARD,NC,28712,35.23844592,-82.72767895,Apartment,R116
695,KINGS CREEK LOOP,BREVARD,NC,28712,35.23844592,-82.72767895,Apartment,R117
695,KINGS CREEK LOOP,BREVARD,NC,28712,35.23844592,-82.72767895,Apartment,R119
695,KINGS CREEK LOOP,BREVARD,NC,28712,35.23844592,-82.72767895,Apartment,R200
695,KINGS CREEK LOOP,BREVARD,NC,28712,35.23844592,-82.72767895,Apartment,R201
695,KINGS CREEK LOOP,BREVARD,NC,28712,35.23844592,-82.72767895,Apartment,R202
695,KINGS CREEK LOOP,BREVARD,NC,28712,35.23844592,-82.72767895,Apartment,R204
695,KINGS CREEK LOOP,BREVARD,NC,28712,35.23844592,-82.72767895,Apartment,R206
695,KINGS CREEK LOOP,BREVARD,NC,28712,35.23844592,-82.72767895,Apartment,R208
695,KINGS CREEK LOOP,BREVARD,NC,28712,35.23844592,-82.72767895,Apartment,R209
695,KINGS CREEK LOOP,BREVARD,NC,28712,35.23844592,-82.72767895,Apartment,R210
695,KINGS CREEK LOOP,BREVARD,NC,28712,35.23844592,-82.72767895,House,
10,KNIGHT CT,BREVARD,NC,28712,35.24897977,-82.71529041,House,
16,KNIGHT CT,BREVARD,NC,28712,35.24894335,-82.71536324,House,
20,KNIGHT CT,BREVARD,NC,28712,35.24889531,-82.71544835,House,
26,KNIGHT CT,BREVARD,NC,28712,35.24877675,-82.71561769,House,
32,KNIGHT CT,BREVARD,NC,28712,35.24870297,-82.71566454,House,
36,KNIGHT CT,BREVARD,NC,28712,35.24864303,-82.71568337,House,
44,KNIGHT CT,BREVARD,NC,28712,35.24849423,-82.71575945,House,
50,KNIGHT CT,BREVARD,NC,28712,35.2484168,-82.71578886,House,
56,KNIGHT CT,BREVARD,NC,28712,35.24833462,-82.71581108,House,
71,LAKE HOUSE TRL,BREVARD,NC,28712,35.25861782,-82.72354288,House,
115,LAKE HOUSE TRL,BREVARD,NC,28712,35.25879008,-82.7239803,House,
141,LAKE HOUSE TRL,BREVARD,NC,28712,35.25860709,-82.72443592,House,
185,LAKE HOUSE TRL,BREVARD,NC,28712,35.25834831,-82.72533513,House,
11,LONDON CT,BREVARD,NC,28712,35.24925487,-82.71519689,House,
17,LONDON CT,BREVARD,NC,28712,35.24926419,-82.71526625,House,
21,LONDON CT,BREVARD,NC,28712,35.24928954,-82.71537201,House,
29,LONDON CT,BREVARD,NC,28712,35.24928522,-82.71544934,House,
83,LONDON CT,BREVARD,NC,28712,35.24885879,-82.71599371,House,
87,LONDON CT,BREVARD,NC,28712,35.24881204,-82.71603418,House,
93,LONDON CT,BREVARD,NC,28712,35.24874994,-82.71609635,House,
107,LONDON CT,BREVARD,NC,28712,35.24860422,-82.71615348,House,
113,LONDON CT,BREVARD,NC,28712,35.24852568,-82.71617259,House,
119,LONDON CT,BREVARD,NC,28712,35.24844358,-82.71618703,House,
61,LOWER FORTUNE COVE TRL,BREVARD,NC,28712,35.25261748,-82.72344061,House,
101,LOWER FORTUNE COVE TRL,BREVARD,NC,28712,35.25216793,-82.72362359,House,
3,MARKET ST,BREVARD,NC,28712,35.25349497,-82.72140781,House,
1,MARKET ST,BREVARD,NC,28712,35.25272594,-82.72109905,House,
2,MARKET ST,BREVARD,NC,28712,35.25294494,-82.72154187,House,
4,MARKET ST,BREVARD,NC,28712,35.25355189,-82.72114115,Apartment,STE 4101
4,MARKET ST,BREVARD,NC,28712,35.25358231,-82.72106436,Apartment,STE 4102
4,MARKET ST,BREVARD,NC,28712,35.25358961,-82.72095719,Apartment,STE 4103
4,MARKET ST,BREVARD,NC,28712,35.2536371,-82.72084696,Apartment,STE 4104
4,MARKET ST,BREVARD,NC,28712,35.25374267,-82.72080292,Apartment,STE 4105
4,MARKET ST,BREVARD,NC,28712,35.25363164,-82.72115457,Apartment,STE 4201
4,MARKET ST,BREVARD,NC,28712,35.25368223,-82.72107381,Apartment,STE 4202
4,MARKET ST,BREVARD,NC,28712,35.25369323,-82.72097658,Apartment,STE 4203
4,MARKET ST,BREVARD,NC,28712,35.25371965,-82.7208996,Apartment,STE 4204
4,MARKET ST,BREVARD,NC,28712,35.25380816,-82.72088899,Apartment,STE 4205
5,MARKET ST,BREVARD,NC,28712,35.25397821,-82.7207499,Apartment,STE 5101
5,MARKET ST,BREVARD,NC,28712,35.25397821,-82.7207499,Apartment,STE 5102
5,MARKET ST,BREVARD,NC,28712,35.25397821,-82.7207499,Apartment,STE 5103
5,MARKET ST,BREVARD,NC,28712,35.25397821,-82.7207499,Apartment,STE 5104
5,MARKET ST,BREVARD,NC,28712,35.25397821,-82.7207499,Apartment,STE 5105
5,MARKET ST,BREVARD,NC,28712,35.25397821,-82.7207499,Apartment,STE 5106
5,MARKET ST,BREVARD,NC,28712,35.25397821,-82.7207499,Apartment,STE 5201
5,MARKET ST,BREVARD,NC,28712,35.25397821,-82.7207499,Apartment,STE 5202
5,MARKET ST,BREVARD,NC,28712,35.25397821,-82.7207499,Apartment,STE 5203
5,MARKET ST,BREVARD,NC,28712,35.25397821,-82.7207499,Apartment,STE 5204
5,MARKET ST,BREVARD,NC,28712,35.25397821,-82.7207499,Apartment,STE 5205
5,MARKET ST,BREVARD,NC,28712,35.25397821,-82.7207499,Apartment,STE 5206
52,MEADOW VIEW RD,BREVARD,NC,28712,35.2575925,-82.71967301,House,
70,MEADOW VIEW RD,BREVARD,NC,28712,35.25778452,-82.71973784,House,
77,MEADOW VIEW RD,BREVARD,NC,28712,35.25777779,-82.72032794,House,
84,MEADOW VIEW RD,BREVARD,NC,28712,35.25798116,-82.71981804,House,
89,MEADOW VIEW RD,BREVARD,NC,28712,35.25797316,-82.7203405,House,
102,MEADOW VIEW RD,BREVARD,NC,28712,35.25823319,-82.71985902,House,
103,MEADOW VIEW RD,BREVARD,NC,28712,35.25819775,-82.72043113,House,
115,MEADOW VIEW RD,BREVARD,NC,28712,35.25838587,-82.72044585,House,
116,MEADOW VIEW RD,BREVARD,NC,28712,35.25844287,-82.71982352,House,
119,MEADOW VIEW RD,BREVARD,NC,28712,35.25858657,-82.72043777,House,
134,MEADOW VIEW RD,BREVARD,NC,28712,35.25866749,-82.71987393,House,
144,MEADOW VIEW RD,BREVARD,NC,28712,35.2588489,-82.71990552,House,
145,MEADOW VIEW RD,BREVARD,NC,28712,35.25880132,-82.72046523,House,
23,MEDICAL PARK CIR,BREVARD,NC,28712,35.25752001,-82.70926151,House,
87,MEDICAL PARK DR,BREVARD,NC,28712,35.25751567,-82.7125617,Apartment,STE A
87,MEDICAL PARK DR,BREVARD,NC,28712,35.25749979,-82.71242282,Apartment,STE B
89,MEDICAL PARK DR,BREVARD,NC,28712,35.25747777,-82.71206011,Apartment,STE A
89,MEDICAL PARK DR,BREVARD,NC,28712,35.25747808,-82.71196802,Apartment,STE B
89,MEDICAL PARK DR,BREVARD,NC,28712,35.25747141,-82.71185719,Apartment,STE C
110,MEDICAL PARK DR,BREVARD,NC,28712,35.25691938,-82.71175252,House,
157,MEDICAL PARK DR,BREVARD,NC,28712,35.2574505,-82.71155474,Apartment,STE A
157,MEDICAL PARK DR,BREVARD,NC,28712,35.25745922,-82.71135251,Apartment,STE B
159,MEDICAL PARK DR,BREVARD,NC,28712,35.25748703,-82.71093366,House,
187,MEDICAL PARK DR,BREVARD,NC,28712,35.25747335,-82.71016163,House,
188,MEDICAL PARK DR,BREVARD,NC,28712,35.25673489,-82.7100844,Apartment,STE A
188,MEDICAL PARK DR,BREVARD,NC,28712,35.25691362,-82.71008641,Apartment,STE B
188,MEDICAL PARK DR,BREVARD,NC,28712,35.25671806,-82.71030468,Apartment,STE C
188,MEDICAL PARK DR,BREVARD,NC,28712,35.25693416,-82.71023778,Apartment,STE D
46,METCALF FARM RD,BREVARD,NC,28712,35.24467121,-82.71794023,House,
67,METCALF FARM RD,BREVARD,NC,28712,35.24425392,-82.71750849,House,
174,METCALF FARM RD,BREVARD,NC,28712,35.24420726,-82.71901594,House,
25,MONTVIEW CIR,BREVARD,NC,28712,35.24207981,-82.72780624,House,
43,MONTVIEW CIR,BREVARD,NC,28712,35.24202785,-82.72820935,House,
44,MONTVIEW CIR,BREVARD,NC,28712,35.24233626,-82.72834295,House,
84,MONTVIEW CIR,BREVARD,NC,28712,35.24251455,-82.72837993,House,
94,MONTVIEW CIR,BREVARD,NC,28712,35.24268183,-82.72839629,House,
104,MONTVIEW CIR,BREVARD,NC,28712,35.24284143,-82.72837249,House,
118,MONTVIEW CIR,BREVARD,NC,28712,35.24301005,-82.72837167,House,
148,MONTVIEW CIR,BREVARD,NC,28712,35.24332195,-82.72836758,House,
163,MONTVIEW CIR,BREVARD,NC,28712,35.24370236,-82.72847554,House,
169,MONTVIEW CIR,BREVARD,NC,28712,35.24386265,-82.72829384,House,
189,MONTVIEW CIR,BREVARD,NC,28712,35.24397596,-82.72807559,House,
193,MONTVIEW CIR,BREVARD,NC,28712,35.24411577,-82.72790149,House,
300,MORRIS RD,BREVARD,NC,28712,35.25851611,-82.71202602,House,
342,MOUNTAIN INDUSTRIAL DR,BREVARD,NC,28712,35.25337487,-82.70710511,House,
602,N BROAD ST,BREVARD,NC,28712,35.24059109,-82.72854206,House,
684,N BROAD ST,BREVARD,NC,28712,35.24065462,-82.7269793,House,
686,N BROAD ST,BREVARD,NC,28712,35.24055903,-82.72552661,House,
842,N BROAD ST,BREVARD,NC,28712,35.24208196,-82.72547337,House,
3,N COLLEGE ROW,BREVARD,NC,28712,35.23883134,-82.72158373,House,
9,N COLLEGE ROW,BREVARD,NC,28712,35.23894045,-82.72166418,House,
27,N COLLEGE ROW,BREVARD,NC,28712,35.23917027,-82.72180585,House,
37,N COLLEGE ROW,BREVARD,NC,28712,35.23927925,-82.72191207,House,
47,N COLLEGE ROW,BREVARD,NC,28712,35.23935394,-82.72199932,House,
100,N COLLEGE ROW,BREVARD,NC,28712,35.2399097,-82.72274423,Apartment,APT 100
