Number,Street,City,State,PostalCode,Latitude,Longitude,Type,ApartmentNumber
9,PARK PLACE WEST,BREVARD,NC,28712,35.2564703,-82.71890999,Apartment,STE 102
9,PARK PLACE WEST,BREVARD,NC,28712,35.25649577,-82.71899422,Apartment,STE 201
10,PARK PLACE WEST,BREVARD,NC,28712,35.25605269,-82.71834869,House,
11,PARK PLACE WEST,BREVARD,NC,28712,35.25636529,-82.71810644,House,
13,PARK PLACE WEST,BREVARD,NC,28712,35.25662766,-82.71787918,Apartment,STE 101
15,PARK PLACE WEST,BREVARD,NC,28712,35.25651975,-82.71841608,House,
17,PEACEFUL LN,BREVARD,NC,28712,35.25808857,-82.71101523,House,
26,PEACEFUL LN,BREVARD,NC,28712,35.2584293,-82.71105659,House,
39,PEACEFUL LN,BREVARD,NC,28712,35.25790957,-82.71088278,House,
40,PEACEFUL LN,BREVARD,NC,28712,35.25786858,-82.71119039,House,
35,PINE MOUNTAIN TRL,BREVARD,NC,28712,35.2573031,-82.7218425,House,
89,PINE MOUNTAIN TRL,BREVARD,NC,28712,35.25791039,-82.72239228,Apartment, 
249,PINE MOUNTAIN TRL,BREVARD,NC,28712,35.25938795,-82.72362178,House,
385,PINE MOUNTAIN TRL,BREVARD,NC,28712,35.25927736,-82.72568948,House,
122,PISGAH DR,BREVARD,NC,28712,35.25978223,-82.7106308,House,
127,PISGAH DR,BREVARD,NC,28712,35.25967131,-82.71004534,House,
151,PISGAH DR,BREVARD,NC,28712,35.25927989,-82.71012217,House,
167,PISGAH DR,BREVARD,NC,28712,35.25901962,-82.71014667,House,
191,PISGAH DR,BREVARD,NC,28712,35.25876068,-82.71019563,House,
204,PISGAH DR,BREVARD,NC,28712,35.25860024,-82.71099262,House,
208,PISGAH DR,BREVARD,NC,28712,35.2584803,-82.71088668,House,
214,PISGAH DR,BREVARD,NC,28712,35.25832977,-82.71089979,House,
221,PISGAH DR,BREVARD,NC,28712,35.25838847,-82.71024883,House,
226,PISGAH DR,BREVARD,NC,28712,35.25807617,-82.71061459,House,
255,PISGAH DR,BREVARD,NC,28712,35.25833171,-82.70994292,House,
314,PISGAH DR,BREVARD,NC,28712,35.25785794,-82.70871673,House,
348,PISGAH DR,BREVARD,NC,28712,35.25786714,-82.70809664,House,
349,PISGAH DR,BREVARD,NC,28712,35.25828228,-82.70860082,House,
366,PISGAH DR,BREVARD,NC,28712,35.25834532,-82.708067,House,
367,PISGAH DR,BREVARD,NC,28712,35.25853639,-82.70847481,House,
399,PISGAH DR,BREVARD,NC,28712,35.25887323,-82.70840795,House,
400,PISGAH DR,BREVARD,NC,28712,35.25894765,-82.70792234,House,
415,PISGAH DR,BREVARD,NC,28712,35.25917425,-82.70837714,House,
418,PISGAH DR,BREVARD,NC,28712,35.25920222,-82.70788322,House,
437,PISGAH DR,BREVARD,NC,28712,35.25940809,-82.70829914,House,
440,PISGAH DR,BREVARD,NC,28712,35.2594639,-82.70784856,House,
443,PISGAH DR,BREVARD,NC,28712,35.25960281,-82.70828047,House,
462,PISGAH DR,BREVARD,NC,28712,35.25974986,-82.70775768,House,
14,POPLAR ST,BREVARD,NC,28712,35.24503614,-82.72747402,House,
29,POPLAR ST,BREVARD,NC,28712,35.24551221,-82.72748279,House,
32,POPLAR ST,BREVARD,NC,28712,35.24521077,-82.72710154,House,
51,POPLAR ST,BREVARD,NC,28712,35.24564597,-82.72720146,House,
52,POPLAR ST,BREVARD,NC,28712,35.24534436,-82.72681529,House,
63,POPLAR ST,BREVARD,NC,28712,35.24574297,-82.72692521,House,
72,POPLAR ST,BREVARD,NC,28712,35.24547162,-82.72653811,House,
77,POPLAR ST,BREVARD,NC,28712,35.24588118,-82.72665713,House,
82,POPLAR ST,BREVARD,NC,28712,35.24574543,-82.72620429,House,
84,POPLAR ST,BREVARD,NC,28712,35.24544811,-82.72612126,House,
36,PRESSLEY AVE,BREVARD,NC,28712,35.24932389,-82.71836261,House,
55,PRESSLEY AVE,BREVARD,NC,28712,35.24951461,-82.71793033,House,
56,PRESSLEY AVE,BREVARD,NC,28712,35.24924503,-82.7181169,House,
60,PRESSLEY AVE,BREVARD,NC,28712,35.24913106,-82.71780252,House,
75,PRESSLEY AVE,BREVARD,NC,28712,35.2494063,-82.71759774,House,
94,PRESSLEY AVE,BREVARD,NC,28712,35.24901836,-82.71744965,House,
100,PRESSLEY AVE,BREVARD,NC,28712,35.24891852,-82.71714134,House,
107,PRESSLEY AVE,BREVARD,NC,28712,35.24922962,-82.71709227,House,
120,PRESSLEY AVE,BREVARD,NC,28712,35.24887977,-82.71666369,House,
5,PRINCETON LN,BREVARD,NC,28712,35.23871826,-82.72099509,House,
12,PRINCETON LN,BREVARD,NC,28712,35.23848084,-82.72061983,House,
15,PRINCETON LN,BREVARD,NC,28712,35.23878634,-82.72087691,House,
22,PRINCETON LN,BREVARD,NC,28712,35.23853964,-82.72048883,House,
25,PRINCETON LN,BREVARD,NC,28712,35.23884872,-82.72071774,House,
32,PRINCETON LN,BREVARD,NC,28712,35.23861315,-82.72035849,House,
35,PRINCETON LN,BREVARD,NC,28712,35.23890751,-82.72057994,House,
37,PRINCETON LN,BREVARD,NC,28712,35.23898458,-82.72030554,House,
40,PRINCETON LN,BREVARD,NC,28712,35.23877274,-82.72015618,House,
41,PRINCETON LN,BREVARD,NC,28712,35.23889152,-82.72023002,House,
26,QUAIL RUN CIR,BREVARD,NC,28712,35.25128398,-82.72783739,House,
30,QUAIL RUN CIR,BREVARD,NC,28712,35.25118055,-82.72789605,House,
36,QUAIL RUN CIR,BREVARD,NC,28712,35.25109419,-82.7279024,House,
38,QUAIL RUN CIR,BREVARD,NC,28712,35.25099479,-82.72790341,House,
42,QUAIL RUN CIR,BREVARD,NC,28712,35.2508624,-82.72775092,House,
48,QUAIL RUN CIR,BREVARD,NC,28712,35.2507829,-82.72766708,House,
51,QUAIL RUN CIR,BREVARD,NC,28712,35.25101285,-82.72725581,House,
52,QUAIL RUN CIR,BREVARD,NC,28712,35.25071549,-82.72762326,House,
62,QUAIL RUN CIR,BREVARD,NC,28712,35.25063812,-82.72757577,House,
63,QUAIL RUN CIR,BREVARD,NC,28712,35.25086154,-82.72702735,House,
76,QUAIL RUN CIR,BREVARD,NC,28712,35.25048998,-82.72752013,House,
92,QUAIL RUN CIR,BREVARD,NC,28712,35.25042526,-82.72751552,House,
94,QUAIL RUN CIR,BREVARD,NC,28712,35.25034477,-82.72750976,House,
98,QUAIL RUN CIR,BREVARD,NC,28712,35.25025293,-82.72752071,House,
50,RABBIT RUN,BREVARD,NC,28712,35.24716291,-82.71272338,House,
64,RABBIT RUN,BREVARD,NC,28712,35.24737236,-82.71270841,House,
76,RABBIT RUN,BREVARD,NC,28712,35.24752149,-82.71259887,House,
78,RABBIT RUN,BREVARD,NC,28712,35.24764223,-82.71290158,House,
88,RABBIT RUN,BREVARD,NC,28712,35.24773748,-82.71306893,House,
14,RED FOX LN,BREVARD,NC,28712,35.25215411,-82.72605761,House,
22,RED FOX LN,BREVARD,NC,28712,35.25203896,-82.72623008,House,
33,RED FOX LN,BREVARD,NC,28712,35.2516475,-82.72620486,House,
34,RED FOX LN,BREVARD,NC,28712,35.25195091,-82.7265057,House,
45,RED FOX LN,BREVARD,NC,28712,35.2514405,-82.72643544,House,
46,RED FOX LN,BREVARD,NC,28712,35.2518419,-82.72676944,House,
48,RED FOX LN,BREVARD,NC,28712,35.25157264,-82.72682267,House,
18,RHODODENDRON DR,BREVARD,NC,28712,35.24580174,-82.71788196,House,
23,RHODODENDRON DR,BREVARD,NC,28712,35.2456269,-82.71816191,House,
41,RHODODENDRON DR,BREVARD,NC,28712,35.24633821,-82.71887631,House,
50,RHODODENDRON DR,BREVARD,NC,28712,35.24617391,-82.71812079,House,
60,RHODODENDRON DR,BREVARD,NC,28712,35.24629221,-82.71816565,House,
61,RHODODENDRON DR,BREVARD,NC,28712,35.24635365,-82.71856282,House,
76,RHODODENDRON DR,BREVARD,NC,28712,35.24655813,-82.71824265,House,
77,RHODODENDRON DR,BREVARD,NC,28712,35.2466254,-82.71871953,House,
102,RHODODENDRON DR,BREVARD,NC,28712,35.24695363,-82.71829324,House,
136,RHODODENDRON DR,BREVARD,NC,28712,35.24714727,-82.71832473,House,
154,RHODODENDRON DR,BREVARD,NC,28712,35.24762465,-82.71899594,House,
167,RHODODENDRON DR,BREVARD,NC,28712,35.24739274,-82.71921625,House,
176,RHODODENDRON DR,BREVARD,NC,28712,35.24768084,-82.71925652,House,
194,RHODODENDRON DR,BREVARD,NC,28712,35.24760094,-82.71956947,House,
206,RHODODENDRON DR,BREVARD,NC,28712,35.24749736,-82.71989701,House,
230,RHODODENDRON DR,BREVARD,NC,28712,35.24747387,-82.72011032,House,
15,RIDGETOP CIR,BREVARD,NC,28712,35.25383311,-82.72212223,Apartment,UNIT 101
15,RIDGETOP CIR,BREVARD,NC,28712,35.25383311,-82.72212223,Apartment,UNIT 102
15,RIDGETOP CIR,BREVARD,NC,28712,35.25383311,-82.72212223,Apartment,UNIT 103
15,RIDGETOP CIR,BREVARD,NC,28712,35.25383311,-82.72212223,Apartment,UNIT 104
15,RIDGETOP CIR,BREVARD,NC,28712,35.25383311,-82.72212223,Apartment,UNIT 105
31,RIDGETOP CIR,BREVARD,NC,28712,35.25344978,-82.72220824,Apartment,UNIT 101
31,RIDGETOP CIR,BREVARD,NC,28712,35.25346401,-82.72232018,Apartment,UNIT 102
31,RIDGETOP CIR,BREVARD,NC,28712,35.25347963,-82.72248245,Apartment,UNIT 103
31,RIDGETOP CIR,BREVARD,NC,28712,35.25337395,-82.72228016,Apartment,UNIT 104
31,RIDGETOP CIR,BREVARD,NC,28712,35.25338751,-82.72241362,Apartment,UNIT 105
47,RIDGETOP CIR,BREVARD,NC,28712,35.25373554,-82.72292946,Apartment,UNIT 101
47,RIDGETOP CIR,BREVARD,NC,28712,35.25363875,-82.72282093,Apartment,UNIT 102
47,RIDGETOP CIR,BREVARD,NC,28712,35.25372568,-82.72305826,Apartment,UNIT 201
47,RIDGETOP CIR,BREVARD,NC,28712,35.25364055,-82.72295384,Apartment,UNIT 202
47,RIDGETOP CIR,BREVARD,NC,28712,35.25355509,-82.72286018,Apartment,UNIT 203
73,RIDGETOP CIR,BREVARD,NC,28712,35.25399825,-82.72284387,Apartment,UNIT 101
73,RIDGETOP CIR,BREVARD,NC,28712,35.25408214,-82.72279745,Apartment,UNIT 102
73,RIDGETOP CIR,BREVARD,NC,28712,35.25420513,-82.72272409,Apartment,UNIT 103
73,RIDGETOP CIR,BREVARD,NC,28712,35.25401913,-82.72293099,Apartment,UNIT 201
73,RIDGETOP CIR,BREVARD,NC,28712,35.25411478,-82.7228851,Apartment,UNIT 202
73,RIDGETOP CIR,BREVARD,NC,28712,35.25424049,-82.72281905,Apartment,UNIT 203
73,RIDGETOP CIR,BREVARD,NC,28712,35.25405787,-82.72301174,Apartment,UNIT 301
73,RIDGETOP CIR,BREVARD,NC,28712,35.25416245,-82.72296268,Apartment,UNIT 302
73,RIDGETOP CIR,BREVARD,NC,28712,35.25429056,-82.72291468,Apartment,UNIT 303
99,RIDGETOP CIR,BREVARD,NC,28712,35.2544319,-82.72260458,Apartment,UNIT 101
99,RIDGETOP CIR,BREVARD,NC,28712,35.25455151,-82.72254543,Apartment,UNIT 102
99,RIDGETOP CIR,BREVARD,NC,28712,35.25465675,-82.72247486,Apartment,UNIT 103
99,RIDGETOP CIR,BREVARD,NC,28712,35.25447957,-82.72268216,Apartment,UNIT 201
99,RIDGETOP CIR,BREVARD,NC,28712,35.25456379,-82.72262498,Apartment,UNIT 202
99,RIDGETOP CIR,BREVARD,NC,28712,35.25469494,-82.72257354,Apartment,UNIT 203
99,RIDGETOP CIR,BREVARD,NC,28712,35.25451287,-82.7227483,Apartment,UNIT 301
99,RIDGETOP CIR,BREVARD,NC,28712,35.25461451,-82.7226991,Apartment,UNIT 302
99,RIDGETOP CIR,BREVARD,NC,28712,35.25472214,-82.72264658,Apartment,UNIT 303
65,ROBINSON AVE,BREVARD,NC,28712,35.23486154,-82.72669037,House,
75,ROBINSON AVE,BREVARD,NC,28712,35.23496753,-82.7269137,House,
95,ROBINSON AVE,BREVARD,NC,28712,35.23506653,-82.72714961,House,
105,ROBINSON AVE,BREVARD,NC,28712,35.23515962,-82.72733523,House,
8,S COLLEGE ROW,BREVARD,NC,28712,35.2387379,-82.72152789,House,
24,S COLLEGE ROW,BREVARD,NC,28712,35.23856622,-82.72131317,House,
34,S COLLEGE ROW,BREVARD,NC,28712,35.23848834,-82.72121164,House,
44,S COLLEGE ROW,BREVARD,NC,28712,35.23839563,-82.72105277,House,
56,S COLLEGE ROW,BREVARD,NC,28712,35.23826771,-82.72088875,House,
66,S COLLEGE ROW,BREVARD,NC,28712,35.23819778,-82.72078845,House,
76,S COLLEGE ROW,BREVARD,NC,28712,35.23810815,-82.72065853,House,
88,S COLLEGE ROW,BREVARD,NC,28712,35.23796729,-82.72043649,House,
98,S COLLEGE ROW,BREVARD,NC,28712,35.23790595,-82.72035705,House,
108,S COLLEGE ROW,BREVARD,NC,28712,35.23781255,-82.7202166,House,
126,S COLLEGE ROW,BREVARD,NC,28712,35.23760681,-82.72002732,House,
127,S COLLEGE ROW,BREVARD,NC,28712,35.23776827,-82.71969355,House,
136,S COLLEGE ROW,BREVARD,NC,28712,35.2375236,-82.71995011,House,
137,S COLLEGE ROW,BREVARD,NC,28712,35.23764959,-82.71960188,House,
146,S COLLEGE ROW,BREVARD,NC,28712,35.23742208,-82.71983547,House,
170,S COLLEGE ROW,BREVARD,NC,28712,35.23714137,-82.71972426,House,
180,S COLLEGE ROW,BREVARD,NC,28712,35.23699976,-82.71971753,House,
190,S COLLEGE ROW,BREVARD,NC,28712,35.23689531,-82.71972273,House,
194,S COLLEGE ROW,BREVARD,NC,28712,35.23665471,-82.71962457,House,
200,S COLLEGE ROW,BREVARD,NC,28712,35.23662104,-82.71947694,House,
12,SAL'S LN,BREVARD,NC,28712,35.25143206,-82.70395822,House,
21,SAL'S LN,BREVARD,NC,28712,35.25169332,-82.7034844,House,
79,SAL'S LN,BREVARD,NC,28712,35.2507938,-82.70280733,House,
97,SAL'S LN,BREVARD,NC,28712,35.25076624,-82.70255682,House,
7,SHEFFIELD PL,BREVARD,NC,28712,35.24848416,-82.72768983,House,
23,SHEFFIELD PL,BREVARD,NC,28712,35.24864998,-82.72770631,House,
35,SHEFFIELD PL,BREVARD,NC,28712,35.2488137,-82.7277717,House,
36,SHEFFIELD PL,BREVARD,NC,28712,35.24902952,-82.72742515,House,
37,SHEFFIELD PL,BREVARD,NC,28712,35.24900754,-82.72769461,House,
19,SPRING VISTA CT,BREVARD,NC,28712,35.252374,-82.72817537,House,
33,SPRING VISTA CT,BREVARD,NC,28712,35.25216266,-82.72836512,House,
28,SPRUCE ST,BREVARD,NC,28712,35.25216743,-82.70729253,House,
45,SPRUCE ST,BREVARD,NC,28712,35.25246246,-82.70784541,House,
46,SPRUCE ST,BREVARD,NC,28712,35.25245313,-82.70729931,House,
70,SPRUCE ST,BREVARD,NC,28712,35.25273248,-82.70725072,House,
73,SPRUCE ST,BREVARD,NC,28712,35.25274983,-82.70782454,House,
181,STRAUS PKWY,BREVARD,NC,28712,35.25311605,-82.72522237,House,
62,SUMMER PLACE CT,BREVARD,NC,28712,35.25371836,-82.7283876,House,
82,SUMMER PLACE CT,BREVARD,NC,28712,35.25393385,-82.72823779,House,
86,SUMMER PLACE CT,BREVARD,NC,28712,35.25415452,-82.72835652,House,
10,SUMMIT AVE,BREVARD,NC,28712,35.24164285,-82.7194697,House,
17,SUMMIT AVE,BREVARD,NC,28712,35.24157002,-82.71898861,House,
33,SUMMIT AVE,BREVARD,NC,28712,35.24139667,-82.7189258,House,
35,SUMMIT AVE,BREVARD,NC,28712,35.24120191,-82.71854169,House,
50,SUMMIT AVE,BREVARD,NC,28712,35.24093582,-82.71914141,House,
63,SUMMIT AVE,BREVARD,NC,28712,35.24085601,-82.71877048,House,
68,SUMMIT AVE,BREVARD,NC,28712,35.24069159,-82.7190533,House,
81,SUMMIT AVE,BREVARD,NC,28712,35.24060413,-82.71868082,House,
82,SUMMIT AVE,BREVARD,NC,28712,35.24045818,-82.71896836,House,
103,SUMMIT AVE,BREVARD,NC,28712,35.24029498,-82.71856849,House,
104,SUMMIT AVE,BREVARD,NC,28712,35.24020363,-82.71886327,House,
117,SUMMIT AVE,BREVARD,NC,28712,35.24008328,-82.71840664,House,
118,SUMMIT AVE,BREVARD,NC,28712,35.24000107,-82.71876277,House,
125,SUMMIT AVE,BREVARD,NC,28712,35.23983958,-82.71813972,House,
128,SUMMIT AVE,BREVARD,NC,28712,35.23987383,-82.71871147,House,
33,SUNSET DR,BREVARD,NC,28712,35.24107537,-82.71835897,Apartment,UNIT A
33,SUNSET DR,BREVARD,NC,28712,35.24104665,-82.7183372,Apartment,UNIT B
59,SUNSET DR,BREVARD,NC,28712,35.24066464,-82.71806749,House,
67,SUNSET DR,BREVARD,NC,28712,35.24048334,-82.71801791,House,
91,SUNSET DR,BREVARD,NC,28712,35.2402709,-82.71790771,House,
124,TEMPLE CHURCH RD,BREVARD,NC,28712,35.2596868,-82.70937542,House,
127,TEMPLE CHURCH RD,BREVARD,NC,28712,35.25959901,-82.70893049,House,
140,TEMPLE CHURCH RD,BREVARD,NC,28712,35.25939486,-82.70944891,House,
141,TEMPLE CHURCH RD,BREVARD,NC,28712,35.25934812,-82.70897866,House,
158,TEMPLE CHURCH RD,BREVARD,NC,28712,35.25914094,-82.70958258,House,
165,TEMPLE CHURCH RD,BREVARD,NC,28712,35.25903014,-82.70903381,House,
180,TEMPLE CHURCH RD,BREVARD,NC,28712,35.25888414,-82.70961033,House,
190,TEMPLE CHURCH RD,BREVARD,NC,28712,35.2586774,-82.70964513,House,
191,TEMPLE CHURCH RD,BREVARD,NC,28712,35.25866398,-82.7090979,House,
215,TEMPLE CHURCH RD,BREVARD,NC,28712,35.25830542,-82.7091572,House,
12,THISTLE TRL,BREVARD,NC,28712,35.24933847,-82.7200064,House,
31,THISTLE TRL,BREVARD,NC,28712,35.2491213,-82.71944168,House,
6,TRAILSIDE CT,BREVARD,NC,28712,35.25772064,-82.72346144,House,
10,TRAILSIDE CT,BREVARD,NC,28712,35.25770193,-82.72328978,House,
14,TRAILSIDE CT,BREVARD,NC,28712,35.25786465,-82.72305011,House,
22,TRAILSIDE CT,BREVARD,NC,28712,35.25789649,-82.72286556,House,
6,TREE HAVEN DR,BREVARD,NC,28712,35.25012204,-82.71213347,House,
19,TREE HAVEN DR,BREVARD,NC,28712,35.25034574,-82.71271464,House,
30,TREE HAVEN DR,BREVARD,NC,28712,35.25042129,-82.71195547,House,
47,TREE HAVEN DR,BREVARD,NC,28712,35.25058374,-82.71250602,House,
55,TREE HAVEN DR,BREVARD,NC,28712,35.25089639,-82.71231371,House,
56,TREE HAVEN DR,BREVARD,NC,28712,35.25075375,-82.71176258,House,
75,TREE HAVEN DR,BREVARD,NC,28712,35.25118481,-82.71208784,House,
80,TREE HAVEN DR,BREVARD,NC,28712,35.25098422,-82.71151007,House,
95,TREE HAVEN DR,BREVARD,NC,28712,35.2513638,-82.71181952,House,
121,TREE HAVEN DR,BREVARD,NC,28712,35.2514287,-82.71124037,House,
151,TREE HAVEN DR,BREVARD,NC,28712,35.25093539,-82.71073708,House,
161,TREE HAVEN DR,BREVARD,NC,28712,35.25073926,-82.71075902,House,
170,TREE HAVEN DR,BREVARD,NC,28712,35.25068522,-82.71128519,House,
191,TREE HAVEN DR,BREVARD,NC,28712,35.25040934,-82.71081245,House,
198,TREE HAVEN DR,BREVARD,NC,28712,35.25030123,-82.711446,House,
23,TUTOR LN,BREVARD,NC,28712,35.24926842,-82.71381925,House,
33,TUTOR LN,BREVARD,NC,28712,35.24922239,-82.71364379,House,
41,TUTOR LN,BREVARD,NC,28712,35.24918787,-82.71350083,House,
103,W CAMPUS DR,BREVARD,NC,28712,35.23649345,-82.7282171,Apartment,R104
103,W CAMPUS DR,BREVARD,NC,28712,35.23649345,-82.7282171,Apartment,R105
103,W CAMPUS DR,BREVARD,NC,28712,35.23649345,-82.7282171,Apartment,R106
103,W CAMPUS DR,BREVARD,NC,28712,35.23649345,-82.7282171,Apartment,R107
103,W CAMPUS DR,BREVARD,NC,28712,35.23649345,-82.7282171,Apartment,R108
103,W CAMPUS DR,BREVARD,NC,28712,35.23649345,-82.7282171,Apartment,R109
103,W CAMPUS DR,BREVARD,NC,28712,35.23649345,-82.7282171,Apartment,R110
103,W CAMPUS DR,BREVARD,NC,28712,35.23649345,-82.7282171,Apartment,R111
103,W CAMPUS DR,BREVARD,NC,28712,35.23649345,-82.7282171,Apartment,R112
103,W CAMPUS DR,BREVARD,NC,28712,35.23649345,-82.7282171,Apartment,R113
103,W CAMPUS DR,BREVARD,NC,28712,35.23649345,-82.7282171,Apartment,R114
103,W CAMPUS DR,BREVARD,NC,28712,35.23649345,-82.7282171,Apartment,R115
103,W CAMPUS DR,BREVARD,NC,28712,35.23649345,-82.7282171,Apartment,R210
103,W CAMPUS DR,BREVARD,NC,28712,35.23649345,-82.7282171,Apartment,R211
103,W CAMPUS DR,BREVARD,NC,28712,35.23649345,-82.7282171,Apartment,R212
103,W CAMPUS DR,BREVARD,NC,28712,35.23649345,-82.7282171,Apartment,R213
103,W CAMPUS DR,BREVARD,NC,28712,35.23649345,-82.7282171,Apartment,R214
103,W CAMPUS DR,BREVARD,NC,28712,35.23649345,-82.7282171,Apartment,R215
103,W CAMPUS DR,BREVARD,NC,28712,35.23649345,-82.7282171,Apartment,R300
103,W CAMPUS DR,BREVARD,NC,28712,35.23649345,-82.7282171,Apartment,R302
103,W CAMPUS DR,BREVARD,NC,28712,35.23649345,-82.7282171,Apartment,R304
103,W CAMPUS DR,BREVARD,NC,28712,35.23649345,-82.7282171,Apartment,R305
103,W CAMPUS DR,BREVARD,NC,28712,35.23649345,-82.7282171,Apartment,R306
103,W CAMPUS DR,BREVARD,NC,28712,35.23649345,-82.7282171,Apartment,R307
103,W CAMPUS DR,BREVARD,NC,28712,35.23649345,-82.7282171,Apartment,R308
103,W CAMPUS DR,BREVARD,NC,28712,35.23649345,-82.7282171,Apartment,R309
103,W CAMPUS DR,BREVARD,NC,28712,35.23649345,-82.7282171,Apartment,R310
103,W CAMPUS DR,BREVARD,NC,28712,35.23649345,-82.7282171,Apartment,R311
103,W CAMPUS DR,BREVARD,NC,28712,35.23649345,-82.7282171,Apartment,R312
103,W CAMPUS DR,BREVARD,NC,28712,35.23649345,-82.7282171,Apartment,R314
103,W CAMPUS DR,BREVARD,NC,28712,35.23649345,-82.7282171,Apartment,R315
107,W CAMPUS DR,BREVARD,NC,28712,35.23640003,-82.72855975,Apartment,R050
107,W CAMPUS DR,BREVARD,NC,28712,35.23640003,-82.72855975,Apartment,R052
107,W CAMPUS DR,BREVARD,NC,28712,35.23640003,-82.72855975,Apartment,R054
107,W CAMPUS DR,BREVARD,NC,28712,35.23640003,-82.72855975,Apartment,R055
107,W CAMPUS DR,BREVARD,NC,28712,35.23640003,-82.72855975,Apartment,R056
107,W CAMPUS DR,BREVARD,NC,28712,35.23640003,-82.72855975,Apartment,R057
107,W CAMPUS DR,BREVARD,NC,28712,35.23640003,-82.72855975,Apartment,R060
107,W CAMPUS DR,BREVARD,NC,28712,35.23640003,-82.72855975,Apartment,R061
107,W CAMPUS DR,BREVARD,NC,28712,35.23640003,-82.72855975,Apartment,R062
107,W CAMPUS DR,BREVARD,NC,28712,35.23640003,-82.72855975,Apartment,R063
107,W CAMPUS DR,BREVARD,NC,28712,35.23640003,-82.72855975,Apartment,R064
107,W CAMPUS DR,BREVARD,NC,28712,35.23640003,-82.72855975,Apartment,R065
107,W CAMPUS DR,BREVARD,NC,28712,35.23640003,-82.72855975,Apartment,R154
107,W CAMPUS DR,BREVARD,NC,28712,35.23640003,-82.72855975,Apartment,R155
107,W CAMPUS DR,BREVARD,NC,28712,35.23640003,-82.72855975,Apartment,R156
107,W CAMPUS DR,BREVARD,NC,28712,35.23640003,-82.72855975,Apartment,R157
107,W CAMPUS DR,BREVARD,NC,28712,35.23640003,-82.72855975,Apartment,R158
107,W CAMPUS DR,BREVARD,NC,28712,35.23640003,-82.72855975,Apartment,R159
107,W CAMPUS DR,BREVARD,NC,28712,35.23640003,-82.72855975,Apartment,R160
107,W CAMPUS DR,BREVARD,NC,28712,35.23640003,-82.72855975,Apartment,R161
107,W CAMPUS DR,BREVARD,NC,28712,35.23640003,-82.72855975,Apartment,R162
107,W CAMPUS DR,BREVARD,NC,28712,35.23640003,-82.72855975,Apartment,R163
107,W CAMPUS DR,BREVARD,NC,28712,35.23640003,-82.72855975,Apartment,R164
107,W CAMPUS DR,BREVARD,NC,28712,35.23640003,-82.72855975,Apartment,R165
107,W CAMPUS DR,BREVARD,NC,28712,35.23640003,-82.72855975,Apartment,R250
107,W CAMPUS DR,BREVARD,NC,28712,35.23640003,-82.72855975,Apartment,R252
107,W CAMPUS DR,BREVARD,NC,28712,35.23640003,-82.72855975,Apartment,R254
107,W CAMPUS DR,BREVARD,NC,28712,35.23640003,-82.72855975,Apartment,R255
107,W CAMPUS DR,BREVARD,NC,28712,35.23640003,-82.72855975,Apartment,R256
