Number,Street,City,State,PostalCode,Latitude,Longitude,Type,ApartmentNumber
43,S BROAD ST,BREVARD,NC,28712,35.23304064,-82.73458421,Business,201
43,S BROAD ST,BREVARD,NC,28712,35.23302357,-82.73454605,Business,202
43,S BROAD ST,BREVARD,NC,28712,35.23300158,-82.73451618,Business,203
43,S BROAD ST,BREVARD,NC,28712,35.23299874,-82.73460821,Apartment,301
43,S BROAD ST,BREVARD,NC,28712,35.23297734,-82.73458395,Apartment,302
43,S BROAD ST,BREVARD,NC,28712,35.23295376,-82.73455588,Apartment,303
43,S BROAD ST,BREVARD,NC,28712,35.2329418,-82.73452275,Apartment,304
43,S BROAD ST,BREVARD,NC,28712,35.23293167,-82.7345046,Apartment,305
201,JORDAN RD,BREVARD,NC,28712,35.22100286,-82.73127567,Apartment,
1271,PINE MOUNTAIN TRL,BREVARD,NC,28712,35.2607142,-82.73021,House,
660,DEERLAKE RD,BREVARD,NC,28712,35.25297808,-82.73119627,House,
224,BURRELL AVE,BREVARD,NC,28712,35.24382202,-82.73247876,House,
230,BURRELL AVE,BREVARD,NC,28712,35.24394598,-82.73237877,House,
245,S RICE ST,BREVARD,NC,28712,35.22976697,-82.73373913,House,
235,S RICE ST,BREVARD,NC,28712,35.2297004,-82.73354525,House,
225,S RICE ST,BREVARD,NC,28712,35.2296557,-82.73338495,House,
710,DEERLAKE RD,BREVARD,NC,28712,35.25240173,-82.73200369,House,
35,S BROAD ST,BREVARD,NC,28712,35.23316531,-82.73433184,Business,
27,BURNING BUSH LN,BREVARD,NC,28712,35.21536267,-82.72907282,House,
100,BURNING BUSH LN,BREVARD,NC,28712,35.21513605,-82.73101501,House,
181,BURNING BUSH LN,BREVARD,NC,28712,35.2146839,-82.73043007,House,
124,GOOD EITHER WAY,BREVARD,NC,28712,35.26974649,-82.72919028,House,
226,GOOD EITHER WAY,BREVARD,NC,28712,35.2712802,-82.72960981,House,
112,E JORDAN ST,BREVARD,NC,28712,35.23150997,-82.73201378,Other,
102,E FRENCH BROAD ST,BREVARD,NC,28712,35.23559264,-82.73060351,House,
812,SUGAR LOAF RD,BREVARD,NC,28712,35.21170258,-82.72879606,House,
390,RAILROAD AVE,BREVARD,NC,28712,35.24065044,-82.73389497,Other,
196,BURRELL AVE,BREVARD,NC,28712,35.24351913,-82.73271097,House,
186,BURRELL AVE,BREVARD,NC,28712,35.24340407,-82.73277645,House,
115,E MORGAN ST,BREVARD,NC,28712,35.23162378,-82.73307415,House,
73,OVERLOOK DR,BREVARD,NC,28712,35.2204462,-82.73205705,House,
19,GARDENIA LN,BREVARD,NC,28712,35.22889934,-82.73312178,House,
25,GARDENIA LN,BREVARD,NC,28712,35.22901795,-82.73312198,House,
31,GARDENIA LN,BREVARD,NC,28712,35.22913872,-82.73311714,House,
518,FISHER RD,BREVARD,NC,28712,35.24471597,-82.73156724,House,
106,E MORGAN ST,BREVARD,NC,28712,35.23123495,-82.73376647,Other,
102,COLLEGE STATION DR,BREVARD,NC,28712,35.23962827,-82.73137353,Business,
123,E MAIN ST,BREVARD,NC,28712,35.23316841,-82.73216689,Business,
144,MOUNTAIN GLEN DR,BREVARD,NC,28712,35.22016192,-82.73070571,Apartment,
130,MOUNTAIN GLEN DR,BREVARD,NC,28712,35.22038664,-82.73053917,Apartment,
114,MOUNTAIN GLEN DR,BREVARD,NC,28712,35.2203626,-82.7301425,Apartment,
98,MOUNTAIN GLEN DR,BREVARD,NC,28712,35.22074686,-82.73012753,Apartment,
74,MOUNTAIN GLEN DR,BREVARD,NC,28712,35.2209785,-82.72987637,Apartment,
50,MOUNTAIN GLEN DR,BREVARD,NC,28712,35.22115397,-82.72959646,Apartment,
62,E CAMPUS DR,BREVARD,NC,28712,35.2376599,-82.7290956,Business,
63,E CAMPUS DR,BREVARD,NC,28712,35.23793058,-82.72991559,Business,
46,BREVARD COLLEGE DR,BREVARD,NC,28712,35.23669889,-82.73086131,Business,
72,BREVARD COLLEGE DR,BREVARD,NC,28712,35.23621933,-82.73073897,Business,
32,W CAMPUS DR,BREVARD,NC,28712,35.23605205,-82.73024257,Business,
30,W CAMPUS DR,BREVARD,NC,28712,35.23637223,-82.7299605,Business,
1,W CAMPUS DR,BREVARD,NC,28712,35.23678292,-82.72952985,Business,
75,W CAMPUS DR,BREVARD,NC,28712,35.23664982,-82.72896956,Business,
107,W CAMPUS DR,BREVARD,NC,28712,35.23646832,-82.72858597,Business,
688,KINGS CREEK LOOP,BREVARD,NC,28712,35.23961606,-82.72877524,Business,
150,S GASTON ST,BREVARD,NC,28712,35.23137062,-82.73480711,Other,
22,TRUST LN,BREVARD,NC,28712,35.23844218,-82.73243995,Business,
29,W FRENCH BROAD ST,BREVARD,NC,28712,35.23652443,-82.7323287,Business,
515,N BROAD ST,BREVARD,NC,28712,35.24021506,-82.730079,Business,
521,N BROAD ST,BREVARD,NC,28712,35.24037695,-82.73003056,Business,
137,N BROAD ST,BREVARD,NC,28712,35.23551381,-82.73310621,Business,
147,E MAIN ST,BREVARD,NC,28712,35.23283541,-82.73169735,Business,SUITE 301
15,W MAIN ST,BREVARD,NC,28712,35.23375339,-82.73455796,Business,
84,E MAIN ST,BREVARD,NC,28712,35.23296933,-82.73291601,Business,
36,E MAIN ST,BREVARD,NC,28712,35.23331109,-82.73369792,Business,
44,E MAIN ST,BREVARD,NC,28712,35.23326409,-82.73357359,Business,
4,W MAIN ST,BREVARD,NC,28712,35.23395178,-82.7343993,Business,
100,E MAIN ST,BREVARD,NC,28712,35.23282534,-82.73259349,Business,
26,S BROAD ST,BREVARD,NC,28712,35.23346288,-82.73464916,Business,
43,S BROAD ST,BREVARD,NC,28712,35.23307155,-82.73456837,Business,
127,N BROAD ST,BREVARD,NC,28712,35.23572975,-82.73345432,Business,
259,N BROAD ST,BREVARD,NC,28712,35.23696183,-82.73227879,Business,
32,N PEACE DR,BREVARD,NC,28712,35.24273288,-82.73407777,Apartment,
104,PEACE DR,BREVARD,NC,28712,35.24286632,-82.73496799,Apartment,
100,KILPATRICK ST,BREVARD,NC,28712,35.24364136,-82.73340273,House,
76,PEACE DR,BREVARD,NC,28712,35.24232648,-82.73484311,Apartment,
749,N COUNTRY CLUB RD,BREVARD,NC,28712,35.21573096,-82.73295619,Other,
534,FISHER RD,BREVARD,NC,28712,35.24428287,-82.73180941,House,
23,ELLIOTT RD,BREVARD,NC,28712,35.24439797,-82.73248327,House,
205,N JOHNSON ST,BREVARD,NC,28712,35.23538633,-82.73044096,House,
215,N JOHNSON ST,BREVARD,NC,28712,35.23545606,-82.73038568,House,
219,N JOHNSON ST,BREVARD,NC,28712,35.23552769,-82.73033834,House,
526,FISHER RD,BREVARD,NC,28712,35.24442291,-82.73180393,House,
181,JORDAN RD,BREVARD,NC,28712,35.22117661,-82.73129647,Apartment,
524,FISHER RD,BREVARD,NC,28712,35.2445135,-82.73174756,House,
520,FISHER RD,BREVARD,NC,28712,35.24457289,-82.73167929,House,
233,GROVE ST,BREVARD,NC,28712,35.2272065,-82.73218648,House,
444,FISHER RD,BREVARD,NC,28712,35.24542292,-82.7312772,House,
196,TURNPIKE RD,BREVARD,NC,28712,35.224643,-82.734162,Apartment,APT A
109,HAWKS CRST,BREVARD,NC,28712,35.260505,-82.732407,House,
43,S BROAD ST,BREVARD,NC,28712,35.232982,-82.73432,Business,STE 002
43,S BROAD ST,BREVARD,NC,28712,35.233048,-82.734442,Business,STE 001
61,E JORDAN ST,BREVARD,NC,28712,35.232221,-82.732587,House,
57,E JORDAN ST,BREVARD,NC,28712,35.232253,-82.732638,House,
53,E JORDAN ST,BREVARD,NC,28712,35.232282,-82.732694,House,
49,E JORDAN ST,BREVARD,NC,28712,35.232314,-82.73279,House,
45,E JORDAN ST,BREVARD,NC,28712,35.23234,-82.732841,House,
41,E JORDAN ST,BREVARD,NC,28712,35.23237,-82.732902,House,
37,E JORDAN ST,BREVARD,NC,28712,35.232399,-82.732952,House,
33,E JORDAN ST,BREVARD,NC,28712,35.232419,-82.733006,House,
29,E JORDAN ST,BREVARD,NC,28712,35.232441,-82.733078,House,
515,FISHER RD,BREVARD,NC,28712,35.244354,-82.731301,House,
533,FISHER RD,BREVARD,NC,28712,35.244167,-82.731375,House,
551,FISHER RD,BREVARD,NC,28712,35.243981,-82.731485,House,
96,PROBART ST,BREVARD,NC,28712,35.23553,-82.734964,Apartment,UNIT B
141,WHITMIRE ST,BREVARD,NC,28712,35.238626,-82.734575,House,
1188,PINE MOUNTAIN TRL,BREVARD,NC,28712,35.260702,-82.731664,House,
52,W MAIN ST,BREVARD,NC,28712,35.234233,-82.734983,Business,
63,FOUR SEASONS PLZ,BREVARD,NC,28712,35.240419,-82.731022,Business,
21,N PEACE DR,BREVARD,NC,28712,35.242482,-82.734542,Apartment,
92,PEACE DR,BREVARD,NC,28712,35.242677,-82.7348,Apartment,
1225,PINE MOUNTAIN TRL,BREVARD,NC,28712,35.260942,-82.730635,House,
23,S BROAD ST,BREVARD,NC,28712,35.233364,-82.734287,Business,102
23,S BROAD ST,BREVARD,NC,28712,35.23336,-82.73431,Business,103
23,S BROAD ST,BREVARD,NC,28712,35.233356,-82.734294,Business,104
23,S BROAD ST,BREVARD,NC,28712,35.23335,-82.734312,Business,105
23,S BROAD ST,BREVARD,NC,28712,35.233347,-82.734299,Business,106
23,S BROAD ST,BREVARD,NC,28712,35.233359,-82.734254,Business,202
23,S BROAD ST,BREVARD,NC,28712,35.23334,-82.734267,Business,203
23,S BROAD ST,BREVARD,NC,28712,35.233352,-82.734242,Business,204
23,S BROAD ST,BREVARD,NC,28712,35.233343,-82.734248,Business,205
23,S BROAD ST,BREVARD,NC,28712,35.233334,-82.734254,Business,206
23,S BROAD ST,BREVARD,NC,28712,35.233346,-82.734215,Business,302
23,S BROAD ST,BREVARD,NC,28712,35.233325,-82.734229,Business,303
23,S BROAD ST,BREVARD,NC,28712,35.233339,-82.734197,Business,304
23,S BROAD ST,BREVARD,NC,28712,35.233328,-82.734205,Business,305
23,S BROAD ST,BREVARD,NC,28712,35.233318,-82.734208,Business,306
147,E MAIN ST,BREVARD,NC,28712,35.232767,-82.731732,Business,SUITE 302
141,MOUNTAIN GLEN DR,BREVARD,NC,28712,35.219912,-82.730208,Business,
105,BACK COUNTRY RD,BREVARD,NC,28712,35.269576,-82.731747,House,
107,BACK COUNTRY RD,BREVARD,NC,28712,35.269765,-82.731872,House,
147,E MAIN ST,BREVARD,NC,28712,35.232877,-82.731641,Business,SUITE 100
217,S GASTON ST,BREVARD,NC,28712,35.230453,-82.734419,Other,
366,E MAIN ST,BREVARD,NC,28712,35.228836,-82.730045,Other,
147,E MAIN ST,BREVARD,NC,28712,35.232888,-82.731659,Other,SUITE 103
271,E MAIN ST,BREVARD,NC,28712,35.232137,-82.729661,House,
22,TRUST LN,BREVARD,NC,28712,35.238483,-82.732692,Business,SUITE 5
22,TRUST LN,BREVARD,NC,28712,35.238461,-82.732622,Business,SUITE 4
284,GALLIMORE RD,BREVARD,NC,28712,35.223604,-82.728633,House,
296,GALLIMORE RD,BREVARD,NC,28712,35.223465,-82.728808,House,
306,GALLIMORE RD,BREVARD,NC,28712,35.223365,-82.728903,House,
314,GALLIMORE RD,BREVARD,NC,28712,35.223247,-82.728961,House,
594,MAPLE ST,BREVARD,NC,28712,35.221874,-82.733193,House,
10,W MAIN ST,BREVARD,NC,28712,35.233865,-82.734386,Other,
9,W MAIN ST,BREVARD,NC,28712,35.233721,-82.734467,Other,
