Number,Street,City,State,PostalCode,Latitude,Longitude,Type,ApartmentNumber
121,QUAIL RIDGE DR,PISGAH FOREST,NC,28768,35.23794198,-82.64277368,House,
147,QUAIL RIDGE DR,PISGAH FOREST,NC,28768,35.23780198,-82.64233535,House,
150,QUAIL RIDGE DR,PISGAH FOREST,NC,28768,35.23722244,-82.64202748,House,
725,HART RD,PISGAH FOREST,NC,28768,35.24355175,-82.64160657,House,
31,EAST AERIE RD,PISGAH FOREST,NC,28768,35.24209496,-82.64348109,House,
15,MERRILL LN,PISGAH FOREST,NC,28768,35.24040985,-82.64304588,House,
11,OUTDOOR PATH,PISGAH FOREST,NC,28768,35.27340694,-82.6529958,House,
56,OUTDOOR PATH,PISGAH FOREST,NC,28768,35.27323133,-82.65376431,House,
58,OUTDOOR PATH,PISGAH FOREST,NC,28768,35.2731789,-82.65379911,House,
1025,HART RD,PISGAH FOREST,NC,28768,35.23851131,-82.64243169,House,
3637,HENDERSONVILLE HWY,PISGAH FOREST,NC,28768,35.27387285,-82.64059183,House,
518,BLYTHE RD,PISGAH FOREST,NC,28768,35.28299516,-82.65011781,House,
54,CASCADE TRL,PISGAH FOREST,NC,28768,35.21967839,-82.64232432,House,
862,HART RD,PISGAH FOREST,NC,28768,35.24166683,-82.64382249,House,
195,BENT RIVER FARM RD,PISGAH FOREST,NC,28768,35.25602514,-82.65071806,Other,
254,SIDEWAYS SERPENT LN,PISGAH FOREST,NC,28768,35.22689694,-82.64715864,House,
181,SIDEWAYS SERPENT LN,PISGAH FOREST,NC,28768,35.22625013,-82.64768115,House,
115,PERIWINKLE PL,PISGAH FOREST,NC,28768,35.22091001,-82.65153848,House,
121,HIDDEN GAP LN,PISGAH FOREST,NC,28768,35.283627,-82.6502045,House,
133,HIDDEN GAP LN,PISGAH FOREST,NC,28768,35.28412269,-82.65200114,House,
38,MERRILL LN,PISGAH FOREST,NC,28768,35.2397953,-82.64302484,House,
4838,OLD HENDERSONVILLE HWY,PISGAH FOREST,NC,28768,35.27023803,-82.65636599,House,
4499,OLD HENDERSONVILLE HWY,PISGAH FOREST,NC,28768,35.27135026,-82.65528502,House,
5512,OLD HENDERSONVILLE HWY,PISGAH FOREST,NC,28768,35.2714815,-82.64528314,House,
17,SHARE THE RD,PISGAH FOREST,NC,28768,35.27784823,-82.655487,House,
171,SHARE THE RD,PISGAH FOREST,NC,28768,35.27522904,-82.65559751,House,
19,SHARE THE RD,PISGAH FOREST,NC,28768,35.27712551,-82.65608786,House,
1917,EVERETT RD,PISGAH FOREST,NC,28768,35.25586485,-82.65496147,House,
481,EMERALD HILLS DR,PISGAH FOREST,NC,28768,35.23978721,-82.65421185,House,
257,VALLEY VIEW VISTA DR,PISGAH FOREST,NC,28768,35.24532714,-82.6483376,House,
40,TOMFOOLERY LN,PISGAH FOREST,NC,28768,35.22983868,-82.64792306,House,
132,TOMFOOLERY LN,PISGAH FOREST,NC,28768,35.22956655,-82.64733702,Business,
164,TOMFOOLERY LN,PISGAH FOREST,NC,28768,35.22932405,-82.64755886,Business,
196,TOMFOOLERY LN,PISGAH FOREST,NC,28768,35.22920605,-82.64791019,Business,
220,TOMFOOLERY LN,PISGAH FOREST,NC,28768,35.2288994,-82.64837524,Business,
224,TOMFOOLERY LN,PISGAH FOREST,NC,28768,35.22852741,-82.64858546,Business,
5633,OLD HENDERSONVILLE HWY,PISGAH FOREST,NC,28768,35.27303162,-82.64350438,House,
331,WILLIAMS RD,PISGAH FOREST,NC,28768,35.27293787,-82.65414251,House,
5508,OLD HENDERSONVILLE HWY,PISGAH FOREST,NC,28768,35.2717795,-82.6458763,Other,
63,GETTY UP GO LN,PISGAH FOREST,NC,28768,35.23930093,-82.64221602,House,
20,GETTY UP GO LN,PISGAH FOREST,NC,28768,35.23975084,-82.64212613,House,
105,GETTY UP GO LN,PISGAH FOREST,NC,28768,35.23895168,-82.64217355,House,
1420,HART RD,PISGAH FOREST,NC,28768,35.23503009,-82.64836294,Other,
88,BENT RIVER FARM RD,PISGAH FOREST,NC,28768,35.2558377,-82.64619085,House,
648,BENT RIVER FARM RD,PISGAH FOREST,NC,28768,35.26141343,-82.64843061,House,
211,BENT RIVER FARM RD,PISGAH FOREST,NC,28768,35.25702652,-82.65047187,House,
261,BENT RIVER FARM RD,PISGAH FOREST,NC,28768,35.25712077,-82.64896472,House,
164,SUN MEADOW LN,PISGAH FOREST,NC,28768,35.25759055,-82.64562101,House,
2044,HART RD,PISGAH FOREST,NC,28768,35.22773717,-82.64642571,House,
68,WOODY FARM DR,PISGAH FOREST,NC,28768,35.25590496,-82.64286634,Business,
2451,EVERETT RD,PISGAH FOREST,NC,28768,35.25323552,-82.64585304,House,
41,TOP OAKS LN,PISGAH FOREST,NC,28768,35.2793365,-82.6488812,House,
2352,EVERETT RD,PISGAH FOREST,NC,28768,35.25344736,-82.64866351,House,
1061,PISGAH FOREST DR,PISGAH FOREST,NC,28768,35.22031194,-82.65289093,House,
2622,PISGAH FOREST DR,PISGAH FOREST,NC,28768,35.22023364,-82.65557751,House,
5586,OLD HENDERSONVILLE HWY,PISGAH FOREST,NC,28768,35.27185339,-82.6439542,Business,
132,OXCART LN,PISGAH FOREST,NC,28768,35.2800126,-82.65562893,House,
401,BENT RIVER FARM RD,PISGAH FOREST,NC,28768,35.26133483,-82.65093168,Other,
91,GARDNER LN,PISGAH FOREST,NC,28768,35.27729514,-82.65276225,House,
2060,HART RD,PISGAH FOREST,NC,28768,35.22678916,-82.64603821,House,
159,SUN LODGE RD,PISGAH FOREST,NC,28768,35.24994486,-82.64778776,House,
261,SUN LODGE RD,PISGAH FOREST,NC,28768,35.24925866,-82.64783067,House,
159,SUN LODGE RD,PISGAH FOREST,NC,28768,35.24988642,-82.64785427,House,STE B
159,SUN LODGE RD,PISGAH FOREST,NC,28768,35.24997902,-82.64747436,House,STE C
159,SUN LODGE RD,PISGAH FOREST,NC,28768,35.249933,-82.64753631,House,STE D
725,PISGAH FOREST DR,PISGAH FOREST,NC,28768,35.22165328,-82.65158727,House,
225,GARDNER LN,PISGAH FOREST,NC,28768,35.27762949,-82.65073743,House,
209,BENT RIVER FARM RD,PISGAH FOREST,NC,28768,35.25701752,-82.6500196,House,
86,OXCART LN,PISGAH FOREST,NC,28768,35.28008176,-82.65469793,House,
400,EMERALD HILLS DR,PISGAH FOREST,NC,28768,35.23731522,-82.65202271,House,
545,WILLIAMS RD,PISGAH FOREST,NC,28768,35.27156939,-82.65112582,House,
5319,OLD HENDERSONVILLE HWY,PISGAH FOREST,NC,28768,35.27260665,-82.64867558,Other,
1305,HART RD,PISGAH FOREST,NC,28768,35.234831,-82.644647,House,
1307,HART RD,PISGAH FOREST,NC,28768,35.234575,-82.644057,House,
101,CYPRESS DR,PENROSE,NC,28766,35.271511,-82.641781,Business,
59,PERIWINKLE PL,PISGAH FOREST,NC,28768,35.22162,-82.652588,House,
154,CYPRESS DR,PENROSE,NC,28766,35.27146,-82.642561,Other,
162,CYPRESS DR,PENROSE,NC,28766,35.271341,-82.642523,Other,
172,CYPRESS DR,PENROSE,NC,28766,35.271209,-82.642485,Other,
180,CYPRESS DR,PENROSE,NC,28766,35.271091,-82.642449,Other,
188,CYPRESS DR,PENROSE,NC,28766,35.270976,-82.642417,Other,
192,CYPRESS DR,PENROSE,NC,28766,35.270864,-82.642374,Other,
196,CYPRESS DR,PENROSE,NC,28766,35.270815,-82.642223,Other,
165,CYPRESS DR,PENROSE,NC,28766,35.271359,-82.642209,Other,
175,CYPRESS DR,PENROSE,NC,28766,35.271233,-82.642163,Other,
183,CYPRESS DR,PENROSE,NC,28766,35.27112,-82.642132,Other,
191,CYPRESS DR,PENROSE,NC,28766,35.271012,-82.642103,Other,
204,CYPRESS DR,PENROSE,NC,28766,35.270768,-82.642071,Other,
214,CYPRESS DR,PENROSE,NC,28766,35.270707,-82.641923,Other,
220,CYPRESS DR,PENROSE,NC,28766,35.27071,-82.641765,Other,
228,CYPRESS DR,PENROSE,NC,28766,35.270747,-82.641611,Other,
253,CYPRESS DR,PENROSE,NC,28766,35.271001,-82.641544,Other,
261,CYPRESS DR,PENROSE,NC,28766,35.271104,-82.641581,Other,
267,CYPRESS DR,PENROSE,NC,28766,35.271199,-82.641598,Other,
275,CYPRESS DR,PENROSE,NC,28766,35.271299,-82.641632,Other,
281,CYPRESS DR,PENROSE,NC,28766,35.271394,-82.641661,Other,
6,HUX LN,PENROSE,NC,28766,35.270962,-82.641816,Other,
14,HUX LN,PENROSE,NC,28766,35.27108,-82.641846,Other,
20,HUX LN,PENROSE,NC,28766,35.271185,-82.64188,Other,
28,HUX LN,PENROSE,NC,28766,35.271295,-82.641902,Other,
34,HUX LN,PENROSE,NC,28766,35.271399,-82.641925,Other,
119,PATTERSON ESTATE RD,PISGAH FOREST,NC,28768,35.236699,-82.64275,House,
1831,EVERETT RD,PISGAH FOREST,NC,28768,35.256403,-82.656702,House,
888,HART RD,PISGAH FOREST,NC,28768,35.241393,-82.644365,Apartment,
5432,OLD HENDERSONVILLE HWY,PISGAH FOREST,NC,28768,35.270738,-82.647092,Business,
1989,HART RD,PISGAH FOREST,NC,28768,35.228051,-82.645826,Other,
1981,HART RD,PISGAH FOREST,NC,28768,35.229266,-82.645847,House,
29,ZMICH LN,PENROSE,NC,28766,35.271448,-82.640948,Other,
1983,EVERETT RD,PISGAH FOREST,NC,28768,35.256005,-82.654048,Business,
3340,HENDERSONVILLE HWY,PISGAH FOREST,NC,28768,35.272956,-82.647381,Business,
117,HOBBES LN,PENROSE,NC,28766,35.270787,-82.641046,Other,
91,HOBBES LN,PENROSE,NC,28766,35.270902,-82.640608,Other,
99,HOBBES LN,PENROSE,NC,28766,35.27087,-82.640719,Other,
105,HOBBES LN,PENROSE,NC,28766,35.270857,-82.640839,Other,
111,HOBBES LN,PENROSE,NC,28766,35.270831,-82.640943,Other,
61,HOBBES LN,PENROSE,NC,28766,35.271038,-82.640081,Other,
85,HOBBES LN,PENROSE,NC,28766,35.270951,-82.640494,Other,
79,HOBBES LN,PENROSE,NC,28766,35.270965,-82.640402,Other,
73,HOBBES LN,PENROSE,NC,28766,35.270987,-82.640298,Other,
67,HOBBES LN,PENROSE,NC,28766,35.271021,-82.640199,Other,
18,ZMICH LN,PENROSE,NC,28766,35.271791,-82.640696,Other,
30,ZMICH LN,PENROSE,NC,28766,35.271745,-82.640895,Other,
36,ZMICH LN,PENROSE,NC,28766,35.271686,-82.641192,Other,
40,ZMICH LN,PENROSE,NC,28766,35.271509,-82.64119,Other,
48,ZMICH LN,PENROSE,NC,28766,35.271412,-82.641177,Other,
54,ZMICH LN,PENROSE,NC,28766,35.271312,-82.641161,Other,
60,ZMICH LN,PENROSE,NC,28766,35.271212,-82.641148,Other,
66,ZMICH LN,PENROSE,NC,28766,35.271115,-82.641129,Other,
72,ZMICH LN,PENROSE,NC,28766,35.271031,-82.641125,Other,
1084,HART RD,PISGAH FOREST,NC,28768,35.238199,-82.645415,House,
5170,OLD HENDERSONVILLE HWY,PISGAH FOREST,NC,28768,35.26986,-82.649686,Business,
819,PISGAH FOREST DR,PISGAH FOREST,NC,28768,35.221946,-82.652486,House,
250,CRAB CREEK RD,PENROSE,NC,28766,35.26958,-82.642337,Business,
1086,HART RD,PISGAH FOREST,NC,28768,35.237907,-82.645166,Other,
68,BLYTHE RD,PISGAH FOREST,NC,28768,35.277088,-82.653165,Other,
128,KENFOLK RD,PISGAH FOREST,NC,28768,35.256008,-82.650741,House,
65,KENFOLK RD,PISGAH FOREST,NC,28768,35.255723,-82.649778,House,
95,KENFOLK RD,PISGAH FOREST,NC,28768,35.256087,-82.650145,Other,
311,HEATH RD,PENROSE,NC,28766,35.26137,-82.64164,Other,
180,FOREST PARK RD,PISGAH FOREST,NC,28768,35.220966,-82.649901,House,
2285,HART RD,PISGAH FOREST,NC,28768,35.225977,-82.643014,Other,
277,BENT RIVER FARM RD,PISGAH FOREST,NC,28768,35.257595,-82.649725,House,
