Number,Street,City,State,PostalCode,Latitude,Longitude,Type,ApartmentNumber
14,RED FOX DR,PISGAH FOREST,NC,28768,35.25762835,-82.66430213,House, 
35,RED FOX DR,PISGAH FOREST,NC,28768,35.25734228,-82.66359887,House, 
63,RED FOX DR,PISGAH FOREST,NC,28768,35.25688479,-82.66331895,House, 
104,RED FOX DR,PISGAH FOREST,NC,28768,35.25620698,-82.66372597,House, 
114,RED FOX DR,PISGAH FOREST,NC,28768,35.25626346,-82.66347006,House, 
124,RED FOX DR,PISGAH FOREST,NC,28768,35.25596934,-82.66355223,House, 
131,RED FOX DR,PISGAH FOREST,NC,28768,35.25596738,-82.66332856,House, 
135,RED FOX DR,PISGAH FOREST,NC,28768,35.25590047,-82.66330527,House, 
139,RED FOX DR,PISGAH FOREST,NC,28768,35.25576705,-82.66326703,House, 
175,RED FOX DR,PISGAH FOREST,NC,28768,35.25536495,-82.66348771,House, 
229,RED FOX DR,PISGAH FOREST,NC,28768,35.25462622,-82.66353809,House, 
249,RED FOX DR,PISGAH FOREST,NC,28768,35.25434483,-82.6636056,House, 
306,RED FOX DR,PISGAH FOREST,NC,28768,35.25374289,-82.66423341,House, 
360,RED FOX DR,PISGAH FOREST,NC,28768,35.25304337,-82.66414316,House, 
376,RED FOX DR,PISGAH FOREST,NC,28768,35.2528512,-82.66424212,House, 
427,RED FOX DR,PISGAH FOREST,NC,28768,35.2522827,-82.66376897,House, 
457,RED FOX DR,PISGAH FOREST,NC,28768,35.25194457,-82.66338667,House, 
531,RESERVE RD,PISGAH FOREST,NC,28768,35.24818713,-82.6711189,House, 
1621,RESERVE RD,PISGAH FOREST,NC,28768,35.24479239,-82.65825286,House, 
1964,RESERVE RD,PISGAH FOREST,NC,28768,35.24418854,-82.66560666,House, 
2069,RESERVE RD,PISGAH FOREST,NC,28768,35.24273688,-82.66662113,House, 
11,SENTELLE LN,PISGAH FOREST,NC,28768,35.25984631,-82.67906759,House, 
126,SEVEN SPRINGS RD,PISGAH FOREST,NC,28768,35.24892162,-82.67798404,House, 
300,SEVEN SPRINGS RD,PISGAH FOREST,NC,28768,35.24785321,-82.67913584,House, 
451,SEVEN SPRINGS RD,PISGAH FOREST,NC,28768,35.24734402,-82.67710327,House, 
487,SEVEN SPRINGS RD,PISGAH FOREST,NC,28768,35.24773558,-82.676305,House, 
489,SEVEN SPRINGS RD,PISGAH FOREST,NC,28768,35.24666577,-82.67578454,House, 
597,SEVEN SPRINGS RD,PISGAH FOREST,NC,28768,35.24570734,-82.67509301,House, 
711,SEVEN SPRINGS RD,PISGAH FOREST,NC,28768,35.24438471,-82.6762164,House, 
927,SEVEN SPRINGS RD,PISGAH FOREST,NC,28768,35.24470134,-82.67746283,House, 
937,SEVEN SPRINGS RD,PISGAH FOREST,NC,28768,35.24366624,-82.6759347,House, 
1010,SEVEN SPRINGS RD,PISGAH FOREST,NC,28768,35.24319926,-82.67748645,House, 
1012,SEVEN SPRINGS RD,PISGAH FOREST,NC,28768,35.24322311,-82.67970435,House, 
1115,SEVEN SPRINGS RD,PISGAH FOREST,NC,28768,35.24295552,-82.67564851,House, 
1150,SEVEN SPRINGS RD,PISGAH FOREST,NC,28768,35.2423204,-82.67441481,House, 
16,SILVER FOX LN,PISGAH FOREST,NC,28768,35.2567668,-82.66420672,House, 
34,SILVER FOX LN,PISGAH FOREST,NC,28768,35.2566667,-82.66445429,House, 
54,SILVER FOX LN,PISGAH FOREST,NC,28768,35.25653632,-82.66477196,House, 
72,SILVER FOX LN,PISGAH FOREST,NC,28768,35.25634297,-82.66501722,House, 
117,SILVER FOX LN,PISGAH FOREST,NC,28768,35.25569787,-82.66504906,House, 
126,SILVER FOX LN,PISGAH FOREST,NC,28768,35.25559605,-82.66526196,House, 
145,SILVER FOX LN,PISGAH FOREST,NC,28768,35.25516229,-82.66506313,House, 
146,SILVER FOX LN,PISGAH FOREST,NC,28768,35.25505889,-82.66549554,House, 
165,SILVER FOX LN,PISGAH FOREST,NC,28768,35.25479952,-82.66511828,House, 
220,SILVER FOX LN,PISGAH FOREST,NC,28768,35.25401881,-82.66551866,House, 
267,SILVER FOX LN,PISGAH FOREST,NC,28768,35.25365644,-82.66531398,House, 
290,SILVER FOX LN,PISGAH FOREST,NC,28768,35.25335772,-82.66555568,House, 
310,SILVER FOX LN,PISGAH FOREST,NC,28768,35.25306226,-82.66556201,House, 
346,SILVER FOX LN,PISGAH FOREST,NC,28768,35.25258196,-82.66534016,House, 
401,SILVER FOX LN,PISGAH FOREST,NC,28768,35.25193478,-82.66481768,House, 
422,SILVER FOX LN,PISGAH FOREST,NC,28768,35.25162197,-82.66501842,House, 
431,SILVER FOX LN,PISGAH FOREST,NC,28768,35.25152819,-82.66481126,House, 
446,SILVER FOX LN,PISGAH FOREST,NC,28768,35.25127948,-82.66495346,House, 
24,SKYE DR,PISGAH FOREST,NC,28768,35.23614874,-82.67381671,House, 
39,SKYE DR,PISGAH FOREST,NC,28768,35.23675443,-82.67314592,House, 
163,SKYE DR,PISGAH FOREST,NC,28768,35.23448475,-82.67385293,House, 
16,VALERIA LN,PISGAH FOREST,NC,28768,35.25252213,-82.66763077,House, 
111,VALERIA LN,PISGAH FOREST,NC,28768,35.25211304,-82.66617515,House, 
148,VALERIA LN,PISGAH FOREST,NC,28768,35.25086749,-82.66758759,House, 
201,VALERIA LN,PISGAH FOREST,NC,28768,35.25112938,-82.66613253,House, 
241,VALERIA LN,PISGAH FOREST,NC,28768,35.25056172,-82.66567883,House, 
263,VALERIA LN,PISGAH FOREST,NC,28768,35.24926449,-82.66498545,House, 
350,VALERIA LN,PISGAH FOREST,NC,28768,35.25020733,-82.66719073,House, 
355,VALERIA LN,PISGAH FOREST,NC,28768,35.24856791,-82.66715342,House, 
360,VALERIA LN,PISGAH FOREST,NC,28768,35.25076248,-82.66810989,House, 
510,VALERIA LN,PISGAH FOREST,NC,28768,35.25052803,-82.66915618,House, 
547,VALERIA LN,PISGAH FOREST,NC,28768,35.24883204,-82.66898558,House, 
573,VALERIA LN,PISGAH FOREST,NC,28768,35.24930808,-82.6701212,House, 
1954,WILSON RD,PISGAH FOREST,NC,28768,35.23386039,-82.70550927,House, 
1964,WILSON RD,PISGAH FOREST,NC,28768,35.23405818,-82.70510222,House, 
2078,WILSON RD,PISGAH FOREST,NC,28768,35.23470306,-82.70356191,House, 
2104,WILSON RD,PISGAH FOREST,NC,28768,35.23480088,-82.70281013,House, 
2157,WILSON RD,PISGAH FOREST,NC,28768,35.23547541,-82.70238106,House, 
2182,WILSON RD,PISGAH FOREST,NC,28768,35.23490936,-82.70179031,House, 
2422,WILSON RD,PISGAH FOREST,NC,28768,35.23803132,-82.69433115,House, 
2620,WILSON RD,PISGAH FOREST,NC,28768,35.24085681,-82.69762636,House, 
2710,WILSON RD,PISGAH FOREST,NC,28768,35.24274426,-82.6977265,House, 
2748,WILSON RD,PISGAH FOREST,NC,28768,35.24358003,-82.69860211,House, 
3140,WILSON RD,PISGAH FOREST,NC,28768,35.24635896,-82.69747601,House, 
3226,WILSON RD,PISGAH FOREST,NC,28768,35.24771701,-82.69719298,House, 
3520,WILSON RD,PISGAH FOREST,NC,28768,35.25144971,-82.69962538,House, 
3552,WILSON RD,PISGAH FOREST,NC,28768,35.25219795,-82.69971272,House, 
3564,WILSON RD,PISGAH FOREST,NC,28768,35.25240273,-82.6993081,House, 
3596,WILSON RD,PISGAH FOREST,NC,28768,35.25264246,-82.70033558,House, 
3616,WILSON RD,PISGAH FOREST,NC,28768,35.25288241,-82.70043118,House, 
3638,WILSON RD,PISGAH FOREST,NC,28768,35.25321704,-82.70054481,House, 
