Number,Street,City,State,PostalCode,Latitude,Longitude,Type,ApartmentNumber
260,LAUREL RIDGE RD,PISGAH FOREST,NC,28768,35.21490389,-82.70069298,House, 
340,LAUREL RIDGE RD,PISGAH FOREST,NC,28768,35.21396087,-82.7004919,House, 
61,LAUREL VILLAGE DR,BREVARD,NC,28712,35.22916405,-82.72120175,House, 
71,LAUREL VILLAGE DR,BREVARD,NC,28712,35.22908023,-82.72128292,House, 
77,LAUREL VILLAGE DR,BREVARD,NC,28712,35.22897005,-82.72141066,House, 
87,LAUREL VILLAGE DR,BREVARD,NC,28712,35.22890078,-82.72149727,House, 
93,LAUREL VILLAGE DR,BREVARD,NC,28712,35.22883443,-82.72167036,House, 
105,LAUREL VILLAGE DR,BREVARD,NC,28712,35.2287658,-82.72177977,House, 
109,LAUREL VILLAGE DR,BREVARD,NC,28712,35.22868175,-82.7219311,House, 
112,LAUREL VILLAGE DR,BREVARD,NC,28712,35.22904231,-82.72232362,House, 
113,LAUREL VILLAGE DR,BREVARD,NC,28712,35.22864012,-82.72204574,House, 
114,LAUREL VILLAGE DR,BREVARD,NC,28712,35.22895647,-82.72231917,House, 
115,LAUREL VILLAGE DR,BREVARD,NC,28712,35.22870863,-82.72228046,House, 
116,LAUREL VILLAGE DR,BREVARD,NC,28712,35.22879356,-82.72227963,House, 
43,LITTLE CRANE DR,PISGAH FOREST,NC,28768,35.22015856,-82.68594836,House, 
53,LITTLE CRANE DR,PISGAH FOREST,NC,28768,35.22007534,-82.68572425,House, 
63,LITTLE CRANE DR,PISGAH FOREST,NC,28768,35.21969773,-82.68583083,House, 
70,LITTLE CRANE DR,PISGAH FOREST,NC,28768,35.21941084,-82.68627802,House, 
36,LONG BRANCH RD,PISGAH FOREST,NC,28768,35.21267488,-82.70790252,House, 
120,LONG BRANCH RD,PISGAH FOREST,NC,28768,35.21140435,-82.70691555,House, 
131,LONG BRANCH RD,PISGAH FOREST,NC,28768,35.21181937,-82.70628007,House, 
200,LONG BRANCH RD,PISGAH FOREST,NC,28768,35.21079127,-82.70612531,House, 
201,LONG BRANCH RD,PISGAH FOREST,NC,28768,35.21082811,-82.70557945,House, 
21,MAC MORGAN LOOP,PISGAH FOREST,NC,28768,35.21310929,-82.69213812,House, 
108,MAC MORGAN LOOP,PISGAH FOREST,NC,28768,35.21363377,-82.69175751,House, 
110,MAC MORGAN LOOP,PISGAH FOREST,NC,28768,35.21326093,-82.69171222,House, 
150,MAC MORGAN LOOP,PISGAH FOREST,NC,28768,35.21358394,-82.6913947,House, 
56,MAGNOLIA ST,BREVARD,NC,28712,35.22797019,-82.72284654,House, 
64,MAGNOLIA ST,BREVARD,NC,28712,35.22808449,-82.72279833,House, 
65,MAGNOLIA ST,BREVARD,NC,28712,35.22835136,-82.72333304,House, 
76,MAGNOLIA ST,BREVARD,NC,28712,35.22824861,-82.7227737,House, 
82,MAGNOLIA ST,BREVARD,NC,28712,35.2283494,-82.72271583,House, 
83,MAGNOLIA ST,BREVARD,NC,28712,35.22848516,-82.72324875,House, 
95,MAGNOLIA ST,BREVARD,NC,28712,35.22877212,-82.72321399,House, 
96,MAGNOLIA ST,BREVARD,NC,28712,35.22863665,-82.72251773,House, 
103,MAGNOLIA ST,BREVARD,NC,28712,35.22885438,-82.72306858,House, 
104,MAGNOLIA ST,BREVARD,NC,28712,35.22878368,-82.72254621,House, 
105,MAGNOLIA ST,BREVARD,NC,28712,35.22891785,-82.72286174,House, 
108,MAGNOLIA ST,BREVARD,NC,28712,35.22891279,-82.72269494,House, 
150,MAPLEWOOD DR,PISGAH FOREST,NC,28768,35.21116199,-82.67015639,House, 
175,McDONALD CT,PISGAH FOREST,NC,28768,35.21557168,-82.66061058,House, 
208,McDONALD CT,PISGAH FOREST,NC,28768,35.21531248,-82.66200388,House, 
225,McDONALD CT,PISGAH FOREST,NC,28768,35.21470247,-82.66114113,House, 
288,McDONALD CT,PISGAH FOREST,NC,28768,35.21411177,-82.66259902,House, 
252,MIDDLEMOUNT RD,PISGAH FOREST,NC,28768,35.2331828,-82.70349767,House, 
356,MIDDLEMOUNT RD,PISGAH FOREST,NC,28768,35.23269323,-82.70372962,House, 
542,MIDDLEMOUNT RD,PISGAH FOREST,NC,28768,35.23195619,-82.70507143,House, 
547,MIDDLEMOUNT RD,PISGAH FOREST,NC,28768,35.23242252,-82.70509795,House, 
550,MIDDLEMOUNT RD,PISGAH FOREST,NC,28768,35.23216929,-82.70421696,House, 
235,MORNINGSIDE DR,BREVARD,NC,28712,35.23210587,-82.7179516,House, 
246,MORNINGSIDE DR,BREVARD,NC,28712,35.22998155,-82.716948,House, 
5,MOUNTAIN LAUREL LN,PISGAH FOREST,NC,28768,35.22860074,-82.68056182,House, 
53,MOUNTAIN LAUREL LN,PISGAH FOREST,NC,28768,35.22794209,-82.68087674,House, 
113,MOUNTAIN LAUREL LN,PISGAH FOREST,NC,28768,35.22754846,-82.68130203,House, 
119,MOUNTAIN LAUREL LN,PISGAH FOREST,NC,28768,35.22721475,-82.68162087,House, 
20,MOUNTAIN VIEW DR,PISGAH FOREST,NC,28768,35.21875888,-82.68964371,House, 
33,MOUNTAIN VIEW DR,PISGAH FOREST,NC,28768,35.21857405,-82.68888244,House, 
50,MOUNTAIN VIEW DR,PISGAH FOREST,NC,28768,35.21766332,-82.68969436,House, 
165,MOUNTAIN VIEW DR,PISGAH FOREST,NC,28768,35.21798067,-82.687872,House, 
225,MOUNTAIN VIEW DR,PISGAH FOREST,NC,28768,35.2169036,-82.68740996,House, 
227,MOUNTAIN VIEW DR,PISGAH FOREST,NC,28768,35.21699632,-82.68638709,House, 
229,MOUNTAIN VIEW DR,PISGAH FOREST,NC,28768,35.21653401,-82.68655887,House, 
231,MOUNTAIN VIEW DR,PISGAH FOREST,NC,28768,35.21643403,-82.6869773,House, 
277,MOUNTAIN VIEW DR,PISGAH FOREST,NC,28768,35.2157047,-82.68676267,House, 
409,MOUNTAIN VIEW DR,PISGAH FOREST,NC,28768,35.21482693,-82.68707883,House, 
477,MOUNTAIN VIEW DR,PISGAH FOREST,NC,28768,35.2140136,-82.68671489,House, 
14,OAK RIDGE RD,PISGAH FOREST,NC,28768,35.21625522,-82.70308596,House, 
33,OAK RIDGE RD,PISGAH FOREST,NC,28768,35.21657647,-82.70364793,House, 
48,OAK RIDGE RD,PISGAH FOREST,NC,28768,35.21660053,-82.70311108,House, 
56,OAK RIDGE RD,PISGAH FOREST,NC,28768,35.216813,-82.70287521,House, 
57,OAK RIDGE RD,PISGAH FOREST,NC,28768,35.21683889,-82.70351519,House, 
67,OAK RIDGE RD,PISGAH FOREST,NC,28768,35.21716823,-82.70344951,House, 
99,OAK RIDGE RD,PISGAH FOREST,NC,28768,35.21773997,-82.70368223,House, 
100,OAK RIDGE RD,PISGAH FOREST,NC,28768,35.21731069,-82.70273408,House, 
116,OAK RIDGE RD,PISGAH FOREST,NC,28768,35.21783971,-82.70279414,House, 
64,OUTLAND AVE,BREVARD,NC,28712,35.23015299,-82.72370667,House, 
90,OUTLAND AVE,BREVARD,NC,28712,35.22982409,-82.72321668,House, 
55,OVERLOOK PL,PISGAH FOREST,NC,28768,35.22249826,-82.66119402,House, 
34,PAISLEY CIR,PISGAH FOREST,NC,28768,35.23283406,-82.68010112,House, 
82,PAISLEY CIR,PISGAH FOREST,NC,28768,35.23316108,-82.68044173,House, 
94,PAISLEY CIR,PISGAH FOREST,NC,28768,35.23341234,-82.68086387,House, 
151,PAISLEY CIR,PISGAH FOREST,NC,28768,35.23260499,-82.68176585,House, 
152,PAISLEY CIR,PISGAH FOREST,NC,28768,35.23342952,-82.68200609,House, 
190,PAISLEY CIR,PISGAH FOREST,NC,28768,35.23295843,-82.68270636,House, 
274,PAISLEY CIR,PISGAH FOREST,NC,28768,35.23216302,-82.68388367,House, 
425,PAISLEY CIR,PISGAH FOREST,NC,28768,35.23115237,-82.68389032,House, 
484,PAISLEY CIR,PISGAH FOREST,NC,28768,35.23121964,-82.68231978,House, 
499,PAISLEY CIR,PISGAH FOREST,NC,28768,35.23153414,-82.6831814,House, 
507,PAISLEY CIR,PISGAH FOREST,NC,28768,35.23176688,-82.68283966,House, 
12,PAISLEY LN,PISGAH FOREST,NC,28768,35.23188875,-82.68467209,House, 
87,PAISLEY LN,PISGAH FOREST,NC,28768,35.22985617,-82.68462149,House, 
142,PAISLEY LN,PISGAH FOREST,NC,28768,35.22906664,-82.68564624,House, 
141,PARK AVE,BREVARD,NC,28712,35.23038605,-82.72620572,House, 
144,PARK AVE,BREVARD,NC,28712,35.2300295,-82.72593017,House, 
166,PARK AVE,BREVARD,NC,28712,35.23008529,-82.72554174,House, 
167,PARK AVE,BREVARD,NC,28712,35.2304733,-82.72594561,House, 
180,PARK AVE,BREVARD,NC,28712,35.23018061,-82.72533034,House, 
183,PARK AVE,BREVARD,NC,28712,35.2306149,-82.72556675,House, 
205,PARK AVE,BREVARD,NC,28712,35.2307116,-82.72521313,House, 
250,PARK AVE,BREVARD,NC,28712,35.23064053,-82.72436389,House, 
251,PARK AVE,BREVARD,NC,28712,35.23094949,-82.72480966,House, 
293,PARK AVE,BREVARD,NC,28712,35.23119799,-82.7246613,House, 
118,PARKVIEW DR,BREVARD,NC,28712,35.22934629,-82.72407073,House, 
134,PARKVIEW DR,BREVARD,NC,28712,35.22925864,-82.72466382,House, 
152,PARKVIEW DR,BREVARD,NC,28712,35.22951975,-82.72461001,House, 
169,PARKVIEW DR,BREVARD,NC,28712,35.22976962,-82.72523348,House, 
174,PARKVIEW DR,BREVARD,NC,28712,35.22984357,-82.72469801,House, 
190,PARKVIEW DR,BREVARD,NC,28712,35.23007747,-82.72463482,House, 
216,PARKVIEW DR,BREVARD,NC,28712,35.23032298,-82.72457923,House, 
30,PASTURE OVERLOOK LN,PISGAH FOREST,NC,28768,35.22735763,-82.70357741,House, 
108,PASTURE OVERLOOK LN,PISGAH FOREST,NC,28768,35.2278757,-82.70278611,House, 
136,PASTURE OVERLOOK LN,PISGAH FOREST,NC,28768,35.22792962,-82.70232517,House, 
27,PENNEY LN,PISGAH FOREST,NC,28768,35.21999392,-82.70353713,House, 
61,PENNEY LN,PISGAH FOREST,NC,28768,35.22008294,-82.70307809,House, 
76,PENNEY LN,PISGAH FOREST,NC,28768,35.21933958,-82.70225644,House, 
23,PINE TREE DR,PISGAH FOREST,NC,28768,35.22530878,-82.70101074,House, 
45,PINE TREE DR,PISGAH FOREST,NC,28768,35.22523088,-82.70142548,House, 
84,PINE TREE DR,PISGAH FOREST,NC,28768,35.22497298,-82.70211798,House, 
102,PINE TREE DR,PISGAH FOREST,NC,28768,35.22465482,-82.70243629,House, 
128,PINE TREE DR,PISGAH FOREST,NC,28768,35.22448437,-82.70270833,House, 
180,PINE TREE DR,PISGAH FOREST,NC,28768,35.22435552,-82.70317005,House, 
37,PINE TREE LN,PISGAH FOREST,NC,28768,35.22165615,-82.69735483,House, 
64,PINE TREE LN,PISGAH FOREST,NC,28768,35.22223933,-82.6974982,House, 
65,PINE TREE LN,PISGAH FOREST,NC,28768,35.22212855,-82.69820875,House, 
66,PINE TREE LN,PISGAH FOREST,NC,28768,35.2223886,-82.69802564,House, 
1420,PISGAH FOREST DR,PISGAH FOREST,NC,28768,35.21923063,-82.65908687,House, 
1450,PISGAH FOREST DR,PISGAH FOREST,NC,28768,35.21892444,-82.65986941,House, 
1475,PISGAH FOREST DR,PISGAH FOREST,NC,28768,35.21832089,-82.65968682,House, 
1525,PISGAH FOREST DR,PISGAH FOREST,NC,28768,35.21802675,-82.66019592,House, 
1529,PISGAH FOREST DR,PISGAH FOREST,NC,28768,35.21774486,-82.66122981,House, 
1679,PISGAH FOREST DR,PISGAH FOREST,NC,28768,35.21702931,-82.66215036,House, 
1742,PISGAH FOREST DR,PISGAH FOREST,NC,28768,35.21753404,-82.66386232,House, 
1775,PISGAH FOREST DR,PISGAH FOREST,NC,28768,35.21710024,-82.66453341,House, 
1842,PISGAH FOREST DR,PISGAH FOREST,NC,28768,35.21812022,-82.66479974,House, 
1951,PISGAH FOREST DR,PISGAH FOREST,NC,28768,35.21888503,-82.66444874,House, 
1979,PISGAH FOREST DR,PISGAH FOREST,NC,28768,35.21945684,-82.66418237,House, 
1994,PISGAH FOREST DR,PISGAH FOREST,NC,28768,35.21936444,-82.66348512,House, 
2015,PISGAH FOREST DR,PISGAH FOREST,NC,28768,35.21991995,-82.66400603,House, 
2156,PISGAH FOREST DR,PISGAH FOREST,NC,28768,35.22065103,-82.66111397,House, 
2289,PISGAH FOREST DR,PISGAH FOREST,NC,28768,35.22083364,-82.65907718,House, 
2292,PISGAH FOREST DR,PISGAH FOREST,NC,28768,35.22000736,-82.65856564,House, 
2347,PISGAH FOREST DR,PISGAH FOREST,NC,28768,35.22090437,-82.6581856,House, 
30,POPLAR GAP RD,BREVARD,NC,28712,35.21855698,-82.71851555,House, 
59,POPLAR GAP RD,BREVARD,NC,28712,35.22108856,-82.71788097,House, 
77,POPLAR GAP RD,BREVARD,NC,28712,35.21977227,-82.71817722,House, 
97,POPLAR GAP RD,BREVARD,NC,28712,35.21982803,-82.71777277,House, 
108,POPLAR GAP RD,BREVARD,NC,28712,35.21909594,-82.71810109,House, 
171,POPLAR GAP RD,BREVARD,NC,28712,35.21925826,-82.71705434,House, 
180,POPLAR GAP RD,BREVARD,NC,28712,35.21908244,-82.71694309,House, 
60,QUAIL RUN,PISGAH FOREST,NC,28768,35.21425125,-82.6832045,House, 
61,QUAIL RUN,PISGAH FOREST,NC,28768,35.21415356,-82.68428865,House, 
123,QUAIL RUN,PISGAH FOREST,NC,28768,35.21509342,-82.6845647,House, 
193,QUAIL RUN,PISGAH FOREST,NC,28768,35.21569537,-82.6849304,House, 
266,QUAIL RUN,PISGAH FOREST,NC,28768,35.21769342,-82.6846634,House, 
54,QUINN DR,BREVARD,NC,28712,35.22607701,-82.71845284,House, 
67,QUINN DR,BREVARD,NC,28712,35.22699459,-82.71787126,House, 
91,QUINN DR,BREVARD,NC,28712,35.22675345,-82.71733442,House, 
130,QUINN DR,BREVARD,NC,28712,35.22559193,-82.71710753,House, 
40,RED FERN DR,PISGAH FOREST,NC,28768,35.22801519,-82.68386954,House, 
96,RED FERN DR,PISGAH FOREST,NC,28768,35.22785876,-82.68442323,House, 
138,RED FERN DR,PISGAH FOREST,NC,28768,35.22738404,-82.68532605,House, 
2925,RESERVE RD,PISGAH FOREST,NC,28768,35.23103669,-82.66722978,House, 
3233,RESERVE RD,PISGAH FOREST,NC,28768,35.22959427,-82.66785412,House, 
3254,RESERVE RD,PISGAH FOREST,NC,28768,35.22880075,-82.67005809,House, 
3313,RESERVE RD,PISGAH FOREST,NC,28768,35.22832753,-82.66811943,House, 
99,RIDGE ROCK RD,PISGAH FOREST,NC,28768,35.21732147,-82.66827365,House, 
32,RIDGE TOP DR,PISGAH FOREST,NC,28768,35.22081823,-82.66277754,House, 
147,RIDGE TOP DR,PISGAH FOREST,NC,28768,35.22220437,-82.66323161,House, 
79,RIDGE VIEW DR,PISGAH FOREST,NC,28768,35.21925123,-82.66650708,House, 
114,RIDGE VIEW DR,PISGAH FOREST,NC,28768,35.21941395,-82.66583357,House, 
170,RIDGE VIEW DR,PISGAH FOREST,NC,28768,35.22043203,-82.66586775,House, 
147,RIVER RDG,BREVARD,NC,28712,35.21912014,-82.71981243,House, 
168,RIVER RDG,BREVARD,NC,28712,35.22064293,-82.71939681,House, 
189,RIVER RDG,BREVARD,NC,28712,35.22114633,-82.71990372,House, 
215,RIVER RDG,BREVARD,NC,28712,35.22154899,-82.72024167,House, 
216,RIVER RDG,BREVARD,NC,28712,35.22117248,-82.71923431,House, 
225,RIVER RDG,BREVARD,NC,28712,35.22194447,-82.7196618,House, 
260,RIVER RDG,BREVARD,NC,28712,35.22173896,-82.71901918,House, 
59,ROBIN HILL DR,PISGAH FOREST,NC,28768,35.21942619,-82.68570139,House, 
104,ROBIN HILL DR,PISGAH FOREST,NC,28768,35.21934751,-82.68465928,House, 
187,ROBIN HILL DR,PISGAH FOREST,NC,28768,35.2205965,-82.68388402,House, 
41,ROCKLEDGE LN,PISGAH FOREST,NC,28768,35.23226377,-82.70246653,House, 
16,ROCKY RIDGE RD,PISGAH FOREST,NC,28768,35.21699896,-82.69604285,House, 
17,ROCKY RIDGE RD,PISGAH FOREST,NC,28768,35.21648678,-82.69635302,House, 
57,ROCKY RIDGE RD,PISGAH FOREST,NC,28768,35.2165396,-82.69690084,House, 
60,ROCKY RIDGE RD,PISGAH FOREST,NC,28768,35.21697728,-82.69675507,House, 
89,ROCKY RIDGE RD,PISGAH FOREST,NC,28768,35.21662605,-82.69743316,House, 
106,ROCKY RIDGE RD,PISGAH FOREST,NC,28768,35.21710413,-82.69770429,House, 
127,ROCKY RIDGE RD,PISGAH FOREST,NC,28768,35.2166617,-82.69798186,House, 
132,ROCKY RIDGE RD,PISGAH FOREST,NC,28768,35.21707796,-82.69820267,House, 
143,ROCKY RIDGE RD,PISGAH FOREST,NC,28768,35.21671048,-82.69842894,House, 
164,ROCKY RIDGE RD,PISGAH FOREST,NC,28768,35.2171053,-82.69857838,House, 
214,ROCKY RIDGE RD,PISGAH FOREST,NC,28768,35.21764927,-82.69923748,House, 
230,ROCKY RIDGE RD,PISGAH FOREST,NC,28768,35.21778518,-82.69968126,House, 
15,ROLLINS PLACE RD,BREVARD,NC,28712,35.21823597,-82.71460815,House, 
92,ROLLINS PLACE RD,BREVARD,NC,28712,35.21877148,-82.71489064,House, 
125,ROLLINS PLACE RD,BREVARD,NC,28712,35.21818608,-82.71533356,House, 
131,ROLLINS PLACE RD,BREVARD,NC,28712,35.21849489,-82.71590827,House, 
54,SCARLETT DR,PISGAH FOREST,NC,28768,35.22615536,-82.6879711,House, 
64,SCARLETT DR,PISGAH FOREST,NC,28768,35.22646781,-82.68830055,House, 
98,SCARLETT DR,PISGAH FOREST,NC,28768,35.22685901,-82.68912617,House, 
121,SCARLETT DR,PISGAH FOREST,NC,28768,35.22581091,-82.6893175,House, 
131,SCARLETT DR,PISGAH FOREST,NC,28768,35.226252,-82.68970873,House, 
144,SCARLETT DR,PISGAH FOREST,NC,28768,35.22685959,-82.68965978,House, 
26,SCENIC SITE DR,PISGAH FOREST,NC,28768,35.21739383,-82.66986208,House, 
21,SCHOOL HOUSE RD,PISGAH FOREST,NC,28768,35.21643124,-82.66351976,House, 
121,SCHOOL HOUSE RD,PISGAH FOREST,NC,28768,35.21590568,-82.66314808,House, 
160,SCHOOL HOUSE RD,PISGAH FOREST,NC,28768,35.21490342,-82.66426957,House, 
188,SCHOOL HOUSE RD,PISGAH FOREST,NC,28768,35.21425189,-82.66432649,House, 
19,SHADOW BROOK LN,PISGAH FOREST,NC,28768,35.21682422,-82.69494207,House, 
50,SHADOW BROOK LN,PISGAH FOREST,NC,28768,35.21729675,-82.69471983,House, 
35,SHADY LN,PISGAH FOREST,NC,28768,35.2201132,-82.67281118,House, 
178,SHADY LN,PISGAH FOREST,NC,28768,35.22080798,-82.67365261,House, 
455,SKYE DR,PISGAH FOREST,NC,28768,35.23269144,-82.67784083,House, 
494,SKYE DR,PISGAH FOREST,NC,28768,35.23354244,-82.6793027,House, 
585,SKYE DR,PISGAH FOREST,NC,28768,35.23269025,-82.679073,House, 
656,SKYE DR,PISGAH FOREST,NC,28768,35.23159055,-82.68087308,House, 
776,SKYE DR,PISGAH FOREST,NC,28768,35.23017496,-82.68271132,House, 
881,SKYE DR,PISGAH FOREST,NC,28768,35.23113032,-82.6799897,House, 
897,SKYE DR,PISGAH FOREST,NC,28768,35.23140466,-82.67950549,House, 
1021,SKYE DR,PISGAH FOREST,NC,28768,35.23106101,-82.67748799,House, 
1084,SKYE DR,PISGAH FOREST,NC,28768,35.23069403,-82.67666248,House, 
1235,SKYE DR,PISGAH FOREST,NC,28768,35.23211968,-82.67443325,House, 
1291,SKYE DR,PISGAH FOREST,NC,28768,35.23163958,-82.6738752,House, 
1298,SKYE DR,PISGAH FOREST,NC,28768,35.23111705,-82.6750423,House, 
1306,SKYE DR,PISGAH FOREST,NC,28768,35.23106486,-82.67427986,House, 
1493,SKYE DR,PISGAH FOREST,NC,28768,35.23216167,-82.67179496,House, 
1,SKYLAND DR,PISGAH FOREST,NC,28768,35.22472185,-82.68671622,House, 
5,SKYLAND DR,PISGAH FOREST,NC,28768,35.22474097,-82.68592863,House, 
42,SKYLAND DR,PISGAH FOREST,NC,28768,35.22435962,-82.68529256,House, 
68,SKYLAND DR,PISGAH FOREST,NC,28768,35.22478696,-82.68484205,House, 
90,SKYLAND DR,PISGAH FOREST,NC,28768,35.22514502,-82.68464582,House, 
144,SKYLAND DR,PISGAH FOREST,NC,28768,35.22592568,-82.68432102,House, 
182,SKYLAND DR,PISGAH FOREST,NC,28768,35.22641068,-82.68400557,House, 
185,SKYLAND DR,PISGAH FOREST,NC,28768,35.22656743,-82.68450093,House, 
212,SKYLAND DR,PISGAH FOREST,NC,28768,35.22666197,-82.68357099,House, 
252,SKYLAND DR,PISGAH FOREST,NC,28768,35.2271094,-82.68318852,House, 
290,SKYLAND DR,PISGAH FOREST,NC,28768,35.22749174,-82.68273859,House, 
313,SKYLAND DR,PISGAH FOREST,NC,28768,35.22798557,-82.68302316,House, 
314,SKYLAND DR,PISGAH FOREST,NC,28768,35.22792126,-82.68250709,House, 
537,SKYLAND DR,PISGAH FOREST,NC,28768,35.22749185,-82.67898457,House, 
561,SKYLAND DR,PISGAH FOREST,NC,28768,35.22788142,-82.67980163,House, 
595,SKYLAND DR,PISGAH FOREST,NC,28768,35.22573285,-82.67992483,House, 
688,SKYLAND DR,PISGAH FOREST,NC,28768,35.22654216,-82.68141551,House, 
708,SKYLAND DR,PISGAH FOREST,NC,28768,35.22626829,-82.68172065,House, 
733,SKYLAND DR,PISGAH FOREST,NC,28768,35.22575329,-82.68118222,House, 
735,SKYLAND DR,PISGAH FOREST,NC,28768,35.22591086,-82.68184448,House, 
766,SKYLAND DR,PISGAH FOREST,NC,28768,35.22534414,-82.68176318,House, 
797,SKYLAND DR,PISGAH FOREST,NC,28768,35.22513848,-82.68089756,House, 
800,SKYLAND DR,PISGAH FOREST,NC,28768,35.22490709,-82.68143806,House, 
812,SKYLAND DR,PISGAH FOREST,NC,28768,35.224667,-82.68121566,House, 
874,SKYLAND DR,PISGAH FOREST,NC,28768,35.22423194,-82.68133412,House, 
920,SKYLAND DR,PISGAH FOREST,NC,28768,35.2235438,-82.68158608,House, 
72,SORREL TREE LN,PISGAH FOREST,NC,28768,35.21102481,-82.67293476,House, 
136,SORREL TREE LN,PISGAH FOREST,NC,28768,35.21198469,-82.67221951,House, 
150,SORREL TREE LN,PISGAH FOREST,NC,28768,35.21235888,-82.67331611,House, 
15,SOURWOOD LN,PISGAH FOREST,NC,28768,35.22259171,-82.68052697,House, 
21,SOURWOOD LN,PISGAH FOREST,NC,28768,35.22179455,-82.68209066,House, 
130,SOURWOOD LN,PISGAH FOREST,NC,28768,35.22143468,-82.68370933,House, 
151,SOURWOOD LN,PISGAH FOREST,NC,28768,35.2209915,-82.6830617,House, 
27,SOUTH RIDGE RD,PISGAH FOREST,NC,28768,35.22596448,-82.70347529,House, 
45,SOUTH RIDGE RD,PISGAH FOREST,NC,28768,35.226215,-82.70338106,House, 
33,SOUTHERLAND RD,PISGAH FOREST,NC,28768,35.22792679,-82.69730653,House, 
88,SOUTHERLAND RD,PISGAH FOREST,NC,28768,35.22889045,-82.69820953,House, 
127,SOUTHERLAND RD,PISGAH FOREST,NC,28768,35.22856888,-82.69960769,House, 
140,SOUTHERLAND RD,PISGAH FOREST,NC,28768,35.22864532,-82.69883674,House, 
162,SOUTHERLAND RD,PISGAH FOREST,NC,28768,35.22930984,-82.6988177,House, 
205,SOUTHERLAND RD,PISGAH FOREST,NC,28768,35.22861675,-82.70033283,House, 
225,SOUTHERLAND RD,PISGAH FOREST,NC,28768,35.22889038,-82.70071408,House, 
244,SOUTHERLAND RD,PISGAH FOREST,NC,28768,35.22972704,-82.70014024,House, 
245,SOUTHERLAND RD,PISGAH FOREST,NC,28768,35.2287069,-82.70145627,House, 
249,SOUTHERLAND RD,PISGAH FOREST,NC,28768,35.22974353,-82.70075239,House, 
27,SPRING VALLEY RD,PISGAH FOREST,NC,28768,35.21477026,-82.70109618,House, 
37,SPRING VALLEY RD,PISGAH FOREST,NC,28768,35.21448832,-82.70092667,House, 
25,SPRUCE PINE LN,PISGAH FOREST,NC,28768,35.22258659,-82.68528089,House, 
44,SPRUCE PINE LN,PISGAH FOREST,NC,28768,35.22300649,-82.68485429,House, 
46,SPRUCE PINE LN,PISGAH FOREST,NC,28768,35.22397337,-82.68496838,House, 
51,SPRUCE PINE LN,PISGAH FOREST,NC,28768,35.22269019,-82.6858762,House, 
65,SPRUCE PINE LN,PISGAH FOREST,NC,28768,35.22308575,-82.68582382,House, 
81,SPRUCE PINE LN,PISGAH FOREST,NC,28768,35.22351468,-82.68605066,House, 
82,SPRUCE PINE LN,PISGAH FOREST,NC,28768,35.22346619,-82.68533512,House, 
441,SUGAR LOAF RD,BREVARD,NC,28712,35.21544114,-82.72742054,House, 
87,SWEETWATER LN,PISGAH FOREST,NC,28768,35.21333531,-82.68249006,House, 
94,SWEETWATER LN,PISGAH FOREST,NC,28768,35.21383567,-82.68249675,House, 
164,SWEETWATER LN,PISGAH FOREST,NC,28768,35.21322364,-82.6845104,House, 
196,SWEETWATER LN,PISGAH FOREST,NC,28768,35.21283648,-82.6853946,House, 
198,SWEETWATER LN,PISGAH FOREST,NC,28768,35.21232855,-82.6861489,House, 
262,SWEETWATER LN,PISGAH FOREST,NC,28768,35.21153736,-82.68488348,House, 
293,SWEETWATER LN,PISGAH FOREST,NC,28768,35.21210695,-82.68216883,House, 
358,SWEETWATER LN,PISGAH FOREST,NC,28768,35.21060648,-82.68345451,House, 
543,SWEETWATER LN,PISGAH FOREST,NC,28768,35.21149507,-82.68085627,House, 
42,TARAH LN,PISGAH FOREST,NC,28768,35.21470045,-82.69122832,House, 
156,TARAH LN,PISGAH FOREST,NC,28768,35.21392266,-82.68985247,House, 
160,TARAH LN,PISGAH FOREST,NC,28768,35.21237482,-82.68760849,House, 
40,THREE MILE KNOB RD,PISGAH FOREST,NC,28768,35.21944983,-82.70475907,House, 
155,THREE MILE KNOB RD,PISGAH FOREST,NC,28768,35.21897423,-82.70406515,House, 
159,THREE MILE KNOB RD,PISGAH FOREST,NC,28768,35.2187678,-82.70467102,House, 
226,THREE MILE KNOB RD,PISGAH FOREST,NC,28768,35.21838523,-82.7053394,House, 
239,THREE MILE KNOB RD,PISGAH FOREST,NC,28768,35.21850544,-82.70487476,House, 
285,THREE MILE KNOB RD,PISGAH FOREST,NC,28768,35.21801598,-82.70469147,House, 
