Number,Street,City,State,PostalCode,Latitude,Longitude,Type,ApartmentNumber
53,ACORN LN,PISGAH FOREST,NC,28768,35.27483567,-82.65191657,House, 
60,ACORN LN,PISGAH FOREST,NC,28768,35.27423463,-82.65168933,House, 
146,ACORN LN,PISGAH FOREST,NC,28768,35.2740161,-82.64988045,House, 
159,ACORN LN,PISGAH FOREST,NC,28768,35.27469456,-82.65025441,House, 
181,ACORN LN,PISGAH FOREST,NC,28768,35.27505424,-82.65019921,House, 
194,ACORN LN,PISGAH FOREST,NC,28768,35.27516703,-82.64963996,House, 
220,ACORN LN,PISGAH FOREST,NC,28768,35.27572329,-82.64959856,House, 
227,ACORN LN,PISGAH FOREST,NC,28768,35.27551902,-82.65032697,House, 
270,ACORN LN,PISGAH FOREST,NC,28768,35.27629605,-82.64974033,House, 
304,ACORN LN,PISGAH FOREST,NC,28768,35.27654121,-82.65060708,House, 
307,ACORN LN,PISGAH FOREST,NC,28768,35.27607243,-82.65089568,House, 
330,ACORN LN,PISGAH FOREST,NC,28768,35.27666603,-82.65098811,House, 
383,ACORN LN,PISGAH FOREST,NC,28768,35.27663963,-82.65181845,House, 
87,BEACON HILL DR,PISGAH FOREST,NC,28768,35.22978523,-82.65027709,House, 
160,BEACON HILL DR,PISGAH FOREST,NC,28768,35.22954945,-82.64946748,House, 
170,BEACON HILL DR,PISGAH FOREST,NC,28768,35.22956477,-82.64932257,House, 
184,BEACON HILL DR,PISGAH FOREST,NC,28768,35.22953045,-82.64913444,House, 
397,BENT RIVER FARM RD,PISGAH FOREST,NC,28768,35.26100395,-82.65165914,House, 
496,BENT RIVER FARM RD,PISGAH FOREST,NC,28768,35.25978101,-82.64722495,House, 
542,BENT RIVER FARM RD,PISGAH FOREST,NC,28768,35.26053584,-82.64740409,House, 
650,BENT RIVER FARM RD,PISGAH FOREST,NC,28768,35.26143649,-82.64780618,House, 
136,BLYTHE RD,PISGAH FOREST,NC,28768,35.27783661,-82.65300555,House, 
340,BLYTHE RD,PISGAH FOREST,NC,28768,35.28116232,-82.65152235,House, 
415,BLYTHE RD,PISGAH FOREST,NC,28768,35.28156717,-82.65208572,House, 
435,BLYTHE RD,PISGAH FOREST,NC,28768,35.28175734,-82.65261606,House, 
437,BLYTHE RD,PISGAH FOREST,NC,28768,35.2819302,-82.65241429,House, 
454,BLYTHE RD,PISGAH FOREST,NC,28768,35.28190237,-82.65087011,House, 
489,BLYTHE RD,PISGAH FOREST,NC,28768,35.28241091,-82.6510442,House, 
520,BLYTHE RD,PISGAH FOREST,NC,28768,35.28306704,-82.6504801,House, 
521,BLYTHE RD,PISGAH FOREST,NC,28768,35.28274737,-82.65111311,House, 
522,BLYTHE RD,PISGAH FOREST,NC,28768,35.28327348,-82.65105533,House, 
586,BLYTHE RD,PISGAH FOREST,NC,28768,35.28373599,-82.65165583,House, 
605,BLYTHE RD,PISGAH FOREST,NC,28768,35.28346069,-82.65213889,House, 
670,BLYTHE RD,PISGAH FOREST,NC,28768,35.28431346,-82.65196732,House, 
152,BUTTERFLY LN,PISGAH FOREST,NC,28768,35.222709,-82.65455164,House, 
173,BUTTERFLY LN,PISGAH FOREST,NC,28768,35.22277335,-82.65574764,House, 
200,BUTTERFLY LN,PISGAH FOREST,NC,28768,35.22366487,-82.65429178,House, 
1095,CASCADE LAKE RD,PISGAH FOREST,NC,28768,35.22873504,-82.64044394,House, 
75,CASCADE TRL,PISGAH FOREST,NC,28768,35.2184137,-82.64109872,House, 
222,CASCADE TRL,PISGAH FOREST,NC,28768,35.2196964,-82.64451836,House, 
275,CASCADE TRL,PISGAH FOREST,NC,28768,35.21804852,-82.6459751,House, 
389,CASCADE TRL,PISGAH FOREST,NC,28768,35.22039227,-82.64744539,House, 
422,CASCADE TRL,PISGAH FOREST,NC,28768,35.22031257,-82.64965093,House, 
592,CASCADE TRL,PISGAH FOREST,NC,28768,35.21888138,-82.65060072,House, 
89,ELIZABETH DR,PISGAH FOREST,NC,28768,35.27413158,-82.64024452,House, 
11,EMERALD HILLS CT,PISGAH FOREST,NC,28768,35.23738849,-82.65138973,House, 
37,EMERALD HILLS CT,PISGAH FOREST,NC,28768,35.23803259,-82.6513771,House, 
56,EMERALD HILLS CT,PISGAH FOREST,NC,28768,35.23795285,-82.65068331,House, 
94,EMERALD HILLS CT,PISGAH FOREST,NC,28768,35.23871646,-82.65161763,House, 
55,EMERALD HILLS DR,PISGAH FOREST,NC,28768,35.23517166,-82.64776746,House, 
95,EMERALD HILLS DR,PISGAH FOREST,NC,28768,35.23559321,-82.64824069,House, 
132,EMERALD HILLS DR,PISGAH FOREST,NC,28768,35.23635009,-82.6481187,House, 
134,EMERALD HILLS DR,PISGAH FOREST,NC,28768,35.23670746,-82.64879221,House, 
171,EMERALD HILLS DR,PISGAH FOREST,NC,28768,35.2357081,-82.64875604,House, 
191,EMERALD HILLS DR,PISGAH FOREST,NC,28768,35.23606625,-82.64930715,House, 
247,EMERALD HILLS DR,PISGAH FOREST,NC,28768,35.23623054,-82.64992821,House, 
284,EMERALD HILLS DR,PISGAH FOREST,NC,28768,35.23764064,-82.65019698,House, 
291,EMERALD HILLS DR,PISGAH FOREST,NC,28768,35.23656827,-82.65088046,House, 
304,EMERALD HILLS DR,PISGAH FOREST,NC,28768,35.23746299,-82.65071183,House, 
370,EMERALD HILLS DR,PISGAH FOREST,NC,28768,35.23705135,-82.65157967,House, 
424,EMERALD HILLS DR,PISGAH FOREST,NC,28768,35.23758351,-82.65256544,House, 
480,EMERALD HILLS DR,PISGAH FOREST,NC,28768,35.23928248,-82.65296331,House, 
490,EMERALD HILLS DR,PISGAH FOREST,NC,28768,35.23779785,-82.65229197,House, 
1636,EVERETT RD,PISGAH FOREST,NC,28768,35.25306639,-82.65509381,House, 
1911,EVERETT RD,PISGAH FOREST,NC,28768,35.25592254,-82.65561119,House, 
1981,EVERETT RD,PISGAH FOREST,NC,28768,35.25555418,-82.65439575,House, 
1999,EVERETT RD,PISGAH FOREST,NC,28768,35.25522931,-82.65389791,House, 
2101,EVERETT RD,PISGAH FOREST,NC,28768,35.25516564,-82.65210625,House, 
2408,EVERETT RD,PISGAH FOREST,NC,28768,35.2530081,-82.64788273,House, 
2410,EVERETT RD,PISGAH FOREST,NC,28768,35.25320034,-82.64763986,House, 
2750,EVERETT RD,PISGAH FOREST,NC,28768,35.25450759,-82.64240934,House, 
106,FALCON RD,PISGAH FOREST,NC,28768,35.22216452,-82.64928142,House, 
205,FALCON RD,PISGAH FOREST,NC,28768,35.22272376,-82.64801633,House, 
214,FOREST PARK RD,PISGAH FOREST,NC,28768,35.22168632,-82.64860788,House, 
215,FOREST PARK RD,PISGAH FOREST,NC,28768,35.22172224,-82.64923256,House, 
250,FOREST PARK RD,PISGAH FOREST,NC,28768,35.22212062,-82.64886623,House, 
39,GARDNER LN,PISGAH FOREST,NC,28768,35.27651089,-82.65314923,House, 
54,GARDNER LN,PISGAH FOREST,NC,28768,35.2763923,-82.65216442,House, 
190,GARDNER LN,PISGAH FOREST,NC,28768,35.27733755,-82.65124704,House, 
477,GARDNER LN,PISGAH FOREST,NC,28768,35.27893477,-82.652536,House, 
479,GARDNER LN,PISGAH FOREST,NC,28768,35.27939462,-82.65248333,House, 
564,GARDNER LN,PISGAH FOREST,NC,28768,35.2798158,-82.65108634,House, 
594,GARDNER LN,PISGAH FOREST,NC,28768,35.27982913,-82.65056962,House, 
657,GARDNER LN,PISGAH FOREST,NC,28768,35.28058092,-82.64901192,House, 
723,GARDNER LN,PISGAH FOREST,NC,28768,35.27944043,-82.64920815,House, 
768,GARDNER LN,PISGAH FOREST,NC,28768,35.27824733,-82.64915222,House, 
770,GARDNER LN,PISGAH FOREST,NC,28768,35.27776304,-82.64874856,House, 
15,HART RD,PISGAH FOREST,NC,28768,35.25288209,-82.64540246,House, 
43,HART RD,PISGAH FOREST,NC,28768,35.25249219,-82.64524968,House, 
239,HART RD,PISGAH FOREST,NC,28768,35.2499128,-82.64382466,House, 
276,HART RD,PISGAH FOREST,NC,28768,35.24963586,-82.64447172,House, 
278,HART RD,PISGAH FOREST,NC,28768,35.2494208,-82.64484462,House, 
330,HART RD,PISGAH FOREST,NC,28768,35.24863249,-82.64399309,House, 
332,HART RD,PISGAH FOREST,NC,28768,35.24854255,-82.64454065,House, 
400,HART RD,PISGAH FOREST,NC,28768,35.24725642,-82.64323213,House, 
515,HART RD,PISGAH FOREST,NC,28768,35.24592366,-82.64226942,House, 
565,HART RD,PISGAH FOREST,NC,28768,35.24534566,-82.64196457,House, 
606,HART RD,PISGAH FOREST,NC,28768,35.24517819,-82.64233442,House, 
608,HART RD,PISGAH FOREST,NC,28768,35.24521739,-82.64260749,House, 
610,HART RD,PISGAH FOREST,NC,28768,35.24505224,-82.64287933,House, 
614,HART RD,PISGAH FOREST,NC,28768,35.24469462,-82.64288647,House, 
672,HART RD,PISGAH FOREST,NC,28768,35.24440959,-82.64321589,House, 
675,HART RD,PISGAH FOREST,NC,28768,35.24399388,-82.64255904,House, 
680,HART RD,PISGAH FOREST,NC,28768,35.24319376,-82.64454672,House, 
729,HART RD,PISGAH FOREST,NC,28768,35.24301242,-82.64252752,House, 
765,HART RD,PISGAH FOREST,NC,28768,35.24239498,-82.64250109,House, 
780,HART RD,PISGAH FOREST,NC,28768,35.2427172,-82.64536379,House, 
799,HART RD,PISGAH FOREST,NC,28768,35.2419164,-82.64245815,House, 
864,HART RD,PISGAH FOREST,NC,28768,35.24183406,-82.64450245,House, 
886,HART RD,PISGAH FOREST,NC,28768,35.24112212,-82.64330245,Apartment, 
889,HART RD,PISGAH FOREST,NC,28768,35.24103322,-82.6431254,House, 
896,HART RD,PISGAH FOREST,NC,28768,35.24098975,-82.64335163,House, 
932,HART RD,PISGAH FOREST,NC,28768,35.24051688,-82.64353203,House, 
965,HART RD,PISGAH FOREST,NC,28768,35.23964809,-82.64357553,House, 
1023,HART RD,PISGAH FOREST,NC,28768,35.23891505,-82.64349575,House, 
1068,HART RD,PISGAH FOREST,NC,28768,35.23843138,-82.64486578,House, 
1085,HART RD,PISGAH FOREST,NC,28768,35.23800172,-82.64383875,House, 
1126,HART RD,PISGAH FOREST,NC,28768,35.23737263,-82.64490811,House, 
1156,HART RD,PISGAH FOREST,NC,28768,35.23691702,-82.64488196,House, 
1200,HART RD,PISGAH FOREST,NC,28768,35.23973055,-82.64821962,House, 
1241,HART RD,PISGAH FOREST,NC,28768,35.2356131,-82.64488359,House, 
1271,HART RD,PISGAH FOREST,NC,28768,35.2352797,-82.64537963,House, 
1276,HART RD,PISGAH FOREST,NC,28768,35.23585157,-82.64615199,House, 
1299,HART RD,PISGAH FOREST,NC,28768,35.23487906,-82.64567236,House, 
1313,HART RD,PISGAH FOREST,NC,28768,35.23464676,-82.64600043,House, 
1341,HART RD,PISGAH FOREST,NC,28768,35.23447808,-82.64623098,House, 
1346,HART RD,PISGAH FOREST,NC,28768,35.23479175,-82.64685944,House, 
1347,HART RD,PISGAH FOREST,NC,28768,35.23432978,-82.64644463,House, 
1363,HART RD,PISGAH FOREST,NC,28768,35.23416624,-82.64672269,House, 
1376,HART RD,PISGAH FOREST,NC,28768,35.23455518,-82.64719504,House, 
1379,HART RD,PISGAH FOREST,NC,28768,35.23402692,-82.64698274,House, 
1405,HART RD,PISGAH FOREST,NC,28768,35.23383379,-82.64718629,House, 
1406,HART RD,PISGAH FOREST,NC,28768,35.23426172,-82.64772379,House, 
1430,HART RD,PISGAH FOREST,NC,28768,35.23415901,-82.64882264,House, 
1480,HART RD,PISGAH FOREST,NC,28768,35.23328537,-82.64882669,House, 
1550,HART RD,PISGAH FOREST,NC,28768,35.23229878,-82.64926011,House, 
178,TOMFOOLERY LN,PISGAH FOREST,NC,28768,35.22935946,-82.6477855,House, 
1918,HART RD,PISGAH FOREST,NC,28768,35.22791254,-82.64723982,House, 
2046,HART RD,PISGAH FOREST,NC,28768,35.22685184,-82.6450951,House, 
2080,HART RD,PISGAH FOREST,NC,28768,35.22660296,-82.64467479,House, 
2082,HART RD,PISGAH FOREST,NC,28768,35.22606692,-82.64519011,House, 
2238,HART RD,PISGAH FOREST,NC,28768,35.22538919,-82.64238494,House, 
3124,HENDERSONVILLE HWY,PISGAH FOREST,NC,28768,35.27305738,-82.6527416,House, 
3172,HENDERSONVILLE HWY,PISGAH FOREST,NC,28768,35.27334964,-82.65206001,House, 
3180,HENDERSONVILLE HWY,PISGAH FOREST,NC,28768,35.27203012,-82.6512967,House, 
3182,HENDERSONVILLE HWY,PISGAH FOREST,NC,28768,35.27111091,-82.65087021,House, 
3232,HENDERSONVILLE HWY,PISGAH FOREST,NC,28768,35.27264187,-82.64775157,House, 
3490,HENDERSONVILLE HWY,PISGAH FOREST,NC,28768,35.27342847,-82.64618626,House, 
3491,HENDERSONVILLE HWY,PISGAH FOREST,NC,28768,35.27359283,-82.64616266,House, 
3515,HENDERSONVILLE HWY,PISGAH FOREST,NC,28768,35.27443108,-82.64269198,House, 
3517,HENDERSONVILLE HWY,PISGAH FOREST,NC,28768,35.27409993,-82.64280973,House, 
3519,HENDERSONVILLE HWY,PISGAH FOREST,NC,28768,35.27440588,-82.64114863,House, 
3536,HENDERSONVILLE HWY,PISGAH FOREST,NC,28768,35.27291497,-82.64174385,House, 
3578,HENDERSONVILLE HWY,PISGAH FOREST,NC,28768,35.27327827,-82.64472666,House, 
3610,HENDERSONVILLE HWY,PISGAH FOREST,NC,28768,35.27306705,-82.64125749,House, 
3614,HENDERSONVILLE HWY,PISGAH FOREST,NC,28768,35.27300263,-82.64091982,House, 
3528,HENDERSONVILLE HWY,PISGAH FOREST,NC,28768,35.27308239,-82.64235841,House, 
104,HIDDEN GAP LN,PISGAH FOREST,NC,28768,35.28348731,-82.64969382,House, 
264,HIDDEN GAP LN,PISGAH FOREST,NC,28768,35.28480521,-82.65036283,House, 
169,HOLLY HILL FARM RD,PISGAH FOREST,NC,28768,35.22977945,-82.65160469,House, 
420,HOLLY HILL FARM RD,PISGAH FOREST,NC,28768,35.23117062,-82.65542755,House, 
450,HOLLY HILL FARM RD,PISGAH FOREST,NC,28768,35.23059143,-82.65604052,House, 
53,LAUREN LN,PISGAH FOREST,NC,28768,35.23908258,-82.64499803,House, 
101,LAUREN LN,PISGAH FOREST,NC,28768,35.23972561,-82.64503988,House, 
121,LAUREN LN,PISGAH FOREST,NC,28768,35.24012229,-82.6449231,House, 
132,LAUREN LN,PISGAH FOREST,NC,28768,35.24036993,-82.64475901,House, 
57,LITTLE PINES LN,PISGAH FOREST,NC,28768,35.23048512,-82.65032911,House, 
72,LITTLE PINES LN,PISGAH FOREST,NC,28768,35.23032442,-82.65046703,House, 
109,LITTLE PINES LN,PISGAH FOREST,NC,28768,35.23026689,-82.65089584,House, 
123,LITTLE PINES LN,PISGAH FOREST,NC,28768,35.23026939,-82.65111178,House, 
532,LYDAY LOOP,PISGAH FOREST,NC,28768,35.27840303,-82.65674674,House, 
585,LYDAY LOOP,PISGAH FOREST,NC,28768,35.27841131,-82.65655725,House, 
618,LYDAY LOOP,PISGAH FOREST,NC,28768,35.27523304,-82.65563967,House, 
620,LYDAY LOOP,PISGAH FOREST,NC,28768,35.27714615,-82.65594723,House, 
625,LYDAY LOOP,PISGAH FOREST,NC,28768,35.27806457,-82.65602138,House, 
681,LYDAY LOOP,PISGAH FOREST,NC,28768,35.27865401,-82.65488551,House, 
736,LYDAY LOOP,PISGAH FOREST,NC,28768,35.27804896,-82.65487532,House, 
754,LYDAY LOOP,PISGAH FOREST,NC,28768,35.27758822,-82.65501402,House, 
768,LYDAY LOOP,PISGAH FOREST,NC,28768,35.27715874,-82.65473731,House, 
773,LYDAY LOOP,PISGAH FOREST,NC,28768,35.27754884,-82.6540569,House, 
810,LYDAY LOOP,PISGAH FOREST,NC,28768,35.27700056,-82.65391079,House, 
825,LYDAY LOOP,PISGAH FOREST,NC,28768,35.27739269,-82.65369134,House, 
868,LYDAY LOOP,PISGAH FOREST,NC,28768,35.27615973,-82.6538104,House, 
900,LYDAY LOOP,PISGAH FOREST,NC,28768,35.27580636,-82.65352772,House, 
904,LYDAY LOOP,PISGAH FOREST,NC,28768,35.27586178,-82.65301772,House, 
66,MERRILL LN,PISGAH FOREST,NC,28768,35.23980019,-82.64272701,House, 
98,MERRILL LN,PISGAH FOREST,NC,28768,35.23903572,-82.64232367,House, 
126,MERRILL LN,PISGAH FOREST,NC,28768,35.23993779,-82.64132558,House, 
239,MERRILL LN,PISGAH FOREST,NC,28768,35.24025109,-82.6400834,House, 
300,MERRILL LN,PISGAH FOREST,NC,28768,35.23913207,-82.64058698,House, 
5015,OLD HENDERSONVILLE HWY,PISGAH FOREST,NC,28768,35.27091585,-82.65331665,House, 
5130,OLD HENDERSONVILLE HWY,PISGAH FOREST,NC,28768,35.26723,-82.65282442,House, 
5170,OLD HENDERSONVILLE HWY,PISGAH FOREST,NC,28768,35.26981488,-82.64964069,House,STE 1
5170,OLD HENDERSONVILLE HWY,PISGAH FOREST,NC,28768,35.26984156,-82.64931012,House,STE 2
5205,OLD HENDERSONVILLE HWY,PISGAH FOREST,NC,28768,35.27068402,-82.64976457,House, 
5285,OLD HENDERSONVILLE HWY,PISGAH FOREST,NC,28768,35.27076288,-82.64930114,House, 
5317,OLD HENDERSONVILLE HWY,PISGAH FOREST,NC,28768,35.27193371,-82.64860954,House, 
5415,OLD HENDERSONVILLE HWY,PISGAH FOREST,NC,28768,35.27192144,-82.64704508,House, 
5434,OLD HENDERSONVILLE HWY,PISGAH FOREST,NC,28768,35.27147682,-82.64688752,House, 
5436,OLD HENDERSONVILLE HWY,PISGAH FOREST,NC,28768,35.27063113,-82.64560965,House, 
5585,OLD HENDERSONVILLE HWY,PISGAH FOREST,NC,28768,35.2725853,-82.64384312,House, 
5631,OLD HENDERSONVILLE HWY,PISGAH FOREST,NC,28768,35.27258937,-82.64335123,House, 
5655,OLD HENDERSONVILLE HWY,PISGAH FOREST,NC,28768,35.27261615,-82.64266292,House, 
5714,OLD HENDERSONVILLE HWY,PISGAH FOREST,NC,28768,35.27243472,-82.64126846,House, 
5716,OLD HENDERSONVILLE HWY,PISGAH FOREST,NC,28768,35.27227425,-82.64200522,House, 
5848,OLD HENDERSONVILLE HWY,PISGAH FOREST,NC,28768,35.27219561,-82.64132049,House, 
5858,OLD HENDERSONVILLE HWY,PISGAH FOREST,NC,28768,35.27234473,-82.64099471,House, 
5929,OLD HENDERSONVILLE HWY,PISGAH FOREST,NC,28768,35.27294054,-82.6400844,House, 
124,OXCART LN,PISGAH FOREST,NC,28768,35.27944925,-82.65575654,House, 
67,PATTERSON ESTATE RD,PISGAH FOREST,NC,28768,35.23688171,-82.64341141,House, 
88,PATTERSON ESTATE RD,PISGAH FOREST,NC,28768,35.23660702,-82.64376663,House, 
210,PATTERSON ESTATE RD,PISGAH FOREST,NC,28768,35.2353893,-82.64388639,House, 
153,PISGAH FOREST DR,PISGAH FOREST,NC,28768,35.22481079,-82.64524727,House, 
155,PISGAH FOREST DR,PISGAH FOREST,NC,28768,35.22367659,-82.64537401,House, 
360,PISGAH FOREST DR,PISGAH FOREST,NC,28768,35.22444044,-82.64748095,House, 
361,PISGAH FOREST DR,PISGAH FOREST,NC,28768,35.22437392,-82.64843229,House, 
362,PISGAH FOREST DR,PISGAH FOREST,NC,28768,35.22518319,-82.64639096,House, 
438,PISGAH FOREST DR,PISGAH FOREST,NC,28768,35.22455077,-82.64911846,House, 
554,PISGAH FOREST DR,PISGAH FOREST,NC,28768,35.22398239,-82.65003033,House, 
579,PISGAH FOREST DR,PISGAH FOREST,NC,28768,35.22318784,-82.64978474,House, 
600,PISGAH FOREST DR,PISGAH FOREST,NC,28768,35.22330563,-82.65148721,House, 
673,PISGAH FOREST DR,PISGAH FOREST,NC,28768,35.22183015,-82.65056497,House, 
740,PISGAH FOREST DR,PISGAH FOREST,NC,28768,35.22238714,-82.65117995,House, 
785,PISGAH FOREST DR,PISGAH FOREST,NC,28768,35.22209851,-82.65192761,House, 
814,PISGAH FOREST DR,PISGAH FOREST,NC,28768,35.22259042,-82.65236375,House, 
830,PISGAH FOREST DR,PISGAH FOREST,NC,28768,35.22226671,-82.65250781,House, 
870,PISGAH FOREST DR,PISGAH FOREST,NC,28768,35.22186207,-82.65361149,House, 
1070,PISGAH FOREST DR,PISGAH FOREST,NC,28768,35.22044813,-82.65357261,House, 
1263,PISGAH FOREST DR,PISGAH FOREST,NC,28768,35.21988485,-82.656057,House, 
2571,PISGAH FOREST DR,PISGAH FOREST,NC,28768,35.22121057,-82.65609938,House, 
2615,PISGAH FOREST DR,PISGAH FOREST,NC,28768,35.2205131,-82.65504085,House, 
2637,PISGAH FOREST DR,PISGAH FOREST,NC,28768,35.22037404,-82.65460205,House, 
23,QUAIL RIDGE DR,PISGAH FOREST,NC,28768,35.2373053,-82.64411209,House, 
92,QUAIL RIDGE DR,PISGAH FOREST,NC,28768,35.23715774,-82.64303264,House, 
101,QUAIL RIDGE DR,PISGAH FOREST,NC,28768,35.23753254,-82.64337267,House, 
126,QUAIL RIDGE DR,PISGAH FOREST,NC,28768,35.2372822,-82.64251361,House, 
44,QUIET POND LN,PISGAH FOREST,NC,28768,35.22505464,-82.64301534,House, 
89,QUIET POND LN,PISGAH FOREST,NC,28768,35.22443298,-82.64257178,House, 
165,QUIET POND LN,PISGAH FOREST,NC,28768,35.22426392,-82.64409129,House, 
250,QUIET POND LN,PISGAH FOREST,NC,28768,35.22394936,-82.64382449,House, 
165,SETTLEMENT RD,PISGAH FOREST,NC,28768,35.25155707,-82.64854289,House, 
177,SETTLEMENT RD,PISGAH FOREST,NC,28768,35.25147871,-82.64871457,House, 
178,SETTLEMENT RD,PISGAH FOREST,NC,28768,35.2515819,-82.6488713,House, 
192,SETTLEMENT RD,PISGAH FOREST,NC,28768,35.25139083,-82.64898497,House, 
200,SETTLEMENT RD,PISGAH FOREST,NC,28768,35.25131714,-82.64902998,House, 
14,SPRING HILL DR,PISGAH FOREST,NC,28768,35.28057298,-82.65359617,House, 
68,SPRING HILL DR,PISGAH FOREST,NC,28768,35.28107895,-82.65384035,House, 
80,SPRING HILL DR,PISGAH FOREST,NC,28768,35.28090716,-82.65419711,House, 
110,SPRING HILL DR,PISGAH FOREST,NC,28768,35.28098865,-82.65449819,House, 
116,SPRING HILL DR,PISGAH FOREST,NC,28768,35.28091026,-82.65498892,House, 
127,SPRING HILL DR,PISGAH FOREST,NC,28768,35.28056028,-82.65522014,House, 
193,SPRING HILL DR,PISGAH FOREST,NC,28768,35.28110723,-82.65551835,House, 
422,SUN LODGE RD,PISGAH FOREST,NC,28768,35.24797883,-82.64856217,House, 
111,SUN MEADOW LN,PISGAH FOREST,NC,28768,35.25668767,-82.64649226,House, 
162,SUN MEADOW LN,PISGAH FOREST,NC,28768,35.25706574,-82.64510719,House, 
292,SUN MEADOW LN,PISGAH FOREST,NC,28768,35.25859414,-82.64556849,House, 
293,SUN MEADOW LN,PISGAH FOREST,NC,28768,35.25925129,-82.64654209,House, 
26,SUNFLOWER TRL,PISGAH FOREST,NC,28768,35.22186689,-82.65449897,House, 
100,SUNFLOWER TRL,PISGAH FOREST,NC,28768,35.22287682,-82.65356415,House, 
143,TOP OAKS LN,PISGAH FOREST,NC,28768,35.27976668,-82.64706848,House, 
161,TOP OAKS LN,PISGAH FOREST,NC,28768,35.27933154,-82.64743805,House, 
28,TWIN OAKS LN,PISGAH FOREST,NC,28768,35.27501596,-82.65086437,House, 
46,TWIN OAKS LN,PISGAH FOREST,NC,28768,35.27547032,-82.65116025,House, 
68,TWIN OAKS LN,PISGAH FOREST,NC,28768,35.27575397,-82.6516604,House, 
75,TWIN OAKS LN,PISGAH FOREST,NC,28768,35.27560638,-82.6521786,House, 
147,VALLEY VIEW VISTA DR,PISGAH FOREST,NC,28768,35.2449562,-82.6439398,House, 
254,VALLEY VIEW VISTA DR,PISGAH FOREST,NC,28768,35.2453658,-82.64515731,House, 
419,WILLIAMS RD,PISGAH FOREST,NC,28768,35.2718292,-82.65240979,House, 
31,WINDY HILL PARK DR,PISGAH FOREST,NC,28768,35.27689693,-82.65433014,House, 
41,WINDY HILL PARK DR,PISGAH FOREST,NC,28768,35.27680081,-82.65444466,House, 
51,WINDY HILL PARK DR,PISGAH FOREST,NC,28768,35.27670364,-82.65461192,House, 
78,WINDY HILL PARK DR,PISGAH FOREST,NC,28768,35.27662507,-82.65505604,House, 
106,WINDY HILL PARK DR,PISGAH FOREST,NC,28768,35.27657438,-82.65543085,House, 
126,WINDY HILL PARK DR,PISGAH FOREST,NC,28768,35.27683,-82.65555805,House, 
128,WINDY HILL PARK DR,PISGAH FOREST,NC,28768,35.27676016,-82.6557405,House, 
130,WINDY HILL PARK DR,PISGAH FOREST,NC,28768,35.27674948,-82.65589368,House, 
32,WOODY FARM DR,PISGAH FOREST,NC,28768,35.25503587,-82.64307333,House, 
78,WOODY FARM DR,PISGAH FOREST,NC,28768,35.25588121,-82.64307974,House, 
90,WOODY FARM DR,PISGAH FOREST,NC,28768,35.25600723,-82.64280551,House, 
91,WOODY FARM DR,PISGAH FOREST,NC,28768,35.25561846,-82.64362795,House, 
93,WOODY FARM DR,PISGAH FOREST,NC,28768,35.25621428,-82.64361311,House, 
95,WOODY FARM DR,PISGAH FOREST,NC,28768,35.25487547,-82.64442066,House, 
100,WOODY FARM DR,PISGAH FOREST,NC,28768,35.25647204,-82.64288305,House, 
140,WOODY FARM DR,PISGAH FOREST,NC,28768,35.25812413,-82.64213984,House, 
145,WOODY FARM DR,PISGAH FOREST,NC,28768,35.25791691,-82.64378611,House, 
153,WOODY FARM DR,PISGAH FOREST,NC,28768,35.2594762,-82.64495617,House, 
155,WOODY FARM DR,PISGAH FOREST,NC,28768,35.25766088,-82.64432896,House, 
2453,EVERETT RD,PISGAH FOREST,NC,28768,35.25388561,-82.64540296,House, 
3127,HENDERSONVILLE HWY,PISGAH FOREST,NC,28768,35.27474455,-82.65334351,House, 
3099,HENDERSONVILLE HWY,PISGAH FOREST,NC,28768,35.27517068,-82.65303169,House, 
84,OXCART LN,PISGAH FOREST,NC,28768,35.27961489,-82.65506758,House, 
85,OXCART LN,PISGAH FOREST,NC,28768,35.27924399,-82.65575813,House, 
707,CASCADE TRL,PISGAH FOREST,NC,28768,35.21856263,-82.65169891,House,
659,CASCADE TRL,PISGAH FOREST,NC,28768,35.2190243,-82.65252369,House,
333,WILLIAMS RD,PISGAH FOREST,NC,28768,35.27336826,-82.65422504,House,
313,WILLIAMS RD,PISGAH FOREST,NC,28768,35.27269188,-82.65481735,House,
387,WILLIAMS RD,PISGAH FOREST,NC,28768,35.27280314,-82.65354886,House,
249,WILLIAMS RD,PISGAH FOREST,NC,28768,35.27258731,-82.65568536,House,
527,WILLIAMS RD,PISGAH FOREST,NC,28768,35.27101091,-82.65181755,House,
107,QUAIL RIDGE DR,PISGAH FOREST,NC,28768,35.2379981,-82.6432046,House,
