Number,Street,City,State,PostalCode,Latitude,Longitude,Type,ApartmentNumber
15,SONG BIRD LN,PISGAH FOREST,NC,28768,35.26730975,-82.6930572,House, 
42,SPEEDY LN,PISGAH FOREST,NC,28768,35.28122794,-82.65879149,House, 
44,SPEEDY LN,PISGAH FOREST,NC,28768,35.28141105,-82.65852624,House, 
192,SPEEDY LN,PISGAH FOREST,NC,28768,35.28234816,-82.65813683,House, 
70,SUMMIT RISE RD,PISGAH FOREST,NC,28768,35.27810233,-82.66003037,House, 
83,SUMMIT RISE RD,PISGAH FOREST,NC,28768,35.27787095,-82.66059592,House, 
88,SUMMIT RISE RD,PISGAH FOREST,NC,28768,35.27826403,-82.66042873,House, 
154,SUMMIT RISE RD,PISGAH FOREST,NC,28768,35.27842511,-82.66137814,House, 
25,SURRETTE DR,PISGAH FOREST,NC,28768,35.27025973,-82.68050277,House, 
49,SURRETTE DR,PISGAH FOREST,NC,28768,35.26975834,-82.67995129,House, 
42,TAMARA CT,PISGAH FOREST,NC,28768,35.27544743,-82.68598547,House, 
49,TAMARA CT,PISGAH FOREST,NC,28768,35.27467334,-82.68577179,House, 
61,TAMARA CT,PISGAH FOREST,NC,28768,35.27483221,-82.68646996,House, 
62,TAMARA CT,PISGAH FOREST,NC,28768,35.27525644,-82.68649038,House, 
205,TURKEY CREEK RD,PISGAH FOREST,NC,28768,35.28564867,-82.69479741,House, 
19,UPPER GLADE CREEK RD,PISGAH FOREST,NC,28768,35.27099972,-82.69366945,House, 
21,UPPER GLADE CREEK RD,PISGAH FOREST,NC,28768,35.27156467,-82.69359045,House, 
43,UPPER GLADE CREEK RD,PISGAH FOREST,NC,28768,35.27124558,-82.69266351,House, 
78,UPPER GLADE CREEK RD,PISGAH FOREST,NC,28768,35.270858,-82.69215777,House, 
103,UPPER GLADE CREEK RD,PISGAH FOREST,NC,28768,35.27148396,-82.69181334,House, 
120,UPPER GLADE CREEK RD,PISGAH FOREST,NC,28768,35.2708185,-82.69185514,House, 
122,UPPER GLADE CREEK RD,PISGAH FOREST,NC,28768,35.27080409,-82.69145832,House, 
151,UPPER GLADE CREEK RD,PISGAH FOREST,NC,28768,35.27141325,-82.69143844,House, 
153,UPPER GLADE CREEK RD,PISGAH FOREST,NC,28768,35.27232068,-82.69068274,House, 
162,UPPER GLADE CREEK RD,PISGAH FOREST,NC,28768,35.27076122,-82.69081582,House, 
190,UPPER GLADE CREEK RD,PISGAH FOREST,NC,28768,35.27077229,-82.69049005,House, 
298,UPPER GLADE CREEK RD,PISGAH FOREST,NC,28768,35.27079255,-82.68851237,House, 
331,UPPER GLADE CREEK RD,PISGAH FOREST,NC,28768,35.2710962,-82.68813793,House, 
385,UPPER GLADE CREEK RD,PISGAH FOREST,NC,28768,35.27165838,-82.68740907,House, 
393,UPPER GLADE CREEK RD,PISGAH FOREST,NC,28768,35.27140973,-82.68677656,House, 
418,UPPER GLADE CREEK RD,PISGAH FOREST,NC,28768,35.27098813,-82.68633829,House, 
443,UPPER GLADE CREEK RD,PISGAH FOREST,NC,28768,35.27151608,-82.68611752,House, 
444,UPPER GLADE CREEK RD,PISGAH FOREST,NC,28768,35.2710142,-82.68600146,House, 
461,UPPER GLADE CREEK RD,PISGAH FOREST,NC,28768,35.27161193,-82.68578111,House, 
556,UPPER GLADE CREEK RD,PISGAH FOREST,NC,28768,35.27103723,-82.68468474,House, 
569,UPPER GLADE CREEK RD,PISGAH FOREST,NC,28768,35.27067762,-82.68420079,House, 
24,WALL ST,PISGAH FOREST,NC,28768,35.27790956,-82.69025312,House, 
78,WALL ST,PISGAH FOREST,NC,28768,35.27890443,-82.69019111,House, 
196,WALL ST,PISGAH FOREST,NC,28768,35.28043075,-82.69058715,House, 
27,WHISPERING PINES DR,PISGAH FOREST,NC,28768,35.27110928,-82.67775306,House, 
30,WHISPERING PINES DR,PISGAH FOREST,NC,28768,35.27118825,-82.67694008,House, 
41,WHISPERING PINES DR,PISGAH FOREST,NC,28768,35.27138154,-82.67791088,House, 
46,WHISPERING PINES DR,PISGAH FOREST,NC,28768,35.27141424,-82.67711624,House, 
60,WHISPERING PINES DR,PISGAH FOREST,NC,28768,35.27167624,-82.67715318,House, 
67,WHISPERING PINES DR,PISGAH FOREST,NC,28768,35.27163489,-82.6779568,House, 
94,WHISPERING PINES DR,PISGAH FOREST,NC,28768,35.2721519,-82.67694115,House, 
95,WHISPERING PINES DR,PISGAH FOREST,NC,28768,35.27237701,-82.6777547,House, 
121,WHISPERING PINES DR,PISGAH FOREST,NC,28768,35.27277428,-82.67763103,House, 
140,WHISPERING PINES DR,PISGAH FOREST,NC,28768,35.27258765,-82.67688108,House, 
143,WHISPERING PINES DR,PISGAH FOREST,NC,28768,35.27306882,-82.67756553,House, 
150,WHISPERING PINES DR,PISGAH FOREST,NC,28768,35.27297311,-82.67633773,House, 
167,WHISPERING PINES DR,PISGAH FOREST,NC,28768,35.27337696,-82.67709531,House, 
180,WHISPERING PINES DR,PISGAH FOREST,NC,28768,35.27338205,-82.67594623,House, 
270,WHISPERING PINES DR,PISGAH FOREST,NC,28768,35.27428358,-82.67679015,House, 
98,SCHENCK DR,PISGAH FOREST,NC,28768,35.27906523,-82.71938634,House, 
101,JOE RD,PISGAH FOREST,NC,28768,35.26595991,-82.6768822,House, 
68,JOE RD,PISGAH FOREST,NC,28768,35.26639446,-82.67667868,House, 
418,GIBBS LN,PISGAH FOREST,NC,28768,35.27919893,-82.70429815,House, 
344,GIBBS LN,PISGAH FOREST,NC,28768,35.27932508,-82.70304007,House, 
67,RILEY LN,PISGAH FOREST,NC,28768,35.27174637,-82.69434436,House, 
80,BUNYON WILSON RD,PISGAH FOREST,NC,28768,35.27741995,-82.68705891,House, 
90,BUNYON WILSON RD,PISGAH FOREST,NC,28768,35.27763083,-82.68722438,House, 
40,CASH DR,PISGAH FOREST,NC,28768,35.2765804,-82.68800043,House, 
50,CASH DR,PISGAH FOREST,NC,28768,35.27638205,-82.68802463,House, 
60,CASH DR,PISGAH FOREST,NC,28768,35.27627411,-82.68801969,House, 
64,CASH DR,PISGAH FOREST,NC,28768,35.27618711,-82.68803695,House, 
70,CASH DR,PISGAH FOREST,NC,28768,35.27610116,-82.68802891,House, 
118,BUNYON WILSON RD,PISGAH FOREST,NC,28768,35.27809545,-82.68726163,House, 
168,BUNYON WILSON RD,PISGAH FOREST,NC,28768,35.27880034,-82.68752772,House, 
85,BUNYON WILSON RD,PISGAH FOREST,NC,28768,35.27699608,-82.68795502,House, 
93,BUNYON WILSON RD,PISGAH FOREST,NC,28768,35.27765929,-82.68822575,House, 
107,BUNYON WILSON RD,PISGAH FOREST,NC,28768,35.27770846,-82.68789243,House, 
250,BUNYON WILSON RD,PISGAH FOREST,NC,28768,35.27977278,-82.68701023,House, 
290,BUNYON WILSON RD,PISGAH FOREST,NC,28768,35.28031892,-82.6873188,House, 
305,BUNYON WILSON RD,PISGAH FOREST,NC,28768,35.27994404,-82.68767237,House, 
306,BUNYON WILSON RD,PISGAH FOREST,NC,28768,35.28079705,-82.68779705,House, 
302,BUNYON WILSON RD,PISGAH FOREST,NC,28768,35.27993327,-82.68819909,House, 
73,BUNYON WILSON RD,PISGAH FOREST,NC,28768,35.27852345,-82.68794809,House, 
121,ECUSTA RD,PISGAH FOREST,NC,28768,35.27088826,-82.70141604,House, 
62,PISGAH HWY,PISGAH FOREST,NC,28768,35.27438443,-82.70452466,House, 
4461,OLD HENDERSONVILLE HWY,PISGAH FOREST,NC,28768,35.27138957,-82.66304035,House, 
4503,OLD HENDERSONVILLE HWY,PISGAH FOREST,NC,28768,35.27182374,-82.66211143,House, 
2384,HENDERSONVILLE HWY,PISGAH FOREST,NC,28768,35.27226014,-82.66285249,House, 
2380,HENDERSONVILLE HWY,PISGAH FOREST,NC,28768,35.27280794,-82.66339966,House, 
2340,HENDERSONVILLE HWY,PISGAH FOREST,NC,28768,35.27269697,-82.66389072,House, 
2414,HENDERSONVILLE HWY,PISGAH FOREST,NC,28768,35.272934,-82.66236267,House, 
4529,OLD HENDERSONVILLE HWY,PISGAH FOREST,NC,28768,35.27139337,-82.663774,House, 
4531,OLD HENDERSONVILLE HWY,PISGAH FOREST,NC,28768,35.27175582,-82.66313533,House, 
8,JONATHAN DR,PISGAH FOREST,NC,28768,35.28488937,-82.69260002,House,
41,JONATHAN DR,PISGAH FOREST,NC,28768,35.28430745,-82.69254554,House,
43,JONATHAN DR,PISGAH FOREST,NC,28768,35.28444967,-82.69275219,House,
179,OLD FARM RD,PISGAH FOREST,NC,28768,35.26526263,-82.68445397,House,
279,OLD FARM RD,PISGAH FOREST,NC,28768,35.26525029,-82.68316011,House,
100,MOUNTAIN LAUREL RD,PISGAH FOREST,NC,28768,35.26300309,-82.68401371,House,
72,HOLDEN RD,PISGAH FOREST,NC,28768,35.27754445,-82.69467039,House,
690,ECUSTA RD,PISGAH FOREST,NC,28768,35.26196581,-82.70704239,House,
144,OLD NC 280 HWY,PISGAH FOREST,NC,28768,35.28386969,-82.69366258,House,
30,MOUNTAIN LAUREL RD,PISGAH FOREST,NC,28768,35.26436343,-82.68464788,House,
1610,HENDERSONVILLE HWY,PISGAH FOREST,NC,28768,35.27019498,-82.67645203,House,
994,HENDERSONVILLE HWY,PISGAH FOREST,NC,28768,35.26833733,-82.68642113,House,
425,DEAVOR RD,PISGAH FOREST,NC,28768,35.27221964,-82.69597726,House,
149,OLD NC 280 HWY,PISGAH FOREST,NC,28768,35.2853523,-82.69842662,House,
40,SPEEDY LN,PISGAH FOREST,NC,28768,35.28184822,-82.65941551,House,
30,SPEEDY LN,PISGAH FOREST,NC,28768,35.28178025,-82.65884575,House,
692,ECUSTA RD,PISGAH FOREST,NC,28768,35.26205301,-82.70770703,House,
129,PISGAH HWY,PISGAH FOREST,NC,28768,35.27427688,-82.70614895,House,
721,CAPPS RD,PISGAH FOREST,NC,28768,35.27880698,-82.69464095,House,
689,CAPPS RD,PISGAH FOREST,NC,28768,35.27827602,-82.69452079,House,
809,CAPPS RD,PISGAH FOREST,NC,28768,35.27890896,-82.69544759,House,
432,CAPPS RD,PISGAH FOREST,NC,28768,35.27947665,-82.69015531,House,
293,LYDAY CREEK RD,PISGAH FOREST,NC,28768,35.28135591,-82.66013709,House,
219,SUMMIT RISE RD,PISGAH FOREST,NC,28768,35.2792422,-82.66369156,House,
4,MONTEITH FARM RD,PISGAH FOREST,NC,28768,35.26381069,-82.68966019,House,
2,MONTEITH FARM RD,PISGAH FOREST,NC,28768,35.26317479,-82.68920429,House,
200,MONTEITH FARM RD,PISGAH FOREST,NC,28768,35.2652106,-82.68674148,House,
442,DAVIDSON RIVER RD,PISGAH FOREST,NC,28768,35.26111343,-82.69809391,House,
468,DAVIDSON RIVER RD,PISGAH FOREST,NC,28768,35.26153655,-82.69819331,House,
55,COX RD,PISGAH FOREST,NC,28768,35.27524279,-82.67452969,House,
96,CHARLEY'S KNOB RD,PISGAH FOREST,NC,28768,35.27384071,-82.67183281,House,
539,GLADE CREEK RD,PISGAH FOREST,NC,28768,35.26736274,-82.68336149,House,
391,OLD LITTLE MOUNTAIN RD,PISGAH FOREST,NC,28768,35.27647625,-82.68154395,House,
561,OLD LITTLE MOUNTAIN RD,PISGAH FOREST,NC,28768,35.27881861,-82.68040254,House,
475,OLD LITTLE MOUNTAIN RD,PISGAH FOREST,NC,28768,35.27819164,-82.68125388,House,
188,BLACK HAWK RD,PISGAH FOREST,NC,28768,35.27003215,-82.66938972,House,
399,BLACK HAWK RD,PISGAH FOREST,NC,28768,35.26926859,-82.67133371,House,
196,ECUSTA RD,PISGAH FOREST,NC,28768,35.26941046,-82.70626369,House,
1504,HENDERSONVILLE HWY,PISGAH FOREST,NC,28768,35.26963306,-82.67853827,House,
11,BISHOP LN,PISGAH FOREST,NC,28768,35.27035676,-82.67724679,House,
3527,ASHEVILLE HWY,PISGAH FOREST,NC,28768,35.28427543,-82.6918029,House, 
3474,OLD HENDERSONVILLE HWY,PISGAH FOREST,NC,28768,35.26275839,-82.67608371,House,
1866,HENDERSONVILLE HWY,PISGAH FOREST,NC,28768,35.27037144,-82.67274688,House,
11,MAMA'S PL,PISGAH FOREST,NC,28768,35.27439578,-82.70542507,Business,
113,MAMA'S PL,PISGAH FOREST,NC,28768,35.27619881,-82.70502705,House,
119,PISGAH HWY,PISGAH FOREST,NC,28768,35.27414164,-82.7060443,House,
60,PEARL DR,PISGAH FOREST,NC,28768,35.27454137,-82.67365693,House,
103,MOUNTAIN LAUREL RD,PISGAH FOREST,NC,28768,35.26314268,-82.68309759,House,
752,HUDLIN GAP RD,PISGAH FOREST,NC,28768,35.28165223,-82.6850978,House,
115,MAMA'S PL,PISGAH FOREST,NC,28768,35.27643002,-82.70598692,House,
121,ORCHID HEIGHTS DR,PISGAH FOREST,NC,28768,35.26810696,-82.67544535,Business,
73,SONG BIRD LN,PISGAH FOREST,NC,28768,35.26767692,-82.69215553,House,
1276,PISGAH HWY,PISGAH FOREST,NC,28768,35.28338394,-82.72003947,House,
304,GLADE CREEK RD,PISGAH FOREST,NC,28768,35.26657563,-82.6795609,Apartment,DOWNSTAIRS
306,GLADE CREEK RD,PISGAH FOREST,NC,28768,35.26667397,-82.67952926,Apartment,UPSTAIRS
371,OLD LITTLE MOUNTAIN RD,PISGAH FOREST,NC,28768,35.27682981,-82.67919355,House,
64,GATEWAY JUNCTION DR,PISGAH FOREST,NC,28768,35.27833776,-82.70552835,House,
19,WILDERNESS TRAIL RD,PISGAH FOREST,NC,28768,35.27878049,-82.70543675,House,
27,WILDERNESS TRAIL RD,PISGAH FOREST,NC,28768,35.27870926,-82.70561792,House,
50,WILDERNESS TRAIL RD,PISGAH FOREST,NC,28768,35.27896064,-82.70573927,House,
71,WILDERNESS TRAIL RD,PISGAH FOREST,NC,28768,35.27919463,-82.70627897,House,
86,WILDERNESS TRAIL RD,PISGAH FOREST,NC,28768,35.27917592,-82.70589252,House,
96,WILDERNESS TRAIL RD,PISGAH FOREST,NC,28768,35.2792271,-82.70566758,House,
118,WILDERNESS TRAIL RD,PISGAH FOREST,NC,28768,35.27941476,-82.70532592,House,
128,WILDERNESS TRAIL RD,PISGAH FOREST,NC,28768,35.27958502,-82.70520328,House,
142,WILDERNESS TRAIL RD,PISGAH FOREST,NC,28768,35.27978541,-82.70519377,House,
197,WILDERNESS TRAIL RD,PISGAH FOREST,NC,28768,35.27979664,-82.70552226,House,
207,WILDERNESS TRAIL RD,PISGAH FOREST,NC,28768,35.27971912,-82.70564086,House,
217,WILDERNESS TRAIL RD,PISGAH FOREST,NC,28768,35.27965313,-82.70576301,House,
222,WILDERNESS TRAIL RD,PISGAH FOREST,NC,28768,35.27986608,-82.7059016,House,
260,WILDERNESS TRAIL RD,PISGAH FOREST,NC,28768,35.28002917,-82.70593813,House,
272,WILDERNESS TRAIL RD,PISGAH FOREST,NC,28768,35.2801617,-82.70582698,House,
288,WILDERNESS TRAIL RD,PISGAH FOREST,NC,28768,35.28032543,-82.70575999,House,
321,WILDERNESS TRAIL RD,PISGAH FOREST,NC,28768,35.28044557,-82.7061329,House,
313,WILDERNESS TRAIL RD,PISGAH FOREST,NC,28768,35.28047476,-82.70597775,House,
300,WILDERNESS TRAIL RD,PISGAH FOREST,NC,28768,35.28062975,-82.7056991,House,
304,WILDERNESS TRAIL RD,PISGAH FOREST,NC,28768,35.28078671,-82.70566783,House,
308,WILDERNESS TRAIL RD,PISGAH FOREST,NC,28768,35.28078541,-82.70585964,House,
318,WILDERNESS TRAIL RD,PISGAH FOREST,NC,28768,35.2807288,-82.70611227,House,
333,WILDERNESS TRAIL RD,PISGAH FOREST,NC,28768,35.28060442,-82.70643261,House,
356,WILDERNESS TRAIL RD,PISGAH FOREST,NC,28768,35.28097243,-82.70603768,House,
359,WILDERNESS TRAIL RD,PISGAH FOREST,NC,28768,35.28099126,-82.70642042,House,
369,WILDERNESS TRAIL RD,PISGAH FOREST,NC,28768,35.28111128,-82.70634206,House,
368,WILDERNESS TRAIL RD,PISGAH FOREST,NC,28768,35.28116787,-82.7059907,House,
381,WILDERNESS TRAIL RD,PISGAH FOREST,NC,28768,35.28124978,-82.70645828,House,
378,WILDERNESS TRAIL RD,PISGAH FOREST,NC,28768,35.28132265,-82.70607412,House,
174,GATEWAY JUNCTION DR,PISGAH FOREST,NC,28768,35.27969272,-82.70467914,House,
188,GATEWAY JUNCTION DR,PISGAH FOREST,NC,28768,35.27989825,-82.70470154,House,
61,GATEWAY JUNCTION DR,PISGAH FOREST,NC,28768,35.27835739,-82.70578789,Other,
39,EMMA'S PATH,PISGAH FOREST,NC,28768,35.27932032,-82.68244248,House,
22,CAPPS RD,PISGAH FOREST,NC,28768,35.27138832,-82.68867231,Other,
192,COX RD,PISGAH FOREST,NC,28768,35.27210508,-82.67106261,House,
319,GATEWAY JUNCTION DR,PISGAH FOREST,NC,28768,35.28157624,-82.70428461,House,
266,GATEWAY JUNCTION DR,PISGAH FOREST,NC,28768,35.28105059,-82.70384,Other,
146,MINNIE LN,PISGAH FOREST,NC,28768,35.2772219,-82.69524135,House,
102,MINNIE LN,PISGAH FOREST,NC,28768,35.27760872,-82.69468088,House,
35,MINNIE LN,PISGAH FOREST,NC,28768,35.2770542,-82.6941268,House,
214,SUMMIT RISE RD,PISGAH FOREST,NC,28768,35.2786747,-82.66181186,House,
151,SUMMIT RISE RD,PISGAH FOREST,NC,28768,35.27767151,-82.66157212,House,
38,KEMP RD,PISGAH FOREST,NC,28768,35.26503027,-82.67848552,House,
255,CHARLEY'S KNOB RD,PISGAH FOREST,NC,28768,35.27629513,-82.67200889,Other,
238,AZALEA HILLSIDE CIR,PISGAH FOREST,NC,28768,35.27444031,-82.69678192,House,
130,HENDERSONVILLE HWY,PISGAH FOREST,NC,28768,35.27288189,-82.70194259,Business,UNIT A
315,CHARLEY'S KNOB RD,PISGAH FOREST,NC,28768,35.27685177,-82.67203806,Other,
1039,BROWN RD,PISGAH FOREST,NC,28768,35.27137673,-82.67400844,Other,
927,CEMETERY RD,PISGAH FOREST,NC,28768,35.2689272,-82.69485954,House,
200,NORMCOL DR,PISGAH FOREST,NC,28768,35.28306076,-82.68364041,House,
65,JON RD,PISGAH FOREST,NC,28768,35.28422869,-82.68378644,House,
964,BROWN RD,PISGAH FOREST,NC,28768,35.2726354,-82.67555134,House,
221,WILDERNESS TRAIL RD,PISGAH FOREST,NC,28768,35.27962871,-82.70598937,House,
231,WILDERNESS TRAIL RD,PISGAH FOREST,NC,28768,35.27967467,-82.70618148,House,
199,SENTELLE LN,PISGAH FOREST,NC,28768,35.26157009,-82.68088928,House,
228,LYDAY LOOP,PISGAH FOREST,NC,28768,35.27618471,-82.66098447,House,
125,DIRT RD,PISGAH FOREST,NC,28768,35.26157112,-82.69456708,House,
81,SENTELLE LN,PISGAH FOREST,NC,28768,35.26062857,-82.67961971,House,
782,HUDLIN GAP RD,PISGAH FOREST,NC,28768,35.28157498,-82.68595541,Business,
820,ECUSTA RD,PISGAH FOREST,NC,28768,35.2605799,-82.70708461,Other,
126,BISHOP LN,PISGAH FOREST,NC,28768,35.2690946,-82.67721413,House,
45,HENDERSONVILLE HWY,PISGAH FOREST,NC,28768,35.27426462,-82.70285009,Business,B
45,HENDERSONVILLE HWY,PISGAH FOREST,NC,28768,35.2742454,-82.70267802,Business,C
45,HENDERSONVILLE HWY,PISGAH FOREST,NC,28768,35.2744791,-82.70268495,Business,D
35,K D BUG LN,PISGAH FOREST,NC,28768,35.28444288,-82.68629392,House,
70,K D BUG LN,PISGAH FOREST,NC,28768,35.28332997,-82.68551376,House,
102,K D BUG LN,PISGAH FOREST,NC,28768,35.28453794,-82.68566163,House,
1,ECUSTA RD,PISGAH FOREST,NC,28768,35.27200985,-82.70571467,Business,
475,LYDAY CREEK RD,PISGAH FOREST,NC,28768,35.28266844,-82.66260727,House,
69,HENDERSONVILLE HWY,PISGAH FOREST,NC,28768,35.27379936,-82.70254539,Business,
49,PISGAH HWY,PISGAH FOREST,NC,28768,35.27371308,-82.70498974,Business,
45,HENDERSONVILLE HWY,PISGAH FOREST,NC,28768,35.27420357,-82.70281806,Business,
226,HENDERSONVILLE HWY,PISGAH FOREST,NC,28768,35.2723961,-82.70047132,Business,
130,HENDERSONVILLE HWY,PISGAH FOREST,NC,28768,35.27293017,-82.70198377,Business,
1348,HENDERSONVILLE HWY,PISGAH FOREST,NC,28768,35.27018912,-82.68080103,Apartment,
860,DAVIDSON RIVER RD,PISGAH FOREST,NC,28768,35.26704984,-82.69856269,House,
237,WILDERNESS TRAIL RD,PISGAH FOREST,NC,28768,35.27981824,-82.70634746,House,
248,WILDERNESS TRAIL RD,PISGAH FOREST,NC,28768,35.27990812,-82.70607795,House,
296,WILDERNESS TRAIL RD,PISGAH FOREST,NC,28768,35.28046788,-82.70567798,House,
20,BETHS LN,PISGAH FOREST,NC,28768,35.28050416,-82.70525054,House,
30,BETHS LN,PISGAH FOREST,NC,28768,35.28065956,-82.70521992,House,
40,BETHS LN,PISGAH FOREST,NC,28768,35.28085333,-82.70520546,House,
195,GIBBS LN,PISGAH FOREST,NC,28768,35.27862535,-82.70062651,Business,
270,BROWN RD,PISGAH FOREST,NC,28768,35.27182533,-82.68081752,Business,
260,ENON MOUNTAIN RD,PISGAH FOREST,NC,28768,35.27504069,-82.66683662,House,
773,CAPPS RD,PISGAH FOREST,NC,28768,35.27910309,-82.69517298,Other,
113,SMITH RD,PISGAH FOREST,NC,28768,35.26844494,-82.6797855,Other,
184,ROSEY WAY,PISGAH FOREST,NC,28768,35.26627926,-82.68957518,House,
186,ROSEY WAY,PISGAH FOREST,NC,28768,35.26636537,-82.68972576,House,
37,EMMA'S PATH,PISGAH FOREST,NC,28768,35.27963115,-82.68256541,Other,
280,HUDLIN GAP RD,PISGAH FOREST,NC,28768,35.27641649,-82.68629064,Other,
190,COX RD,PISGAH FOREST,NC,28768,35.27228281,-82.6704817,Other,
112,OLD LITTLE MOUNTAIN RD,PISGAH FOREST,NC,28768,35.27832726,-82.67542418,Other,
349,CHARLEY'S KNOB RD,PISGAH FOREST,NC,28768,35.27749818,-82.67175127,House,
83,SENTELLE LN,PISGAH FOREST,NC,28768,35.26046,-82.680559,House,
51,SULA'S HL,PISGAH FOREST,NC,28768,35.273165,-82.665712,House,
27,SUMMIT RISE RD,PISGAH FOREST,NC,28768,35.277397,-82.660705,House,
75,ERNEST WAY,PISGAH FOREST,NC,28768,35.28576,-82.694702,House,
434,KELLY LN,PISGAH FOREST,NC,28768,35.27499,-82.683724,House,
239,ENON MOUNTAIN RD,PISGAH FOREST,NC,28768,35.273403,-82.667229,House,
61,AHAVA RD,PISGAH FOREST,NC,28768,35.278567,-82.686727,House,
15,AHAVA RD,PISGAH FOREST,NC,28768,35.27856,-82.687429,House,
35,AHAVA RD,PISGAH FOREST,NC,28768,35.278593,-82.687051,House,
95,LYDAY LOOP,PISGAH FOREST,NC,28768,35.274979,-82.663406,House,
565,BROWN RD,PISGAH FOREST,NC,28768,35.276461,-82.678707,House,
124,CHARLEY'S KNOB RD,PISGAH FOREST,NC,28768,35.274503,-82.671822,Business,
684,GLADE CREEK RD,PISGAH FOREST,NC,28768,35.269658,-82.683848,House,
683,GLADE CREEK RD,PISGAH FOREST,NC,28768,35.269529,-82.68434,House,
310,CAPPS RD,PISGAH FOREST,NC,28768,35.275281,-82.688616,House,
31,CEMETERY RD,PISGAH FOREST,NC,28768,35.261011,-82.697943,House,
3843,OLD HENDERSONVILLE HWY,PISGAH FOREST,NC,28768,35.266922,-82.671277,Other,
151,OLD NC 280 HWY,PISGAH FOREST,NC,28768,35.285166,-82.695203,House,
56,OLD LITTLE MOUNTAIN RD,PISGAH FOREST,NC,28768,35.276855,-82.675481,Other,
775,CAPPS RD,PISGAH FOREST,NC,28768,35.279223,-82.694883,Other,
182,SENTELLE LN,PISGAH FOREST,NC,28768,35.261848,-82.682443,Other,
49,CAPPS RD,PISGAH FOREST,NC,28768,35.271548,-82.689354,Other,
29,CAPPS RD,PISGAH FOREST,NC,28768,35.271208,-82.689301,Other,
2640,ASHEVILLE HWY,PISGAH FOREST,NC,28768,35.274546,-82.702824,Other,
1278,PISGAH HWY,PISGAH FOREST,NC,28768,35.283566,-82.72007,House,
1280,PISGAH HWY,PISGAH FOREST,NC,28768,35.283566,-82.721834,Other,
1344,PISGAH HWY,PISGAH FOREST,NC,28768,35.283711,-82.722225,Other,
459,CHARLEY'S KNOB RD,PISGAH FOREST,NC,28768,35.279114,-82.672797,House,
561,BROWN RD,PISGAH FOREST,NC,28768,35.275452,-82.679033,House,
406,UPPER GLADE CREEK RD,PISGAH FOREST,NC,28768,35.270879,-82.68672,House,
242,KEMP RD,PISGAH FOREST,NC,28768,35.267381,-82.67655,House,
240,KEMP RD,PISGAH FOREST,NC,28768,35.267188,-82.676603,House,
33,FOX HOLE RUN,PISGAH FOREST,NC,28768,35.284,-82.664818,House,
130,SUMMIT RISE RD,PISGAH FOREST,NC,28768,35.278502,-82.660834,House,
33,DEAVOR RD,PISGAH FOREST,NC,28768,35.274671,-82.702129,Other,
3839,OLD HENDERSONVILLE HWY,PISGAH FOREST,NC,28768,35.267682,-82.672148,Other,
161,GREY HAVENS DR,PISGAH FOREST,NC,28768,35.266596,-82.689343,House,
3464,ASHEVILLE HWY,PISGAH FOREST,NC,28768,35.28327,-82.691748,Other,
