Number,Street,City,State,PostalCode,Latitude,Longitude,Type,ApartmentNumber
1289,DAVIDSON RIVER RD,PISGAH FOREST,NC,28768,35.270275,-82.69383866,House, 
1292,DAVIDSON RIVER RD,PISGAH FOREST,NC,28768,35.27033252,-82.69349232,House, 
63,DEAVOR RD,PISGAH FOREST,NC,28768,35.2744372,-82.70185431,House, 
87,DEAVOR RD,PISGAH FOREST,NC,28768,35.27418244,-82.70147449,House, 
121,DEAVOR RD,PISGAH FOREST,NC,28768,35.27513993,-82.69900555,House, 
124,DEAVOR RD,PISGAH FOREST,NC,28768,35.27354278,-82.70121338,House, 
142,DEAVOR RD,PISGAH FOREST,NC,28768,35.27341115,-82.70094195,House, 
178,DEAVOR RD,PISGAH FOREST,NC,28768,35.27326697,-82.70034369,House, 
198,DEAVOR RD,PISGAH FOREST,NC,28768,35.27321546,-82.7000235,House, 
212,DEAVOR RD,PISGAH FOREST,NC,28768,35.2731933,-82.69970532,House, 
240,DEAVOR RD,PISGAH FOREST,NC,28768,35.27326625,-82.69920371,House, 
279,DEAVOR RD,PISGAH FOREST,NC,28768,35.27373407,-82.69793124,House, 
308,DEAVOR RD,PISGAH FOREST,NC,28768,35.27329094,-82.69811604,House, 
324,DEAVOR RD,PISGAH FOREST,NC,28768,35.27321385,-82.69785699,House, 
348,DEAVOR RD,PISGAH FOREST,NC,28768,35.27307641,-82.69760111,House, 
121,DRAGONFLY DR,PISGAH FOREST,NC,28768,35.26576205,-82.68198248,House, 
173,DRAGONFLY DR,PISGAH FOREST,NC,28768,35.26580461,-82.68296287,House, 
260,DRAGONFLY DR,PISGAH FOREST,NC,28768,35.266152,-82.68356166,House, 
134,E DOGWOOD LN,PISGAH FOREST,NC,28768,35.28547631,-82.68731811,House, 
183,E EDWARDS RD,PISGAH FOREST,NC,28768,35.27480599,-82.69761309,House, 
205,E EDWARDS RD,PISGAH FOREST,NC,28768,35.27526295,-82.69730208,House, 
251,E EDWARDS RD,PISGAH FOREST,NC,28768,35.27584462,-82.69686851,House, 
289,E EDWARDS RD,PISGAH FOREST,NC,28768,35.27606869,-82.69622451,House, 
119,ECUSTA RD,PISGAH FOREST,NC,28768,35.27079914,-82.70457749,House, 
360,ECUSTA RD,PISGAH FOREST,NC,28768,35.26702835,-82.7062244,House, 
451,ECUSTA RD,PISGAH FOREST,NC,28768,35.26539531,-82.70519727,House, 
490,ECUSTA RD,PISGAH FOREST,NC,28768,35.26492252,-82.70628782,House, 
843,ECUSTA RD,PISGAH FOREST,NC,28768,35.26008019,-82.70519005,House, 
393,ECUSTA RD,PISGAH FOREST,NC,28768,35.26633532,-82.70539499,House,STE 220
18,EMMA'S PATH,PISGAH FOREST,NC,28768,35.2784707,-82.68321881,House, 
66,EMMA'S PATH,PISGAH FOREST,NC,28768,35.2787925,-82.68250988,House, 
103,EMMA'S PATH,PISGAH FOREST,NC,28768,35.27915169,-82.6820868,House, 
97,EMMETT RD,PISGAH FOREST,NC,28768,35.28248211,-82.65962725,House, 
100,EMMETT RD,PISGAH FOREST,NC,28768,35.28262479,-82.65952118,House, 
501,ENON MOUNTAIN RD,PISGAH FOREST,NC,28768,35.27585548,-82.66586466,House, 
617,ENON MOUNTAIN RD,PISGAH FOREST,NC,28768,35.27703529,-82.66584592,House, 
747,ENON MOUNTAIN RD,PISGAH FOREST,NC,28768,35.27849789,-82.66519733,House, 
13,ENON RD,PISGAH FOREST,NC,28768,35.27194944,-82.66171815,House, 
33,EVERGREEN CV,PISGAH FOREST,NC,28768,35.27056893,-82.67415714,House, 
63,EVERGREEN CV,PISGAH FOREST,NC,28768,35.27015621,-82.67424865,House, 
83,EVERGREEN CV,PISGAH FOREST,NC,28768,35.2698793,-82.67434899,House, 
15,FIRST ST,PISGAH FOREST,NC,28768,35.26220898,-82.69818732,House, 
41,FIRST ST,PISGAH FOREST,NC,28768,35.26221987,-82.69756107,House, 
69,FIRST ST,PISGAH FOREST,NC,28768,35.26213527,-82.69716442,House, 
101,FIRST ST,PISGAH FOREST,NC,28768,35.26211375,-82.69665367,House, 
117,FIRST ST,PISGAH FOREST,NC,28768,35.26214922,-82.69633271,House, 
15,FISHING HOLE LN,PISGAH FOREST,NC,28768,35.27776554,-82.69112857,House, 
46,FISHING HOLE LN,PISGAH FOREST,NC,28768,35.27759183,-82.69159382,House, 
96,FISHING HOLE LN,PISGAH FOREST,NC,28768,35.2775223,-82.69210358,House, 
40,FOREST GATE DR,PISGAH FOREST,NC,28768,35.27545025,-82.70283544,House, 
41,FOREST GATE DR,PISGAH FOREST,NC,28768,35.27510714,-82.70414575,House, 
61,FOREST GATE DR,PISGAH FOREST,NC,28768,35.27561257,-82.7040088,House, 
63,FOREST GATE DR,PISGAH FOREST,NC,28768,35.27567872,-82.7039711,House, 
83,FOREST GATE DR,PISGAH FOREST,NC,28768,35.27575397,-82.70396617,House, 
85,FOREST GATE DR,PISGAH FOREST,NC,28768,35.27585163,-82.70398386,House, 
87,FOREST GATE DR,PISGAH FOREST,NC,28768,35.27594025,-82.70398449,House, 
91,FOREST GATE DR,PISGAH FOREST,NC,28768,35.27608657,-82.7040143,House, 
93,FOREST GATE DR,PISGAH FOREST,NC,28768,35.27616917,-82.70403297,House, 
99,FOREST GATE DR,PISGAH FOREST,NC,28768,35.27621369,-82.70403808,House, 
101,FOREST GATE DR,PISGAH FOREST,NC,28768,35.27626368,-82.70400697,House, 
105,FOREST GATE DR,PISGAH FOREST,NC,28768,35.27629882,-82.70401007,House, 
115,FOREST GATE DR,PISGAH FOREST,NC,28768,35.27635217,-82.70403042,House, 
177,FOREST GATE DR,PISGAH FOREST,NC,28768,35.2773072,-82.70384354,House, 
239,FOREST GATE DR,PISGAH FOREST,NC,28768,35.27768141,-82.70302846,House, 
275,FOREST GATE DR,PISGAH FOREST,NC,28768,35.27802519,-82.7020114,House, 
375,FOREST GATE DR,PISGAH FOREST,NC,28768,35.27588296,-82.70224484,House, 
76,FOX HOLE RUN,PISGAH FOREST,NC,28768,35.2833914,-82.66518004,House, 
192,FOX HOLE RUN,PISGAH FOREST,NC,28768,35.28318171,-82.66679325,House, 
23,FULCHER DR,PISGAH FOREST,NC,28768,35.26578836,-82.69039589,House, 
46,FULCHER DR,PISGAH FOREST,NC,28768,35.26591294,-82.68979003,House, 
62,FULCHER DR,PISGAH FOREST,NC,28768,35.26614418,-82.6899596,House, 
82,FULCHER DR,PISGAH FOREST,NC,28768,35.26640343,-82.69039624,House, 
97,FULCHER DR,PISGAH FOREST,NC,28768,35.26599836,-82.69061424,House, 
98,FULCHER DR,PISGAH FOREST,NC,28768,35.26615431,-82.69090468,House, 
3,GLADE CREEK ACRES RD,PISGAH FOREST,NC,28768,35.26339022,-82.67680166,House, 
45,GLADE CREEK ACRES RD,PISGAH FOREST,NC,28768,35.26358424,-82.67706776,House, 
57,GLADE CREEK ACRES RD,PISGAH FOREST,NC,28768,35.26386518,-82.67735704,House, 
70,GLADE CREEK ACRES RD,PISGAH FOREST,NC,28768,35.26431427,-82.67713914,House, 
21,GLADE CREEK RD,PISGAH FOREST,NC,28768,35.26641561,-82.67931436,House, 
23,GLADE CREEK RD,PISGAH FOREST,NC,28768,35.26648155,-82.67935263,House, 
93,GLADE CREEK RD,PISGAH FOREST,NC,28768,35.26340699,-82.67845922,House, 
125,GLADE CREEK RD,PISGAH FOREST,NC,28768,35.26373951,-82.6795009,House, 
127,GLADE CREEK RD,PISGAH FOREST,NC,28768,35.26379313,-82.67921226,House, 
408,GLADE CREEK RD,PISGAH FOREST,NC,28768,35.26720194,-82.68100247,House, 
411,GLADE CREEK RD,PISGAH FOREST,NC,28768,35.26666476,-82.68117246,House, 
431,GLADE CREEK RD,PISGAH FOREST,NC,28768,35.26682478,-82.68182781,House, 
440,GLADE CREEK RD,PISGAH FOREST,NC,28768,35.26735429,-82.68126344,House, 
442,GLADE CREEK RD,PISGAH FOREST,NC,28768,35.26740324,-82.68163911,House, 
460,GLADE CREEK RD,PISGAH FOREST,NC,28768,35.26748004,-82.68194645,House, 
484,GLADE CREEK RD,PISGAH FOREST,NC,28768,35.26749606,-82.68225442,House, 
491,GLADE CREEK RD,PISGAH FOREST,NC,28768,35.26689681,-82.68230778,House, 
511,GLADE CREEK RD,PISGAH FOREST,NC,28768,35.26704097,-82.68269501,House, 
521,GLADE CREEK RD,PISGAH FOREST,NC,28768,35.26711836,-82.68306663,House, 
530,GLADE CREEK RD,PISGAH FOREST,NC,28768,35.26752947,-82.68275034,House, 
537,GLADE CREEK RD,PISGAH FOREST,NC,28768,35.26743425,-82.68307175,House, 
582,GLADE CREEK RD,PISGAH FOREST,NC,28768,35.2682846,-82.68314379,House, 
601,GLADE CREEK RD,PISGAH FOREST,NC,28768,35.26836642,-82.68401187,House, 
604,GLADE CREEK RD,PISGAH FOREST,NC,28768,35.26854471,-82.68325289,House, 
619,GLADE CREEK RD,PISGAH FOREST,NC,28768,35.26870036,-82.68395625,House, 
624,GLADE CREEK RD,PISGAH FOREST,NC,28768,35.26879274,-82.68339759,House, 
634,GLADE CREEK RD,PISGAH FOREST,NC,28768,35.26899998,-82.68364467,House, 
635,GLADE CREEK RD,PISGAH FOREST,NC,28768,35.26896692,-82.68416796,House, 
670,GLADE CREEK RD,PISGAH FOREST,NC,28768,35.26937603,-82.68373698,House, 
679,GLADE CREEK RD,PISGAH FOREST,NC,28768,35.26951968,-82.6843597,House, 
680,GLADE CREEK RD,PISGAH FOREST,NC,28768,35.26963468,-82.68383531,House, 
15,GREY HAVENS DR,PISGAH FOREST,NC,28768,35.26614958,-82.69152501,House, 
55,GREY HAVENS DR,PISGAH FOREST,NC,28768,35.26640613,-82.69118935,House, 
57,GREY HAVENS DR,PISGAH FOREST,NC,28768,35.26674181,-82.6911251,House, 
66,GREY HAVENS DR,PISGAH FOREST,NC,28768,35.26660987,-82.69033863,House, 
81,GREY HAVENS DR,PISGAH FOREST,NC,28768,35.26708094,-82.69093546,House, 
100,GREY HAVENS DR,PISGAH FOREST,NC,28768,35.26695982,-82.69039689,House, 
123,GREY HAVENS DR,PISGAH FOREST,NC,28768,35.26741426,-82.69066402,House, 
125,GREY HAVENS DR,PISGAH FOREST,NC,28768,35.26761845,-82.69039004,House, 
131,GREY HAVENS DR,PISGAH FOREST,NC,28768,35.2674137,-82.68989673,House, 
141,GREY HAVENS DR,PISGAH FOREST,NC,28768,35.26718555,-82.68982704,House, 
145,GREY HAVENS DR,PISGAH FOREST,NC,28768,35.26711106,-82.6893901,House, 
157,GREY HAVENS DR,PISGAH FOREST,NC,28768,35.26701007,-82.68995394,House, 
159,GREY HAVENS DR,PISGAH FOREST,NC,28768,35.26676121,-82.68971662,House, 
19,HALEY DR,PISGAH FOREST,NC,28768,35.28351609,-82.69267835,House, 
37,HALEY DR,PISGAH FOREST,NC,28768,35.28361886,-82.69293977,House, 
40,HALEY DR,PISGAH FOREST,NC,28768,35.28389918,-82.69303441,House, 
20,HENDERSONVILLE HWY,PISGAH FOREST,NC,28768,35.27329938,-82.70386801,House, 
40,HENDERSONVILLE HWY,PISGAH FOREST,NC,28768,35.27331093,-82.70333725,House, 
45,HENDERSONVILLE HWY,PISGAH FOREST,NC,28768,35.27433117,-82.70291831,Business,A
69,HENDERSONVILLE HWY,PISGAH FOREST,NC,28768,35.2737565,-82.70261602,House,STE 1
69,HENDERSONVILLE HWY,PISGAH FOREST,NC,28768,35.27372609,-82.70255146,House,STE 2
69,HENDERSONVILLE HWY,PISGAH FOREST,NC,28768,35.27381068,-82.70243289,House,STE 3
69,HENDERSONVILLE HWY,PISGAH FOREST,NC,28768,35.27384398,-82.70240282,House,STE 4
69,HENDERSONVILLE HWY,PISGAH FOREST,NC,28768,35.27386795,-82.70236047,House,STE 5
69,HENDERSONVILLE HWY,PISGAH FOREST,NC,28768,35.27394078,-82.7023085,House,STE 6
69,HENDERSONVILLE HWY,PISGAH FOREST,NC,28768,35.27400415,-82.7022482,House,STE 7
69,HENDERSONVILLE HWY,PISGAH FOREST,NC,28768,35.2740377,-82.70221024,House,STE 8
69,HENDERSONVILLE HWY,PISGAH FOREST,NC,28768,35.27406776,-82.70218002,House,STE 10
69,HENDERSONVILLE HWY,PISGAH FOREST,NC,28768,35.27409161,-82.70214161,House,STE 9
92,HENDERSONVILLE HWY,PISGAH FOREST,NC,28768,35.27324974,-82.70302533,House, 
98,HENDERSONVILLE HWY,PISGAH FOREST,NC,28768,35.27312214,-82.70259475,House, 
100,HENDERSONVILLE HWY,PISGAH FOREST,NC,28768,35.27309539,-82.7025379,House, 
104,HENDERSONVILLE HWY,PISGAH FOREST,NC,28768,35.27304575,-82.70239553,House, 
106,HENDERSONVILLE HWY,PISGAH FOREST,NC,28768,35.27301087,-82.70231394,House, 
109,HENDERSONVILLE HWY,PISGAH FOREST,NC,28768,35.27362221,-82.70188065,House, 
110,HENDERSONVILLE HWY,PISGAH FOREST,NC,28768,35.2729759,-82.70221434,House, 
130,HENDERSONVILLE HWY,PISGAH FOREST,NC,28768,35.27292515,-82.7020563,Business,UNIT B
148,HENDERSONVILLE HWY,PISGAH FOREST,NC,28768,35.27279653,-82.70157427,House, 
150,HENDERSONVILLE HWY,PISGAH FOREST,NC,28768,35.27278763,-82.70154535,House, 
152,HENDERSONVILLE HWY,PISGAH FOREST,NC,28768,35.27277911,-82.70151873,House, 
155,HENDERSONVILLE HWY,PISGAH FOREST,NC,28768,35.27331813,-82.70130876,House, 
166,HENDERSONVILLE HWY,PISGAH FOREST,NC,28768,35.27274784,-82.70145001,House, 
168,HENDERSONVILLE HWY,PISGAH FOREST,NC,28768,35.2727208,-82.70136132,House, 
174,HENDERSONVILLE HWY,PISGAH FOREST,NC,28768,35.27265113,-82.70124976,House, 
206,HENDERSONVILLE HWY,PISGAH FOREST,NC,28768,35.27250065,-82.70070658,House, 
234,HENDERSONVILLE HWY,PISGAH FOREST,NC,28768,35.27224934,-82.70005548,House, 
301,HENDERSONVILLE HWY,PISGAH FOREST,NC,28768,35.27270435,-82.69857207,House, 
321,HENDERSONVILLE HWY,PISGAH FOREST,NC,28768,35.27242531,-82.6982382,House, 
367,HENDERSONVILLE HWY,PISGAH FOREST,NC,28768,35.2721325,-82.69782675,Business, 
385,HENDERSONVILLE HWY,PISGAH FOREST,NC,28768,35.27223074,-82.69750728,House, 
399,HENDERSONVILLE HWY,PISGAH FOREST,NC,28768,35.27197931,-82.69728012,House, 
419,HENDERSONVILLE HWY,PISGAH FOREST,NC,28768,35.27206759,-82.69683847,House, 
494,HENDERSONVILLE HWY,PISGAH FOREST,NC,28768,35.27054161,-82.69642703,House, 
495,HENDERSONVILLE HWY,PISGAH FOREST,NC,28768,35.27189645,-82.69551418,House, 
551,HENDERSONVILLE HWY,PISGAH FOREST,NC,28768,35.27128309,-82.69439239,Other, 
560,HENDERSONVILLE HWY,PISGAH FOREST,NC,28768,35.2706661,-82.6948689,House, 
562,HENDERSONVILLE HWY,PISGAH FOREST,NC,28768,35.27065874,-82.69483658,House, 
578,HENDERSONVILLE HWY,PISGAH FOREST,NC,28768,35.27064873,-82.69457525,House, 
675,HENDERSONVILLE HWY,PISGAH FOREST,NC,28768,35.27083258,-82.6926526,House, 
697,HENDERSONVILLE HWY,PISGAH FOREST,NC,28768,35.27073537,-82.69220542,House, 
700,HENDERSONVILLE HWY,PISGAH FOREST,NC,28768,35.27020845,-82.69229833,House, 
702,HENDERSONVILLE HWY,PISGAH FOREST,NC,28768,35.26862462,-82.69150841,House, 
704,HENDERSONVILLE HWY,PISGAH FOREST,NC,28768,35.26881452,-82.69206849,House, 
780,HENDERSONVILLE HWY,PISGAH FOREST,NC,28768,35.26996166,-82.69112126,House, 
782,HENDERSONVILLE HWY,PISGAH FOREST,NC,28768,35.26932444,-82.69074697,House, 
820,HENDERSONVILLE HWY,PISGAH FOREST,NC,28768,35.26990503,-82.69049692,House, 
867,HENDERSONVILLE HWY,PISGAH FOREST,NC,28768,35.27057861,-82.68954826,House, 
887,HENDERSONVILLE HWY,PISGAH FOREST,NC,28768,35.27051925,-82.68920214,House, 
1001,HENDERSONVILLE HWY,PISGAH FOREST,NC,28768,35.27047914,-82.68729753,House, 
1005,HENDERSONVILLE HWY,PISGAH FOREST,NC,28768,35.27057751,-82.68591777,House, 
1009,HENDERSONVILLE HWY,PISGAH FOREST,NC,28768,35.27054303,-82.68529238,House, 
1110,HENDERSONVILLE HWY,PISGAH FOREST,NC,28768,35.26934496,-82.68548238,House, 
1188,HENDERSONVILLE HWY,PISGAH FOREST,NC,28768,35.26993489,-82.68384773,House, 
1195,HENDERSONVILLE HWY,PISGAH FOREST,NC,28768,35.27073562,-82.68381017,House, 
1210,HENDERSONVILLE HWY,PISGAH FOREST,NC,28768,35.26995961,-82.68339624,House, 
1215,HENDERSONVILLE HWY,PISGAH FOREST,NC,28768,35.27077562,-82.6834861,House, 
1220,HENDERSONVILLE HWY,PISGAH FOREST,NC,28768,35.2699944,-82.68308402,House, 
1235,HENDERSONVILLE HWY,PISGAH FOREST,NC,28768,35.27080388,-82.68314781,House, 
1250,HENDERSONVILLE HWY,PISGAH FOREST,NC,28768,35.27001592,-82.68272931,House, 
1268,HENDERSONVILLE HWY,PISGAH FOREST,NC,28768,35.27008143,-82.68236847,House, 
1295,HENDERSONVILLE HWY,PISGAH FOREST,NC,28768,35.27086776,-82.68263022,House, 
1300,HENDERSONVILLE HWY,PISGAH FOREST,NC,28768,35.27002644,-82.68206946,House, 
1303,HENDERSONVILLE HWY,PISGAH FOREST,NC,28768,35.27086086,-82.68213627,House, 
1309,HENDERSONVILLE HWY,PISGAH FOREST,NC,28768,35.2708302,-82.6818142,House, 
1310,HENDERSONVILLE HWY,PISGAH FOREST,NC,28768,35.27010695,-82.68172572,House, 
1348,HENDERSONVILLE HWY,PISGAH FOREST,NC,28768,35.27022615,-82.68086325,House,UNIT 1
1348,HENDERSONVILLE HWY,PISGAH FOREST,NC,28768,35.27022615,-82.68086325,House,UNIT 2
1425,HENDERSONVILLE HWY,PISGAH FOREST,NC,28768,35.2706908,-82.67976753,House, 
1484,HENDERSONVILLE HWY,PISGAH FOREST,NC,28768,35.2703319,-82.67913452,House, 
1588,HENDERSONVILLE HWY,PISGAH FOREST,NC,28768,35.27038973,-82.67668135,House, 
1640,HENDERSONVILLE HWY,PISGAH FOREST,NC,28768,35.2703508,-82.67595831,House, 
1653,HENDERSONVILLE HWY,PISGAH FOREST,NC,28768,35.27157216,-82.67603247,House, 
1728,HENDERSONVILLE HWY,PISGAH FOREST,NC,28768,35.27053454,-82.67456215,House, 
1868,HENDERSONVILLE HWY,PISGAH FOREST,NC,28768,35.27051706,-82.67232629,House, 
1870,HENDERSONVILLE HWY,PISGAH FOREST,NC,28768,35.27018792,-82.67226697,House, 
1915,HENDERSONVILLE HWY,PISGAH FOREST,NC,28768,35.27154604,-82.67090772,House, 
1939,HENDERSONVILLE HWY,PISGAH FOREST,NC,28768,35.27157915,-82.67057161,House, 
2000,HENDERSONVILLE HWY,PISGAH FOREST,NC,28768,35.27108965,-82.66927641,House, 
2011,HENDERSONVILLE HWY,PISGAH FOREST,NC,28768,35.2722507,-82.66838901,House, 
2080,HENDERSONVILLE HWY,PISGAH FOREST,NC,28768,35.27096808,-82.66815016,House, 
2260,HENDERSONVILLE HWY,PISGAH FOREST,NC,28768,35.27220115,-82.66521984,House, 
2425,HENDERSONVILLE HWY,PISGAH FOREST,NC,28768,35.27383387,-82.66289347,House, 
2456,HENDERSONVILLE HWY,PISGAH FOREST,NC,28768,35.27266706,-82.6613067,House, 
2484,HENDERSONVILLE HWY,PISGAH FOREST,NC,28768,35.27309927,-82.66137986,House, 
2521,HENDERSONVILLE HWY,PISGAH FOREST,NC,28768,35.27362709,-82.66093839,House, 
2525,HENDERSONVILLE HWY,PISGAH FOREST,NC,28768,35.27363316,-82.66088393,House, 
2605,HENDERSONVILLE HWY,PISGAH FOREST,NC,28768,35.27375136,-82.65980271,House, 
1486,HENDERSONVILLE HWY,PISGAH FOREST,NC,28768,35.27021779,-82.67886311,House, 
226,HENDERSONVILLE HWY,PISGAH FOREST,NC,28768,35.27241922,-82.70053178,House,STE A
226,HENDERSONVILLE HWY,PISGAH FOREST,NC,28768,35.27237935,-82.70045889,House,STE B
226,HENDERSONVILLE HWY,PISGAH FOREST,NC,28768,35.27235589,-82.70037885,House,STE C
226,HENDERSONVILLE HWY,PISGAH FOREST,NC,28768,35.2723419,-82.70030714,House,STE D
49,HOLDEN RD,PISGAH FOREST,NC,28768,35.27818355,-82.69273312,House, 
74,HOLDEN RD,PISGAH FOREST,NC,28768,35.27712287,-82.69415668,House, 
83,HOLDEN RD,PISGAH FOREST,NC,28768,35.27749938,-82.69261901,House, 
86,HOLDEN RD,PISGAH FOREST,NC,28768,35.27701604,-82.69333174,House, 
130,HOLDEN RD,PISGAH FOREST,NC,28768,35.27620636,-82.69366262,House, 
147,HOLDEN RD,PISGAH FOREST,NC,28768,35.27650404,-82.69267145,House, 
187,HOLDEN RD,PISGAH FOREST,NC,28768,35.27571935,-82.6920846,House, 
188,HOLDEN RD,PISGAH FOREST,NC,28768,35.27558094,-82.69334437,House, 
189,HOLDEN RD,PISGAH FOREST,NC,28768,35.27554674,-82.69226176,House, 
215,HOLDEN RD,PISGAH FOREST,NC,28768,35.27496087,-82.69298561,House, 
216,HOLDEN RD,PISGAH FOREST,NC,28768,35.27480898,-82.69324803,House, 
33,HUDLIN GAP RD,PISGAH FOREST,NC,28768,35.27373375,-82.6887678,House, 
74,HUDLIN GAP RD,PISGAH FOREST,NC,28768,35.27401953,-82.68788776,House, 
116,HUDLIN GAP RD,PISGAH FOREST,NC,28768,35.27426636,-82.68745017,House, 
119,HUDLIN GAP RD,PISGAH FOREST,NC,28768,35.27455833,-82.68809035,House, 
144,HUDLIN GAP RD,PISGAH FOREST,NC,28768,35.27450919,-82.68737802,House, 
145,HUDLIN GAP RD,PISGAH FOREST,NC,28768,35.27504465,-82.68785457,House, 
146,HUDLIN GAP RD,PISGAH FOREST,NC,28768,35.27448681,-82.6870486,House, 
168,HUDLIN GAP RD,PISGAH FOREST,NC,28768,35.27497504,-82.68704295,House, 
215,HUDLIN GAP RD,PISGAH FOREST,NC,28768,35.27578388,-82.68741994,House, 
307,HUDLIN GAP RD,PISGAH FOREST,NC,28768,35.27710163,-82.68668532,House, 
337,HUDLIN GAP RD,PISGAH FOREST,NC,28768,35.27730998,-82.68650202,House, 
406,HUDLIN GAP RD,PISGAH FOREST,NC,28768,35.27713213,-82.68466573,House, 
407,HUDLIN GAP RD,PISGAH FOREST,NC,28768,35.27751906,-82.68508432,House, 
437,HUDLIN GAP RD,PISGAH FOREST,NC,28768,35.27799333,-82.68528412,House, 
439,HUDLIN GAP RD,PISGAH FOREST,NC,28768,35.27787601,-82.68447253,House, 
524,HUDLIN GAP RD,PISGAH FOREST,NC,28768,35.27869922,-82.68325406,House, 
558,HUDLIN GAP RD,PISGAH FOREST,NC,28768,35.27900094,-82.68361288,House, 
587,HUDLIN GAP RD,PISGAH FOREST,NC,28768,35.27873953,-82.684134,House, 
593,HUDLIN GAP RD,PISGAH FOREST,NC,28768,35.27868695,-82.68555425,House, 
621,HUDLIN GAP RD,PISGAH FOREST,NC,28768,35.27924187,-82.68455914,House, 
632,HUDLIN GAP RD,PISGAH FOREST,NC,28768,35.28014412,-82.6843318,House, 
655,HUDLIN GAP RD,PISGAH FOREST,NC,28768,35.27970048,-82.68510722,House, 
730,HUDLIN GAP RD,PISGAH FOREST,NC,28768,35.28094491,-82.68512269,House, 
736,HUDLIN GAP RD,PISGAH FOREST,NC,28768,35.28071005,-82.68527087,House, 
738,HUDLIN GAP RD,PISGAH FOREST,NC,28768,35.28115501,-82.68506696,House, 
739,HUDLIN GAP RD,PISGAH FOREST,NC,28768,35.28083283,-82.68638549,House, 
741,HUDLIN GAP RD,PISGAH FOREST,NC,28768,35.28104959,-82.68648387,House, 
754,HUDLIN GAP RD,PISGAH FOREST,NC,28768,35.28157976,-82.6852517,House, 
795,HUDLIN GAP RD,PISGAH FOREST,NC,28768,35.28163632,-82.6862672,House, 
801,HUDLIN GAP RD,PISGAH FOREST,NC,28768,35.28189288,-82.68656042,House, 
820,HUDLIN GAP RD,PISGAH FOREST,NC,28768,35.28203095,-82.68617202,House, 
822,HUDLIN GAP RD,PISGAH FOREST,NC,28768,35.28227514,-82.68604919,House, 
833,HUDLIN GAP RD,PISGAH FOREST,NC,28768,35.28252064,-82.68675222,House, 
882,HUDLIN GAP RD,PISGAH FOREST,NC,28768,35.28269699,-82.68616038,House, 
886,HUDLIN GAP RD,PISGAH FOREST,NC,28768,35.28323182,-82.68634986,House, 
895,HUDLIN GAP RD,PISGAH FOREST,NC,28768,35.28297319,-82.6866715,House, 
897,HUDLIN GAP RD,PISGAH FOREST,NC,28768,35.28274047,-82.68704547,House, 
952,HUDLIN GAP RD,PISGAH FOREST,NC,28768,35.28401273,-82.68704085,House, 
1017,HUDLIN GAP RD,PISGAH FOREST,NC,28768,35.28373485,-82.68819475,House, 
1019,HUDLIN GAP RD,PISGAH FOREST,NC,28768,35.28369726,-82.68860965,House, 
1031,HUDLIN GAP RD,PISGAH FOREST,NC,28768,35.28437787,-82.68874458,House, 
1059,HUDLIN GAP RD,PISGAH FOREST,NC,28768,35.28454075,-82.68896048,House, 
1143,HUDLIN GAP RD,PISGAH FOREST,NC,28768,35.28493885,-82.68950014,House, 
1145,HUDLIN GAP RD,PISGAH FOREST,NC,28768,35.28494092,-82.69000325,House, 
83,JESSIE MACKEY RD,PISGAH FOREST,NC,28768,35.2660506,-82.68888772,House, 
343,JESSIE MACKEY RD,PISGAH FOREST,NC,28768,35.26710494,-82.68518538,House, 
27,JOANNA LN,PISGAH FOREST,NC,28768,35.27464733,-82.6885441,House, 
28,JOANNA LN,PISGAH FOREST,NC,28768,35.27431396,-82.68849544,House, 
35,JOANNA LN,PISGAH FOREST,NC,28768,35.27466334,-82.6884153,House, 
36,JOANNA LN,PISGAH FOREST,NC,28768,35.27431906,-82.68837482,House, 
12,JODY'S WAY,PISGAH FOREST,NC,28768,35.28266548,-82.69268363,House, 
34,JODY'S WAY,PISGAH FOREST,NC,28768,35.28252317,-82.69236481,House, 
76,JODY'S WAY,PISGAH FOREST,NC,28768,35.28246265,-82.69168524,House, 
14,JOE RD,PISGAH FOREST,NC,28768,35.26710209,-82.67698269,House, 
24,JOE RD,PISGAH FOREST,NC,28768,35.26700022,-82.6768684,House, 
30,JOE RD,PISGAH FOREST,NC,28768,35.26693315,-82.67677679,House, 
33,JON RD,PISGAH FOREST,NC,28768,35.28374008,-82.68402991,House, 
70,JON RD,PISGAH FOREST,NC,28768,35.28355924,-82.6832882,House, 
31,JONATHAN DR,PISGAH FOREST,NC,28768,35.28455478,-82.69235447,House, 
42,JONATHAN DR,PISGAH FOREST,NC,28768,35.28465763,-82.69291251,House, 
15,KAYLA WEST DR,PISGAH FOREST,NC,28768,35.27027041,-82.69264101,House, 
27,KAYLA WEST DR,PISGAH FOREST,NC,28768,35.27011549,-82.69265143,House, 
39,KAYLA WEST DR,PISGAH FOREST,NC,28768,35.26994703,-82.69264145,House, 
23,KELLY LN,PISGAH FOREST,NC,28768,35.27187941,-82.685409,House, 
40,KELLY LN,PISGAH FOREST,NC,28768,35.27195285,-82.68473039,House, 
53,KELLY LN,PISGAH FOREST,NC,28768,35.27224871,-82.6850669,House, 
74,KELLY LN,PISGAH FOREST,NC,28768,35.27251506,-82.68467732,House, 
144,KELLY LN,PISGAH FOREST,NC,28768,35.27357409,-82.68475266,House, 
183,KELLY LN,PISGAH FOREST,NC,28768,35.27411487,-82.68490831,House, 
200,KELLY LN,PISGAH FOREST,NC,28768,35.27433687,-82.68469109,House, 
226,KELLY LN,PISGAH FOREST,NC,28768,35.27470652,-82.68472605,House, 
277,KELLY LN,PISGAH FOREST,NC,28768,35.27553988,-82.6852702,House, 
