Number,Street,City,State,PostalCode,Latitude,Longitude,Type,ApartmentNumber
257,COTTON TOP DR,BREVARD,NC,28712,35.15099189,-82.7729714,House, 
260,COTTON TOP DR,BREVARD,NC,28712,35.15130435,-82.77274354,House, 
170,COUNTRY RD,BREVARD,NC,28712,35.13574269,-82.77816788,House, 
177,COUNTRY RD,BREVARD,NC,28712,35.13592017,-82.77872973,House, 
218,COUNTRY RD,BREVARD,NC,28712,35.13651705,-82.77813108,House, 
233,COUNTRY RD,BREVARD,NC,28712,35.13645813,-82.77887501,House, 
22,DALONIGEI CT,BREVARD,NC,28712,35.14860221,-82.72571102,House, 
35,DALONIGEI CT,BREVARD,NC,28712,35.14879424,-82.7265762,House, 
50,DALONIGEI CT,BREVARD,NC,28712,35.14884267,-82.72566118,House, 
55,DALONIGEI CT,BREVARD,NC,28712,35.1490249,-82.72650869,House, 
69,DALONIGEI CT,BREVARD,NC,28712,35.14932778,-82.72636725,House, 
82,DALONIGEI CT,BREVARD,NC,28712,35.14944314,-82.72529872,House, 
83,DALONIGEI CT,BREVARD,NC,28712,35.14954272,-82.72616121,House, 
95,DALONIGEI CT,BREVARD,NC,28712,35.14971044,-82.72604884,House, 
121,DALONIGEI CT,BREVARD,NC,28712,35.14995817,-82.72584984,House, 
137,DALONIGEI CT,BREVARD,NC,28712,35.15012721,-82.7256559,House, 
163,DALONIGEI CT,BREVARD,NC,28712,35.15056944,-82.72567425,House, 
164,DALONIGEI CT,BREVARD,NC,28712,35.15086258,-82.72527247,House, 
20,DEWA CT,BREVARD,NC,28712,35.1496526,-82.76378419,House, 
256,DOTSI DR,BREVARD,NC,28712,35.15846308,-82.72867951,House, 
290,DOTSI DR,BREVARD,NC,28712,35.15803227,-82.72906046,House, 
422,DOTSI DR,BREVARD,NC,28712,35.1569744,-82.72711418,House, 
519,DOTSI DR,BREVARD,NC,28712,35.15664901,-82.72558475,House, 
622,DOTSI DR,BREVARD,NC,28712,35.1554973,-82.72464177,House, 
648,DOTSI DR,BREVARD,NC,28712,35.15505217,-82.72404185,House, 
661,DOTSI DR,BREVARD,NC,28712,35.15559555,-82.72369985,House, 
681,DOTSI DR,BREVARD,NC,28712,35.1555713,-82.72308408,House, 
737,DOTSI DR,BREVARD,NC,28712,35.15535248,-82.72236834,House, 
744,DOTSI DR,BREVARD,NC,28712,35.15502954,-82.72210138,House, 
789,DOTSI DR,BREVARD,NC,28712,35.15536782,-82.72151276,House, 
804,DOTSI DR,BREVARD,NC,28712,35.1544299,-82.72133125,House, 
808,DOTSI DR,BREVARD,NC,28712,35.15458601,-82.72092959,House, 
835,DOTSI DR,BREVARD,NC,28712,35.15526727,-82.7206956,House, 
842,DOTSI DR,BREVARD,NC,28712,35.15460638,-82.72059431,House, 
892,DOTSI DR,BREVARD,NC,28712,35.15422676,-82.72033846,House, 
35,DOTSUWA CT,BREVARD,NC,28712,35.14066269,-82.70985053,House, 
60,DOTSUWA CT,BREVARD,NC,28712,35.13999839,-82.709475,House, 
119,DOTSUWA CT,BREVARD,NC,28712,35.14059375,-82.70861342,House, 
175,DOTSUWA CT,BREVARD,NC,28712,35.14122321,-82.70792888,House, 
184,DOTSUWA CT,BREVARD,NC,28712,35.14087591,-82.70713666,House, 
197,DOTSUWA CT,BREVARD,NC,28712,35.141356,-82.70738778,House, 
206,DOTSUWA CT,BREVARD,NC,28712,35.14109142,-82.70658524,House, 
209,DOTSUWA CT,BREVARD,NC,28712,35.14147058,-82.70675615,House, 
28,DUDI CT,BREVARD,NC,28712,35.15177985,-82.72184313,House, 
42,DUDI CT,BREVARD,NC,28712,35.15180578,-82.72143766,House, 
10,DUYA CT,BREVARD,NC,28712,35.14256472,-82.74279912,House, 
14,DUYA CT,BREVARD,NC,28712,35.14316964,-82.74262271,House, 
16,DUYA CT,BREVARD,NC,28712,35.14352776,-82.74250844,House, 
18,DUYA CT,BREVARD,NC,28712,35.14370127,-82.7423666,House, 
43,DUYA CT,BREVARD,NC,28712,35.14727964,-82.74217991,House, 
184,DVDEGI CT,BREVARD,NC,28712,35.1443873,-82.76101021,House, 
218,DVDEGI CT,BREVARD,NC,28712,35.14446079,-82.76151167,House, 
241,DVDEGI CT,BREVARD,NC,28712,35.14405631,-82.7622046,House, 
259,DVDEGI CT,BREVARD,NC,28712,35.14433478,-82.7625965,House, 
193,DVDISDI CT,BREVARD,NC,28712,35.14510491,-82.75078159,House, 
287,DVDISDI CT,BREVARD,NC,28712,35.14466007,-82.74886422,House, 
386,DVDISDI CT,BREVARD,NC,28712,35.14330373,-82.75043011,House, 
428,DVDISDI CT,BREVARD,NC,28712,35.14300555,-82.75155244,House, 
444,DVDISDI CT,BREVARD,NC,28712,35.14278169,-82.75183292,House, 
511,DVDISDI CT,BREVARD,NC,28712,35.14173978,-82.75080064,House, 
527,DVDISDI CT,BREVARD,NC,28712,35.14100503,-82.75114256,House, 
547,DVDISDI CT,BREVARD,NC,28712,35.14097931,-82.75160345,House, 
585,DVDISDI CT,BREVARD,NC,28712,35.14124681,-82.75221816,House, 
630,DVDISDI CT,BREVARD,NC,28712,35.14245832,-82.75356105,House, 
632,DVDISDI CT,BREVARD,NC,28712,35.14194059,-82.75359402,House, 
23,DVGA CT,BREVARD,NC,28712,35.14414378,-82.7192516,House, 
56,DVGA CT,BREVARD,NC,28712,35.14349877,-82.71934759,House, 
75,DVGA CT,BREVARD,NC,28712,35.14339613,-82.71860101,House, 
76,DVGA CT,BREVARD,NC,28712,35.14317695,-82.71882484,House, 
58,E MOYTOY LN,BREVARD,NC,28712,35.15989201,-82.74095834,House, 
30,EAST FORK RD,BREVARD,NC,28712,35.1542206,-82.70770224,House, 
308,EAST FORK RD,BREVARD,NC,28712,35.15080351,-82.7080237,House, 
398,EAST FORK RD,BREVARD,NC,28712,35.14991512,-82.70844916,House, 
400,EAST FORK RD,BREVARD,NC,28712,35.1493909,-82.70844137,House, 
451,EAST FORK RD,BREVARD,NC,28712,35.14845267,-82.70778223,House, 
471,EAST FORK RD,BREVARD,NC,28712,35.14822989,-82.70794061,House, 
474,EAST FORK RD,BREVARD,NC,28712,35.14824344,-82.70814998,House, 
651,EAST FORK RD,BREVARD,NC,28712,35.14582841,-82.70800389,House, 
899,EAST FORK RD,BREVARD,NC,28712,35.14279207,-82.70730184,House, 
935,EAST FORK RD,BREVARD,NC,28712,35.14262672,-82.70677351,House, 
1031,EAST FORK RD,BREVARD,NC,28712,35.14187779,-82.70544282,House, 
1197,EAST FORK RD,BREVARD,NC,28712,35.13973465,-82.70620115,House, 
1681,EAST FORK RD,BREVARD,NC,28712,35.13800611,-82.71169022,House, 
2099,EAST FORK RD,BREVARD,NC,28712,35.13583309,-82.71783385,House, 
2151,EAST FORK RD,BREVARD,NC,28712,35.13534433,-82.71850809,House, 
2218,EAST FORK RD,BREVARD,NC,28712,35.13501528,-82.71958071,House, 
8394,EAST FORK RD,BREVARD,NC,28712,35.13514721,-82.77125309,House, 
8736,EAST FORK RD,BREVARD,NC,28712,35.13645279,-82.77654656,House, 
57,ECHOTA LN,BREVARD,NC,28712,35.14922456,-82.74149949,House, 
156,ECHOTA LN,BREVARD,NC,28712,35.14905841,-82.7399329,House, 
174,ECHOTA LN,BREVARD,NC,28712,35.14908788,-82.73963916,House, 
182,ECHOTA LN,BREVARD,NC,28712,35.14912098,-82.73922883,House, 
210,ECHOTA LN,BREVARD,NC,28712,35.14911798,-82.73893388,House, 
220,ECHOTA LN,BREVARD,NC,28712,35.14909779,-82.73858961,House, 
224,ECHOTA LN,BREVARD,NC,28712,35.1492372,-82.7383857,House, 
226,ECHOTA LN,BREVARD,NC,28712,35.14935989,-82.73802323,House, 
228,ECHOTA LN,BREVARD,NC,28712,35.14955511,-82.73783255,House, 
238,ECHOTA LN,BREVARD,NC,28712,35.14980842,-82.73795975,House, 
264,ECHOTA LN,BREVARD,NC,28712,35.15022565,-82.73829495,House, 
293,ECHOTA LN,BREVARD,NC,28712,35.15031651,-82.73884244,House, 
19,ELAQUA CT,BREVARD,NC,28712,35.15844929,-82.72505945,House, 
39,ELAQUA CT,BREVARD,NC,28712,35.15895049,-82.72573143,House, 
50,ELAQUA CT,BREVARD,NC,28712,35.15918457,-82.72549704,House, 
31,ELSEETOSS DR,BREVARD,NC,28712,35.1401165,-82.72935537,House, 
50,ELSEETOSS DR,BREVARD,NC,28712,35.13975452,-82.72972672,House, 
55,ELSEETOSS DR,BREVARD,NC,28712,35.13976355,-82.72874853,House, 
60,ELSEETOSS DR,BREVARD,NC,28712,35.13939797,-82.72952549,House, 
71,ELSEETOSS DR,BREVARD,NC,28712,35.13921009,-82.72888647,House, 
91,ELSEETOSS DR,BREVARD,NC,28712,35.1387884,-82.72876246,House, 
43,ENOLAH CT,BREVARD,NC,28712,35.13570481,-82.73858657,House, 
60,ENOLAH CT,BREVARD,NC,28712,35.135102,-82.73909532,House, 
20,GAGAMA CT,BREVARD,NC,28712,35.14794027,-82.71261669,House, 
21,GAGAMA CT,BREVARD,NC,28712,35.14736952,-82.71249799,House, 
51,GAGAMA CT,BREVARD,NC,28712,35.14753831,-82.71307817,House, 
75,GAGAMA CT,BREVARD,NC,28712,35.1475636,-82.71335156,House, 
87,GAGAMA CT,BREVARD,NC,28712,35.14764764,-82.71364632,House, 
102,GAGAMA CT,BREVARD,NC,28712,35.148071,-82.71421308,House, 
118,GAGAMA CT,BREVARD,NC,28712,35.14788469,-82.71440745,House, 
134,GAGAMA CT,BREVARD,NC,28712,35.14766536,-82.71441129,House, 
140,GAGAMA CT,BREVARD,NC,28712,35.14740113,-82.714406,House, 
143,GAGAMA CT,BREVARD,NC,28712,35.14712143,-82.71388248,House, 
146,GAGAMA CT,BREVARD,NC,28712,35.14706804,-82.71419312,House, 
371,GALAX LN,BREVARD,NC,28712,35.1595036,-82.69860586,House, 
852,GALAX LN,BREVARD,NC,28712,35.15388998,-82.69918457,House, 
1226,GALAX LN,BREVARD,NC,28712,35.15746843,-82.696967,House, 
12,GALUYASDI CT,BREVARD,NC,28712,35.15339006,-82.76807994,House, 
131,GALUYASDI CT,BREVARD,NC,28712,35.15235836,-82.76692806,House, 
133,GALUYASDI CT,BREVARD,NC,28712,35.15193979,-82.7672922,House, 
136,GALUYASDI CT,BREVARD,NC,28712,35.15207242,-82.76782166,House, 
142,GALUYASDI CT,BREVARD,NC,28712,35.15179598,-82.7676472,House, 
12,GALVLOI CT,BREVARD,NC,28712,35.14928168,-82.75368723,House, 
34,GANOHENV CT,BREVARD,NC,28712,35.15209251,-82.72046755,House, 
42,GANOHENV CT,BREVARD,NC,28712,35.15228813,-82.72027211,House, 
61,GANOHENV CT,BREVARD,NC,28712,35.1528865,-82.71993827,House, 
75,GANOHENV CT,BREVARD,NC,28712,35.1527504,-82.7196714,House, 
76,GANOHENV CT,BREVARD,NC,28712,35.15199164,-82.71976591,House, 
80,GANOHENV CT,BREVARD,NC,28712,35.1523215,-82.71919492,House, 
44,GASGA CT,BREVARD,NC,28712,35.14057767,-82.71825846,House, 
50,GASGA CT,BREVARD,NC,28712,35.14074969,-82.71809722,House, 
64,GASGA CT,BREVARD,NC,28712,35.14097172,-82.7178561,House, 
65,GASGA CT,BREVARD,NC,28712,35.141231,-82.71855672,House, 
88,GASGA CT,BREVARD,NC,28712,35.14126322,-82.71739996,House, 
92,GASGA CT,BREVARD,NC,28712,35.14158243,-82.71744766,House, 
104,GASGA CT,BREVARD,NC,28712,35.14166921,-82.71781267,House, 
126,GASGA CT,BREVARD,NC,28712,35.14213393,-82.71809271,House, 
134,GASGA CT,BREVARD,NC,28712,35.14238846,-82.71834925,House, 
21,GAWANV CT,BREVARD,NC,28712,35.15047252,-82.71272976,House, 
29,GAWANV CT,BREVARD,NC,28712,35.15020094,-82.71323171,House, 
100,GAWANV CT,BREVARD,NC,28712,35.15013468,-82.71415452,House, 
110,GAWANV CT,BREVARD,NC,28712,35.14996601,-82.71436386,House, 
123,GAWANV CT,BREVARD,NC,28712,35.14950565,-82.71432153,House, 
171,GAWANV CT,BREVARD,NC,28712,35.14934027,-82.71498091,House, 
194,GAWANV CT,BREVARD,NC,28712,35.14912348,-82.71601091,House, 
204,GAWANV CT,BREVARD,NC,28712,35.1489239,-82.71560324,House, 
218,GAWANV CT,BREVARD,NC,28712,35.14879435,-82.71529459,House, 
240,GAWANV CT,BREVARD,NC,28712,35.14870355,-82.71497935,House, 
250,GAWANV CT,BREVARD,NC,28712,35.14857577,-82.71466195,House, 
251,GAWANV CT,BREVARD,NC,28712,35.14863624,-82.71421891,House, 
11,GIGAGEI CT,BREVARD,NC,28712,35.15623391,-82.73687382,House, 
36,GIGAGEI CT,BREVARD,NC,28712,35.1556676,-82.73697276,House, 
57,GIGAGEI CT,BREVARD,NC,28712,35.15581387,-82.73620828,House, 
70,GIGAGEI CT,BREVARD,NC,28712,35.15549584,-82.73651044,House, 
93,GIGAGEI CT,BREVARD,NC,28712,35.15562383,-82.73586744,House, 
97,GIGAGEI CT,BREVARD,NC,28712,35.15533689,-82.73563269,House, 
100,GIGAGEI CT,BREVARD,NC,28712,35.15502731,-82.73592968,House, 
27,GILI CT,BREVARD,NC,28712,35.14272369,-82.73314972,House, 
32,GILI CT,BREVARD,NC,28712,35.14329274,-82.73367693,House, 
33,GILI CT,BREVARD,NC,28712,35.14277654,-82.7335635,House, 
34,GILI CT,BREVARD,NC,28712,35.14293122,-82.73388237,House, 
5,GIRL SCOUT RD,BREVARD,NC,28712,35.14007757,-82.77343264,House, 
111,GIRL SCOUT RD,BREVARD,NC,28712,35.1395887,-82.77503479,House, 
125,GIRL SCOUT RD,BREVARD,NC,28712,35.13901639,-82.77532477,House, 
155,GIRL SCOUT RD,BREVARD,NC,28712,35.14020697,-82.77681368,House, 
385,GIRL SCOUT RD,BREVARD,NC,28712,35.14199216,-82.77920533,House, 
471,GIRL SCOUT RD,BREVARD,NC,28712,35.14320936,-82.77930919,House, 
515,GIRL SCOUT RD,BREVARD,NC,28712,35.14379314,-82.77944117,House, 
570,GIRL SCOUT RD,BREVARD,NC,28712,35.144557,-82.77955986,House, 
771,GIRL SCOUT RD,BREVARD,NC,28712,35.14578708,-82.78172419,House, 
28,GOGV CT,BREVARD,NC,28712,35.14910128,-82.73066867,House, 
20,GOLANV CT,BREVARD,NC,28712,35.15536043,-82.73814395,House, 
36,GOLANV CT,BREVARD,NC,28712,35.15503021,-82.73744235,House, 
45,GOLANV CT,BREVARD,NC,28712,35.15514134,-82.73721739,House, 
165,GOLDEN EAGLE TRL,BREVARD,NC,28712,35.15979532,-82.77239102,House, 
23,GRAY SQUIRREL LN,BREVARD,NC,28712,35.13526577,-82.7101278,House, 
170,GRAY SQUIRREL LN,BREVARD,NC,28712,35.13586287,-82.70851354,House, 
171,GRAY SQUIRREL LN,BREVARD,NC,28712,35.13593802,-82.7088221,House, 
6280,GREENVILLE HWY,BREVARD,NC,28712,35.15848114,-82.71658733,House, 
6607,GREENVILLE HWY,BREVARD,NC,28712,35.15877365,-82.71085726,House, 
6776,GREENVILLE HWY,BREVARD,NC,28712,35.15553266,-82.70912046,House, 
6780,GREENVILLE HWY,BREVARD,NC,28712,35.15425408,-82.70908427,House, 
7009,GREENVILLE HWY,BREVARD,NC,28712,35.15435154,-82.70544846,House, 
7051,GREENVILLE HWY,BREVARD,NC,28712,35.15390289,-82.70448275,House, 
7271,GREENVILLE HWY,BREVARD,NC,28712,35.15226545,-82.70129811,House, 
7274,GREENVILLE HWY,BREVARD,NC,28712,35.15197596,-82.70226786,House, 
7321,GREENVILLE HWY,BREVARD,NC,28712,35.15188851,-82.70067727,House, 
7350,GREENVILLE HWY,BREVARD,NC,28712,35.15058474,-82.7005225,House, 
7389,GREENVILLE HWY,BREVARD,NC,28712,35.1510376,-82.69926036,House, 
7391,GREENVILLE HWY,BREVARD,NC,28712,35.15102511,-82.69923037,House, 
7737,GREENVILLE HWY,BREVARD,NC,28712,35.14980581,-82.69387581,House, 
7765,GREENVILLE HWY,BREVARD,NC,28712,35.15043567,-82.69356053,House, 
7820,GREENVILLE HWY,BREVARD,NC,28712,35.14792296,-82.69398947,House, 
7825,GREENVILLE HWY,BREVARD,NC,28712,35.14939677,-82.69219172,House, 
7846,GREENVILLE HWY,BREVARD,NC,28712,35.14890816,-82.6921665,House, 
7885,GREENVILLE HWY,BREVARD,NC,28712,35.14943887,-82.69148021,House, 
154,GREENWOOD LN,BREVARD,NC,28712,35.14765397,-82.69076479,House, 
246,GREENWOOD LN,BREVARD,NC,28712,35.14726735,-82.69139007,House, 
278,GREENWOOD LN,BREVARD,NC,28712,35.14770379,-82.69181599,House, 
306,GREENWOOD LN,BREVARD,NC,28712,35.14785704,-82.69227557,House, 
330,GREENWOOD LN,BREVARD,NC,28712,35.14803362,-82.69272547,House, 
19,GULEDISGONIHI CT,BREVARD,NC,28712,35.14449644,-82.73183905,House, 
40,GULEDISGONIHI CT,BREVARD,NC,28712,35.14498266,-82.73167501,House, 
53,GULEDISGONIHI CT,BREVARD,NC,28712,35.14483224,-82.73237103,House, 
56,GULEDISGONIHI CT,BREVARD,NC,28712,35.14537859,-82.73200687,House, 
67,GULEDISGONIHI CT,BREVARD,NC,28712,35.14502688,-82.73257197,House, 
72,GULEDISGONIHI CT,BREVARD,NC,28712,35.14548652,-82.73228217,House, 
93,GULEDISGONIHI CT,BREVARD,NC,28712,35.14522639,-82.73279957,House, 
128,GULEDISGONIHI CT,BREVARD,NC,28712,35.14599457,-82.73306489,House, 
137,GULEDISGONIHI CT,BREVARD,NC,28712,35.14567341,-82.73342291,House, 
163,GULEDISGONIHI CT,BREVARD,NC,28712,35.14641234,-82.73404429,House, 
164,GULEDISGONIHI CT,BREVARD,NC,28712,35.1465346,-82.73371875,House, 
56,GUQUE CT,BREVARD,NC,28712,35.14795096,-82.71121874,House, 
64,GUQUE CT,BREVARD,NC,28712,35.14825937,-82.71077474,House, 
45,GUSTI CT,BREVARD,NC,28712,35.15098178,-82.74229645,House, 
57,GUSTI CT,BREVARD,NC,28712,35.15059331,-82.74235163,House, 
65,GUSV CT,BREVARD,NC,28712,35.15852095,-82.72696669,House, 
12,GUWA CT,BREVARD,NC,28712,35.14223683,-82.71412939,House, 
16,GUWA CT,BREVARD,NC,28712,35.1424754,-82.71421237,House, 
19,GUWA CT,BREVARD,NC,28712,35.1425262,-82.71481108,House, 
20,GUWA CT,BREVARD,NC,28712,35.14268878,-82.71447807,House, 
26,GVHE CT,BREVARD,NC,28712,35.1547195,-82.7236165,House, 
44,GVHE CT,BREVARD,NC,28712,35.15434126,-82.72313123,House, 
42,GVLI DR,BREVARD,NC,28712,35.1420444,-82.71590569,House, 
66,GVLI DR,BREVARD,NC,28712,35.14233126,-82.71613419,House, 
10,HAPPY ACRES RD,BREVARD,NC,28712,35.13625964,-82.70810161,House, 
20,HAPPY ACRES RD,BREVARD,NC,28712,35.13699645,-82.70721226,House, 
142,HAPPY ACRES RD,BREVARD,NC,28712,35.13531539,-82.70681283,House, 
17,HONDAH RD,BREVARD,NC,28712,35.13747079,-82.71203972,House, 
55,HONDAH RD,BREVARD,NC,28712,35.13704109,-82.71183337,House, 
69,HONDAH RD,BREVARD,NC,28712,35.13674167,-82.71121488,House, 
183,HONDAH RD,BREVARD,NC,28712,35.1362845,-82.71015405,House, 
202,HONDAH RD,BREVARD,NC,28712,35.13572558,-82.71084374,House, 
61,INDIAN HILLS DR,BREVARD,NC,28712,35.15725517,-82.73119851,House, 
66,INDIAN HILLS DR,BREVARD,NC,28712,35.15732212,-82.73144248,House, 
71,INDIAN HILLS DR,BREVARD,NC,28712,35.15737274,-82.73154287,House, 
77,INDIAN HILLS DR,BREVARD,NC,28712,35.15744369,-82.73161749,House, 
79,INDIAN HILLS DR,BREVARD,NC,28712,35.15749609,-82.73170017,House, 
194,INDIAN HILLS DR,BREVARD,NC,28712,35.15914621,-82.73203895,House, 
46,INOLI CIR,BREVARD,NC,28712,35.15716921,-82.73892871,House, 
65,INOLI CIR,BREVARD,NC,28712,35.15720226,-82.73833931,House, 
73,INOLI CIR,BREVARD,NC,28712,35.15671389,-82.7382816,House, 
94,INOLI CIR,BREVARD,NC,28712,35.15659553,-82.73898621,House, 
95,INOLI CIR,BREVARD,NC,28712,35.15639891,-82.73830525,House, 
117,INOLI CIR,BREVARD,NC,28712,35.15597507,-82.73817179,House, 
152,INOLI CIR,BREVARD,NC,28712,35.15564778,-82.73870042,House, 
211,INOLI CIR,BREVARD,NC,28712,35.15637556,-82.73775108,House, 
253,INOLI CIR,BREVARD,NC,28712,35.1565303,-82.73726185,House, 
273,INOLI CIR,BREVARD,NC,28712,35.15683323,-82.73649216,House, 
276,INOLI CIR,BREVARD,NC,28712,35.15637879,-82.73638517,House, 
390,INOLI CIR,BREVARD,NC,28712,35.15728124,-82.73721786,House, 
417,INOLI CIR,BREVARD,NC,28712,35.15676366,-82.73783947,House, 
76,ISUHDAVGA CT,BREVARD,NC,28712,35.14247667,-82.7377299,House, 
79,ISUHDAVGA CT,BREVARD,NC,28712,35.14320202,-82.7379567,House, 
111,ISUHDAVGA CT,BREVARD,NC,28712,35.14354261,-82.73792104,House, 
11,IYA CT,BREVARD,NC,28712,35.14877909,-82.72411299,House, 
37,IYA CT,BREVARD,NC,28712,35.14902886,-82.72412878,House, 
45,IYA CT,BREVARD,NC,28712,35.14928723,-82.72407892,House, 
56,IYA CT,BREVARD,NC,28712,35.14963858,-82.72330575,House, 
59,IYA CT,BREVARD,NC,28712,35.1495569,-82.72420014,House, 
63,IYA CT,BREVARD,NC,28712,35.15019673,-82.72397924,House, 
48,JUNALUSKA RD,BREVARD,NC,28712,35.15119464,-82.74164904,House, 
80,JUNALUSKA RD,BREVARD,NC,28712,35.15042769,-82.74137605,House, 
164,JUNALUSKA RD,BREVARD,NC,28712,35.14967371,-82.74126698,House, 
170,JUNALUSKA RD,BREVARD,NC,28712,35.14939446,-82.74115854,House, 
174,JUNIPER LN,BREVARD,NC,28712,35.15996438,-82.69789578,House, 
292,JUNIPER LN,BREVARD,NC,28712,35.15822752,-82.6985691,House, 
345,JUNIPER LN,BREVARD,NC,28712,35.15780038,-82.69783207,House, 
395,JUNIPER LN,BREVARD,NC,28712,35.15669151,-82.69741178,House, 
460,JUNIPER LN,BREVARD,NC,28712,35.15641158,-82.69884328,House, 
68,KALVI CT,BREVARD,NC,28712,35.15193268,-82.73250905,House, 
73,KALVI CT,BREVARD,NC,28712,35.15202025,-82.73325691,House, 
79,KALVI CT,BREVARD,NC,28712,35.15271869,-82.73312252,House, 
59,KANASGOWA DR,BREVARD,NC,28712,35.14166561,-82.7218276,House, 
75,KANASGOWA DR,BREVARD,NC,28712,35.14141423,-82.72191166,House, 
86,KANASGOWA DR,BREVARD,NC,28712,35.14142917,-82.72248524,House, 
112,KANASGOWA DR,BREVARD,NC,28712,35.1410991,-82.72257214,House, 
119,KANASGOWA DR,BREVARD,NC,28712,35.14074921,-82.72222951,House, 
156,KANASGOWA DR,BREVARD,NC,28712,35.14064026,-82.72320333,House, 
174,KANASGOWA DR,BREVARD,NC,28712,35.14055219,-82.7235348,House, 
187,KANASGOWA DR,BREVARD,NC,28712,35.13983647,-82.72316561,House, 
194,KANASGOWA DR,BREVARD,NC,28712,35.14038292,-82.72375798,House, 
202,KANASGOWA DR,BREVARD,NC,28712,35.14008175,-82.72397654,House, 
230,KANASGOWA DR,BREVARD,NC,28712,35.13946474,-82.72435617,House, 
231,KANASGOWA DR,BREVARD,NC,28712,35.13933496,-82.7235573,House, 
271,KANASGOWA DR,BREVARD,NC,28712,35.13883257,-82.72322231,House, 
377,KANASGOWA DR,BREVARD,NC,28712,35.13784372,-82.72262134,House, 
394,KANASGOWA DR,BREVARD,NC,28712,35.13720929,-82.72276136,House, 
416,KANASGOWA DR,BREVARD,NC,28712,35.13716369,-82.72246537,House, 
428,KANASGOWA DR,BREVARD,NC,28712,35.13705002,-82.72221846,House, 
456,KANASGOWA DR,BREVARD,NC,28712,35.13693108,-82.72181604,House, 
481,KANASGOWA DR,BREVARD,NC,28712,35.13725563,-82.72114951,House, 
