Number,Street,City,State,PostalCode,Latitude,Longitude,Type,ApartmentNumber
120,S COUNTRY CLUB RD,BREVARD,NC,28712,35.20270015,-82.74573227,House, 
143,S COUNTRY CLUB RD,BREVARD,NC,28712,35.2013507,-82.74400177,House, 
163,S COUNTRY CLUB RD,BREVARD,NC,28712,35.20025703,-82.74440033,House, 
278,S COUNTRY CLUB RD,BREVARD,NC,28712,35.20158969,-82.74598119,House, 
280,S COUNTRY CLUB RD,BREVARD,NC,28712,35.20127854,-82.74667383,House, 
298,S COUNTRY CLUB RD,BREVARD,NC,28712,35.20061311,-82.74760291,House, 
309,S COUNTRY CLUB RD,BREVARD,NC,28712,35.20023628,-82.74638476,House, 
30,SAM LANCE RD,BREVARD,NC,28712,35.20974295,-82.75425573,House, 
37,SAM LANCE RD,BREVARD,NC,28712,35.20958169,-82.75362383,House, 
76,SAM LANCE RD,BREVARD,NC,28712,35.20942391,-82.75448363,House, 
82,SAM LANCE RD,BREVARD,NC,28712,35.20937785,-82.75487862,House, 
84,SAM LANCE RD,BREVARD,NC,28712,35.2088966,-82.7546734,House, 
86,SAM LANCE RD,BREVARD,NC,28712,35.20882904,-82.75443517,House, 
127,SAM LANCE RD,BREVARD,NC,28712,35.20890275,-82.754042,House, 
143,SAM LANCE RD,BREVARD,NC,28712,35.20876476,-82.75383645,House, 
170,SAM LANCE RD,BREVARD,NC,28712,35.20760841,-82.75379511,House, 
232,SAM LANCE RD,BREVARD,NC,28712,35.20725062,-82.75387982,House, 
286,SAM LANCE RD,BREVARD,NC,28712,35.20721573,-82.75481871,House, 
146,SASSAFRAS LN,PISGAH FOREST,NC,28768,35.2036716,-82.65992,House, 
19,STAGHORN LN,BREVARD,NC,28712,35.2078379,-82.70199457,House, 
131,STONERIDGE LN,PISGAH FOREST,NC,28768,35.20957193,-82.66811752,House, 
132,STONERIDGE LN,PISGAH FOREST,NC,28768,35.20985124,-82.66718361,House, 
466,SWEETWATER LN,PISGAH FOREST,NC,28768,35.20973817,-82.68339548,House, 
520,SWEETWATER LN,PISGAH FOREST,NC,28768,35.20929595,-82.6824787,House, 
624,SWEETWATER LN,PISGAH FOREST,NC,28768,35.20888343,-82.68136534,House, 
631,SWEETWATER LN,PISGAH FOREST,NC,28768,35.20906827,-82.68023655,House, 
34,SYLVAN BYWY,PISGAH FOREST,NC,28768,35.20640798,-82.66800536,House, 
117,SYLVAN BYWY,PISGAH FOREST,NC,28768,35.20662996,-82.66637618,House, 
265,SYLVAN BYWY,PISGAH FOREST,NC,28768,35.20638114,-82.6653835,House, 
395,SYLVAN BYWY,PISGAH FOREST,NC,28768,35.20754435,-82.66312982,House, 
861,SYLVAN BYWY,PISGAH FOREST,NC,28768,35.20242558,-82.66022348,House, 
977,SYLVAN BYWY,PISGAH FOREST,NC,28768,35.20291272,-82.66255146,House, 
979,SYLVAN BYWY,PISGAH FOREST,NC,28768,35.20120695,-82.66226573,House, 
994,SYLVAN BYWY,PISGAH FOREST,NC,28768,35.20268355,-82.66506911,House, 
1100,SYLVAN BYWY,PISGAH FOREST,NC,28768,35.20112488,-82.66527011,House, 
50,TOWHEE LN,BREVARD,NC,28712,35.20570381,-82.74701275,House, 
110,TOWHEE LN,BREVARD,NC,28712,35.20518617,-82.74586867,House, 
180,TOWHEE LN,BREVARD,NC,28712,35.20481531,-82.74614367,House, 
207,TOWHEE LN,BREVARD,NC,28712,35.2045142,-82.74542886,House, 
35,TULIP TREE LN,PISGAH FOREST,NC,28768,35.20779945,-82.66751874,House, 
22,WINDSONG LN,BREVARD,NC,28712,35.20751826,-82.70252886,House, 
123,WINDSONG LN,BREVARD,NC,28712,35.20678955,-82.70385518,House, 
43,WITTLE LN,BREVARD,NC,28712,35.20572521,-82.6952074,House, 
81,WITTLE LN,BREVARD,NC,28712,35.20608259,-82.69492391,House, 
83,WITTLE LN,BREVARD,NC,28712,35.20620835,-82.69485282,House, 
136,WITTLE LN,BREVARD,NC,28712,35.20682115,-82.69428061,House, 
40,WOODWIND DR,PISGAH FOREST,NC,28768,35.20971424,-82.69650706,House, 
125,WOODWIND DR,PISGAH FOREST,NC,28768,35.20888212,-82.69767466,House, 
172,WOODWIND DR,PISGAH FOREST,NC,28768,35.20953514,-82.69763835,House, 
176,WOODWIND DR,PISGAH FOREST,NC,28768,35.20930274,-82.69780265,House, 
284,WOODWIND DR,PISGAH FOREST,NC,28768,35.20957303,-82.69926008,House, 
308,WOODWIND DR,PISGAH FOREST,NC,28768,35.20935457,-82.69956071,House, 
330,WOODWIND DR,PISGAH FOREST,NC,28768,35.20916569,-82.69990696,House, 
488,WOODWIND DR,PISGAH FOREST,NC,28768,35.20811997,-82.7015597,House, 
47,WREN LN,BREVARD,NC,28712,35.2044345,-82.74703783,House, 
68,WREN LN,BREVARD,NC,28712,35.20370981,-82.74725222,House, 
71,WREN LN,BREVARD,NC,28712,35.20392735,-82.74666944,House, 
35,DOUBLE RIDGE RD,PISGAH FOREST,NC,28768,35.20910676,-82.68872954,House, 
339,HIGH MEADOWS LN,BREVARD,NC,28712,35.20028198,-82.72493588,House, 
494,HIGH MEADOWS LN,BREVARD,NC,28712,35.20052724,-82.72662104,House, 
501,HIGH MEADOWS LN,BREVARD,NC,28712,35.20154724,-82.72650766,House, 
98,NEW SORRELLS ESTS,BREVARD,NC,28712,35.20743117,-82.72598696,House, 
181,NEW SORRELLS ESTS,BREVARD,NC,28712,35.20767283,-82.72441183,House, 
189,NEW SORRELLS ESTS,BREVARD,NC,28712,35.20734876,-82.72471511,House, 
398,FIREFLY LN,PISGAH FOREST,NC,28768,35.20420528,-82.65741704,House,
752,SYLVAN BYWY,PISGAH FOREST,NC,28768,35.20477982,-82.66245165,House,
578,SYLVAN BYWY,PISGAH FOREST,NC,28768,35.20644091,-82.66168135,House,
555,SYLVAN BYWY,PISGAH FOREST,NC,28768,35.20565838,-82.65910101,House,
541,SYLVAN BYWY,PISGAH FOREST,NC,28768,35.20660946,-82.65997857,House,
464,SYLVAN BYWY,PISGAH FOREST,NC,28768,35.20689087,-82.66144706,House,
11,CHICKADEE LN,BREVARD,NC,28712,35.20524094,-82.74640521,House,
806,HIGH RIDGE RD,PISGAH FOREST,NC,28768,35.20661673,-82.68590987,House,
296,S COUNTRY CLUB RD,BREVARD,NC,28712,35.20132844,-82.74706737,House,
1788,GREENVILLE HWY,BREVARD,NC,28712,35.20830417,-82.71569418,House,
985,SYLVAN BYWY,PISGAH FOREST,NC,28768,35.20198669,-82.66365558,House,
435,MILL COVE RD,BREVARD,NC,28712,35.20252751,-82.70793996,House,
439,MILL COVE RD,BREVARD,NC,28712,35.20205212,-82.70758391,House,
575,MILL COVE RD,BREVARD,NC,28712,35.20145926,-82.70745878,House,
508,MILL COVE RD,BREVARD,NC,28712,35.20091379,-82.70831721,House,
2261,RICH MOUNTAIN RD,BREVARD,NC,28712,35.20552537,-82.68753636,House,
2259,RICH MOUNTAIN RD,BREVARD,NC,28712,35.20545814,-82.6884883,House,
1029,SUGAR LOAF RD,BREVARD,NC,28712,35.2069973,-82.72326034,House,
270,RICH MOUNTAIN RD,BREVARD,NC,28712,35.20617332,-82.71338152,House,
221,DOUBLE RIDGE RD,PISGAH FOREST,NC,28768,35.20903635,-82.6862182,House,
81,BUD SMITH LN,BREVARD,NC,28712,35.20844783,-82.72580234,House,
2500,RICH MOUNTAIN RD,BREVARD,NC,28712,35.20396388,-82.68667542,Other,
551,BECKY MOUNTAIN RD,BREVARD,NC,28712,35.20045691,-82.71292656,House,
35,RED MAPLE LN,PISGAH FOREST,NC,28768,35.2081644,-82.66163241,House,
898,SYLVAN BYWY,PISGAH FOREST,NC,28768,35.20374881,-82.66347435,House,
174,RED MAPLE LN,PISGAH FOREST,NC,28768,35.20932248,-82.6619854,House,
920,SYLVAN BYWY,PISGAH FOREST,NC,28768,35.20365211,-82.66511221,House,
371,WANDERING DOG CV,BREVARD,NC,28712,35.20047595,-82.69302464,House,
140,WANDERING DOG CV,BREVARD,NC,28712,35.2008599,-82.69601295,House,
17,ASH LN,PISGAH FOREST,NC,28768,35.20960766,-82.69941181,House,
26,RIVERMOOR DR,BREVARD,NC,28712,35.20547934,-82.74292753,Apartment,
1985,GREENVILLE HWY,BREVARD,NC,28712,35.20558123,-82.71568114,Business,
997,CHERRYWOOD LN,PISGAH FOREST,NC,28768,35.20743125,-82.67457519,House,
138,WANDERING DOG CV,BREVARD,NC,28712,35.20106175,-82.69590056,Other,
46,OLD HEATH RD,BREVARD,NC,28712,35.20664829,-82.70127147,House,
65,BIG SKY RDG,PISGAH FOREST,NC,28768,35.20963383,-82.67719406,House,
78,BIG SKY RDG,PISGAH FOREST,NC,28768,35.20921478,-82.67689235,House,
72,BIG SKY RDG,PISGAH FOREST,NC,28768,35.20889978,-82.67700827,House,
359,E FALLS VIEW DR,PISGAH FOREST,NC,28768,35.2077529,-82.6788392,House,
1101,SYLVAN BYWY,PISGAH FOREST,NC,28768,35.20072229,-82.66332233,House,
1011,POLE MILLER EXT,BREVARD,NC,28712,35.200585,-82.753959,House,
1045,POLE MILLER EXT,BREVARD,NC,28712,35.200703,-82.753499,House,
383,COUNTRY CLUB CIR,BREVARD,NC,28712,35.206309,-82.743427,House,
425,COUNTRY CLUB CIR,BREVARD,NC,28712,35.206163,-82.743089,House,
968,SUGAR LOAF RD,BREVARD,NC,28712,35.209274,-82.724915,Other,
1025,SUGAR LOAF RD,BREVARD,NC,28712,35.208701,-82.724042,Other,
991,SUGAR LOAF RD,BREVARD,NC,28712,35.20919,-82.723709,Other,
935,SUGAR LOAF RD,BREVARD,NC,28712,35.209281,-82.724008,Other,
870,SUGAR LOAF RD,BREVARD,NC,28712,35.209765,-82.724427,House,
1016,SUGAR LOAF RD,BREVARD,NC,28712,35.208671,-82.724685,Other,
432,WOODWIND DR,PISGAH FOREST,NC,28768,35.208568,-82.700912,House,
371,E FALLS VIEW DR,PISGAH FOREST,NC,28768,35.207364,-82.678133,House,
100,WINDSONG LN,BREVARD,NC,28712,35.206922,-82.703277,House,
425,BECKY MOUNTAIN RD,BREVARD,NC,28712,35.202663,-82.715022,House,
225,COUNTRY LN,BREVARD,NC,28712,35.208939,-82.737123,House,
353,COUNTRY CLUB CIR,BREVARD,NC,28712,35.20627,-82.742924,House,
50,LORRAINE LN,BREVARD,NC,28712,35.206565,-82.742891,House,
30,LORRAINE LN,BREVARD,NC,28712,35.206286,-82.742956,House,
21,LORRAINE LN,BREVARD,NC,28712,35.206648,-82.743267,House,
95,RICH MOUNTAIN RD,BREVARD,NC,28712,35.207823,-82.714539,Other,
670,WOODWIND DR,BREVARD,NC,28712,35.206211,-82.702679,House,
912,CHERRYWOOD LN,PISGAH FOREST,NC,28768,35.206555,-82.673994,Other,
