Number,Street,City,State,PostalCode,Latitude,Longitude,Type,ApartmentNumber
46,N WYNN DR,BREVARD,NC,28712,35.23601388,-82.74388557,House, 
47,N WYNN DR,BREVARD,NC,28712,35.23591689,-82.74396521,House, 
6,NORTH LN,BREVARD,NC,28712,35.23660665,-82.7414308,House, 
7,NORTH LN,BREVARD,NC,28712,35.2365024,-82.74110919,House, 
22,NORTH LN,BREVARD,NC,28712,35.23640614,-82.74152406,House, 
23,NORTH LN,BREVARD,NC,28712,35.23628524,-82.74129464,House, 
32,NORTH LN,BREVARD,NC,28712,35.23626729,-82.74158246,House, 
58,NORTH LN,BREVARD,NC,28712,35.23613206,-82.74195844,House, 
69,NORTH LN,BREVARD,NC,28712,35.23569091,-82.74164019,House, 
72,NORTH LN,BREVARD,NC,28712,35.23582215,-82.74196077,House, 
99,NORTH LN,BREVARD,NC,28712,35.23517711,-82.74212288,House, 
85,OAKDALE ST,BREVARD,NC,28712,35.23075811,-82.73814011,House, 
109,OAKDALE ST,BREVARD,NC,28712,35.23100464,-82.73839607,House, 
111,OAKDALE ST,BREVARD,NC,28712,35.23082069,-82.73837634,House, 
121,OAKDALE ST,BREVARD,NC,28712,35.23124219,-82.73862086,House, 
126,OAKDALE ST,BREVARD,NC,28712,35.2316281,-82.73827344,House, 
146,OAKDALE ST,BREVARD,NC,28712,35.23169185,-82.73851887,House, 
188,OAKDALE ST,BREVARD,NC,28712,35.23198485,-82.73891457,House,APT 1001
188,OAKDALE ST,BREVARD,NC,28712,35.23198485,-82.73891457,House,APT 1002
188,OAKDALE ST,BREVARD,NC,28712,35.23198485,-82.73891457,House,APT 1003
188,OAKDALE ST,BREVARD,NC,28712,35.23198485,-82.73891457,House,APT 1004
190,OAKDALE ST,BREVARD,NC,28712,35.23222702,-82.73920378,House,APT 901
190,OAKDALE ST,BREVARD,NC,28712,35.23222702,-82.73920378,House,APT 902
190,OAKDALE ST,BREVARD,NC,28712,35.23222702,-82.73920378,House,APT 903
190,OAKDALE ST,BREVARD,NC,28712,35.23222702,-82.73920378,House,APT 904
192,OAKDALE ST,BREVARD,NC,28712,35.23242944,-82.73906275,House,APT 801
192,OAKDALE ST,BREVARD,NC,28712,35.23242944,-82.73906275,House,APT 802
192,OAKDALE ST,BREVARD,NC,28712,35.23242944,-82.73906275,House,APT 803
192,OAKDALE ST,BREVARD,NC,28712,35.23242944,-82.73906275,House,APT 804
195,OAKDALE ST,BREVARD,NC,28712,35.23188833,-82.73955461,House, 
214,OAKDALE ST,BREVARD,NC,28712,35.23233528,-82.73945041,House, 
221,OAKDALE ST,BREVARD,NC,28712,35.2321414,-82.73973888,House, 
228,OAKDALE ST,BREVARD,NC,28712,35.23244495,-82.73959172,House, 
231,OAKDALE ST,BREVARD,NC,28712,35.23228715,-82.73989502,House,UNIT A
231,OAKDALE ST,BREVARD,NC,28712,35.23224012,-82.74004995,House,UNIT B
250,OAKDALE ST,BREVARD,NC,28712,35.23267668,-82.73985297,House, 
264,OAKDALE ST,BREVARD,NC,28712,35.23284312,-82.74007294,House, 
285,OAKDALE ST,BREVARD,NC,28712,35.23283817,-82.74059475,House, 
290,OAKDALE ST,BREVARD,NC,28712,35.23327419,-82.74066354,House, 
301,OAKDALE ST,BREVARD,NC,28712,35.23285054,-82.7407956,House, 
307,OAKDALE ST,BREVARD,NC,28712,35.23296893,-82.74084007,House, 
110,OAKDALE ST,BREVARD,NC,28712,35.23130878,-82.73816415,House,STE A
110,OAKDALE ST,BREVARD,NC,28712,35.23130878,-82.73816415,House,STE B
17,ONYX LN,BREVARD,NC,28712,35.23783152,-82.74304141,House, 
18,ONYX LN,BREVARD,NC,28712,35.23750565,-82.74311798,House, 
41,ONYX LN,BREVARD,NC,28712,35.23767994,-82.74259423,House, 
33,ORANGE ST,BREVARD,NC,28712,35.23075595,-82.73859589,House, 
50,ORANGE ST,BREVARD,NC,28712,35.23073373,-82.73904161,House, 
66,ORANGE ST,BREVARD,NC,28712,35.23048218,-82.73923672,House, 
15,PALMER ST,BREVARD,NC,28712,35.24031311,-82.73836372,House, 
26,PALMER ST,BREVARD,NC,28712,35.2406384,-82.73822381,House, 
35,PALMER ST,BREVARD,NC,28712,35.24036808,-82.73861407,House, 
49,PALMER ST,BREVARD,NC,28712,35.2404576,-82.73887406,House, 
50,PALMER ST,BREVARD,NC,28712,35.24070126,-82.73874577,House, 
62,PALMER ST,BREVARD,NC,28712,35.24051892,-82.73909351,House, 
63,PALMER ST,BREVARD,NC,28712,35.24074434,-82.73902306,House, 
68,PALMER ST,BREVARD,NC,28712,35.24112013,-82.7388843,House, 
75,PALMER ST,BREVARD,NC,28712,35.24054972,-82.73936922,House, 
90,PALMER ST,BREVARD,NC,28712,35.24088764,-82.73947354,House, 
91,PALMER ST,BREVARD,NC,28712,35.24062783,-82.73960248,House, 
114,PALMER ST,BREVARD,NC,28712,35.24107217,-82.73963226,House, 
116,PALMER ST,BREVARD,NC,28712,35.24141357,-82.73963141,House, 
125,PALMER ST,BREVARD,NC,28712,35.24068989,-82.73985149,House, 
96,PROBART ST,BREVARD,NC,28712,35.23540377,-82.73505045,Apartment,UNIT A
98,PROBART ST,BREVARD,NC,28712,35.23542007,-82.73527424,House, 
100,PROBART ST,BREVARD,NC,28712,35.23586186,-82.73502881,House, 
116,PROBART ST,BREVARD,NC,28712,35.23557455,-82.7355283,House, 
148,PROBART ST,BREVARD,NC,28712,35.23583963,-82.73587686,House, 
151,PROBART ST,BREVARD,NC,28712,35.23541356,-82.73634125,House, 
170,PROBART ST,BREVARD,NC,28712,35.2359525,-82.73623859,House, 
171,PROBART ST,BREVARD,NC,28712,35.23553627,-82.73656489,House, 
189,PROBART ST,BREVARD,NC,28712,35.23566918,-82.73688245,House, 
190,PROBART ST,BREVARD,NC,28712,35.2360809,-82.73660698,House, 
207,PROBART ST,BREVARD,NC,28712,35.2357869,-82.73708737,House, 
208,PROBART ST,BREVARD,NC,28712,35.2362623,-82.73686632,House, 
223,PROBART ST,BREVARD,NC,28712,35.23591726,-82.73740539,House, 
230,PROBART ST,BREVARD,NC,28712,35.23637778,-82.73716575,House, 
245,PROBART ST,BREVARD,NC,28712,35.23607518,-82.73772709,House, 
246,PROBART ST,BREVARD,NC,28712,35.23650124,-82.73748689,House, 
265,PROBART ST,BREVARD,NC,28712,35.23622148,-82.73804889,House, 
266,PROBART ST,BREVARD,NC,28712,35.23659993,-82.73784472,House, 
279,PROBART ST,BREVARD,NC,28712,35.23628894,-82.73827199,House, 
319,PROBART ST,BREVARD,NC,28712,35.23655724,-82.73886174,House, 
320,PROBART ST,BREVARD,NC,28712,35.23690416,-82.7385631,House, 
322,PROBART ST,BREVARD,NC,28712,35.23692368,-82.73863984,House, 
331,PROBART ST,BREVARD,NC,28712,35.23667783,-82.73906712,House, 
345,PROBART ST,BREVARD,NC,28712,35.23680009,-82.7392734,House, 
363,PROBART ST,BREVARD,NC,28712,35.23697628,-82.73971961,House, 
389,PROBART ST,BREVARD,NC,28712,35.23732565,-82.73993923,House, 
408,PROBART ST,BREVARD,NC,28712,35.23776832,-82.73967986,House, 
418,PROBART ST,BREVARD,NC,28712,35.23790552,-82.73980288,House, 
425,PROBART ST,BREVARD,NC,28712,35.23780182,-82.74028594,House, 
430,PROBART ST,BREVARD,NC,28712,35.23808545,-82.73993821,House, 
448,PROBART ST,BREVARD,NC,28712,35.23824505,-82.74009929,House,UNIT 1
448,PROBART ST,BREVARD,NC,28712,35.2382952,-82.74015103,House,UNIT 2
451,PROBART ST,BREVARD,NC,28712,35.23810709,-82.7404938,House, 
462,PROBART ST,BREVARD,NC,28712,35.23835231,-82.74031361,House, 
480,PROBART ST,BREVARD,NC,28712,35.23869829,-82.74052511,House, 
482,PROBART ST,BREVARD,NC,28712,35.23872878,-82.74057236,House, 
487,PROBART ST,BREVARD,NC,28712,35.23835514,-82.740917,House, 
489,PROBART ST,BREVARD,NC,28712,35.23810292,-82.74118612,House, 
494,PROBART ST,BREVARD,NC,28712,35.23885856,-82.74070168,House, 
500,PROBART ST,BREVARD,NC,28712,35.23887808,-82.74092073,House, 
520,PROBART ST,BREVARD,NC,28712,35.23893984,-82.74121686,House, 
533,PROBART ST,BREVARD,NC,28712,35.23875246,-82.74158414,House, 
541,PROBART ST,BREVARD,NC,28712,35.23884178,-82.74172876,House, 
546,PROBART ST,BREVARD,NC,28712,35.23919144,-82.74154557,House, 
555,PROBART ST,BREVARD,NC,28712,35.2389791,-82.74190712,House, 
560,PROBART ST,BREVARD,NC,28712,35.23927463,-82.74173709,House, 
573,PROBART ST,BREVARD,NC,28712,35.23901818,-82.74219552,House, 
584,PROBART ST,BREVARD,NC,28712,35.23946937,-82.7420991,House, 
608,PROBART ST,BREVARD,NC,28712,35.2396093,-82.74245083,House, 
609,PROBART ST,BREVARD,NC,28712,35.23933503,-82.7427523,House, 
631,PROBART ST,BREVARD,NC,28712,35.23948422,-82.74300349,House, 
644,PROBART ST,BREVARD,NC,28712,35.23982713,-82.74300703,House, 
654,PROBART ST,BREVARD,NC,28712,35.24011308,-82.74297781,House, 
674,PROBART ST,BREVARD,NC,28712,35.24024231,-82.74436982,House, 
684,PROBART ST,BREVARD,NC,28712,35.24033131,-82.74456483,House, 
24,R MERRILL LOOP,BREVARD,NC,28712,35.22424008,-82.74327762,House, 
45,R MERRILL LOOP,BREVARD,NC,28712,35.22382072,-82.74359521,House, 
48,R MERRILL LOOP,BREVARD,NC,28712,35.22404356,-82.74363372,House, 
55,R MERRILL LOOP,BREVARD,NC,28712,35.22392418,-82.74394866,House, 
63,R MERRILL LOOP,BREVARD,NC,28712,35.22407947,-82.74398721,House, 
24,RAILROAD AVE,BREVARD,NC,28712,35.23694593,-82.73788565,House, 
50,RAILROAD AVE,BREVARD,NC,28712,35.23708879,-82.73769551,House, 
70,RAILROAD AVE,BREVARD,NC,28712,35.23736016,-82.73760063,House, 
80,RAILROAD AVE,BREVARD,NC,28712,35.23746877,-82.73749835,House, 
90,RAILROAD AVE,BREVARD,NC,28712,35.23754948,-82.73740343,House, 
104,RAILROAD AVE,BREVARD,NC,28712,35.2377762,-82.73720627,House, 
118,RAILROAD AVE,BREVARD,NC,28712,35.23786713,-82.73705598,House, 
134,RAILROAD AVE,BREVARD,NC,28712,35.23804194,-82.73694043,House, 
201,RAILROAD AVE,BREVARD,NC,28712,35.23879173,-82.73614406,House, 
264,RAILROAD AVE,BREVARD,NC,28712,35.23933745,-82.73532212,House, 
284,RAILROAD AVE,BREVARD,NC,28712,35.23956379,-82.73508025,House, 
303,RAILROAD AVE,BREVARD,NC,28712,35.23943703,-82.73596455,House, 
333,RAILROAD AVE,BREVARD,NC,28712,35.24003812,-82.73524103,House, 
56,REDWOOD ST,BREVARD,NC,28712,35.21090793,-82.74191664,House, 
73,REDWOOD ST,BREVARD,NC,28712,35.21085432,-82.74157477,House, 
78,REDWOOD ST,BREVARD,NC,28712,35.21068041,-82.74162176,House, 
99,REDWOOD ST,BREVARD,NC,28712,35.21070886,-82.74122084,House, 
114,REDWOOD ST,BREVARD,NC,28712,35.21051675,-82.74100012,House, 
140,REDWOOD ST,BREVARD,NC,28712,35.21050691,-82.74055508,House, 
9,RESADA DR,BREVARD,NC,28712,35.24140444,-82.73803277,Apartment, 
10,RESADA DR,BREVARD,NC,28712,35.24181953,-82.73801587,Apartment, 
17,RESADA DR,BREVARD,NC,28712,35.24115999,-82.73824045,Apartment, 
27,RESADA DR,BREVARD,NC,28712,35.24148023,-82.73846168,Apartment, 
33,RESADA DR,BREVARD,NC,28712,35.24158914,-82.73866777,Apartment, 
36,RESADA DR,BREVARD,NC,28712,35.24185957,-82.7383644,Apartment, 
47,RESADA DR,BREVARD,NC,28712,35.24176378,-82.73882463,Apartment, 
62,RESADA DR,BREVARD,NC,28712,35.24210029,-82.73821392,Apartment, 
68,RESADA DR,BREVARD,NC,28712,35.24229523,-82.73831848,Apartment, 
75,RESADA DR,BREVARD,NC,28712,35.24244828,-82.7389577,Apartment, 
80,RESADA DR,BREVARD,NC,28712,35.24248978,-82.73843707,Apartment, 
92,RESADA DR,BREVARD,NC,28712,35.24266384,-82.73856427,Apartment, 
101,RESADA DR,BREVARD,NC,28712,35.2426193,-82.73906212,Apartment, 
106,RESADA DR,BREVARD,NC,28712,35.24286615,-82.73869416,Apartment, 
115,RESADA DR,BREVARD,NC,28712,35.24280466,-82.73919372,Apartment, 
118,RESADA DR,BREVARD,NC,28712,35.24307579,-82.7387897,Apartment, 
129,RESADA DR,BREVARD,NC,28712,35.24300068,-82.73934408,Apartment, 
132,RESADA DR,BREVARD,NC,28712,35.2432633,-82.7389858,Apartment, 
143,RESADA DR,BREVARD,NC,28712,35.24317798,-82.73948783,Apartment, 
146,RESADA DR,BREVARD,NC,28712,35.24345704,-82.73913318,Apartment, 
160,RESADA DR,BREVARD,NC,28712,35.24363582,-82.73925821,Apartment, 
166,RESADA DR,BREVARD,NC,28712,35.24380981,-82.73944706,Apartment, 
175,RESADA DR,BREVARD,NC,28712,35.2434133,-82.73966978,Apartment, 
182,RESADA DR,BREVARD,NC,28712,35.24378499,-82.73990509,Apartment, 
193,RESADA DR,BREVARD,NC,28712,35.24336655,-82.73991636,Apartment, 
196,RESADA DR,BREVARD,NC,28712,35.24370685,-82.74017998,Apartment, 
205,RESADA DR,BREVARD,NC,28712,35.24327234,-82.74016698,Apartment, 
208,RESADA DR,BREVARD,NC,28712,35.24363319,-82.74041034,Apartment, 
218,RESADA DR,BREVARD,NC,28712,35.24357086,-82.74068722,Apartment, 
224,RESADA DR,BREVARD,NC,28712,35.24336993,-82.74083784,Apartment, 
233,RESADA DR,BREVARD,NC,28712,35.24310703,-82.74035911,Apartment, 
234,RESADA DR,BREVARD,NC,28712,35.24317951,-82.74082461,Apartment, 
246,RESADA DR,BREVARD,NC,28712,35.2429793,-82.7408388,Apartment, 
254,RESADA DR,BREVARD,NC,28712,35.24272289,-82.74074557,Apartment, 
264,RESADA DR,BREVARD,NC,28712,35.24257728,-82.74051673,Apartment, 
265,RESADA DR,BREVARD,NC,28712,35.24292587,-82.74022168,Apartment, 
278,RESADA DR,BREVARD,NC,28712,35.24247877,-82.74027246,Apartment, 
279,RESADA DR,BREVARD,NC,28712,35.24283537,-82.74002556,Apartment, 
291,RESADA DR,BREVARD,NC,28712,35.24274706,-82.73974467,Apartment, 
292,RESADA DR,BREVARD,NC,28712,35.24240382,-82.74006184,Apartment, 
301,RESADA DR,BREVARD,NC,28712,35.24308286,-82.73978463,Apartment, 
306,RESADA DR,BREVARD,NC,28712,35.24229873,-82.73980024,Apartment, 
313,RESADA DR,BREVARD,NC,28712,35.2426254,-82.73942411,Apartment, 
320,RESADA DR,BREVARD,NC,28712,35.24223289,-82.73956591,Apartment, 
356,RESADA DR,BREVARD,NC,28712,35.2419734,-82.73908808,Apartment, 
12,RESERVOIR RD,BREVARD,NC,28712,35.24111238,-82.74264526,House, 
22,RESERVOIR RD,BREVARD,NC,28712,35.24126781,-82.74289535,House, 
45,RESERVOIR RD,BREVARD,NC,28712,35.24132409,-82.74336733,House, 
55,RESERVOIR RD,BREVARD,NC,28712,35.24150932,-82.74352915,House, 
56,RESERVOIR RD,BREVARD,NC,28712,35.24154708,-82.74318314,House, 
90,RESERVOIR RD,BREVARD,NC,28712,35.24216743,-82.74362496,House, 
105,RESERVOIR RD,BREVARD,NC,28712,35.24194938,-82.74423391,House, 
116,RESERVOIR RD,BREVARD,NC,28712,35.24236174,-82.74381188,House, 
117,RESERVOIR RD,BREVARD,NC,28712,35.24212289,-82.74405646,House, 
126,RESERVOIR RD,BREVARD,NC,28712,35.24240245,-82.74399488,House, 
137,RESERVOIR RD,BREVARD,NC,28712,35.24242486,-82.7442703,House, 
174,RESERVOIR RD,BREVARD,NC,28712,35.24271177,-82.74476748,House, 
181,RESERVOIR RD,BREVARD,NC,28712,35.24253345,-82.7448376,House, 
59,RONNIE DR,BREVARD,NC,28712,35.25052099,-82.74487277,House, 
114,RONNIE DR,BREVARD,NC,28712,35.25090206,-82.74374786,House, 
117,RONNIE DR,BREVARD,NC,28712,35.25095063,-82.74452262,House, 
150,RONNIE DR,BREVARD,NC,28712,35.25122563,-82.7439999,House, 
421,RONNIE DR,BREVARD,NC,28712,35.24981948,-82.74240595,House, 
29,ROSENWALD LN,BREVARD,NC,28712,35.23921834,-82.74319235,House, 
40,ROSENWALD LN,BREVARD,NC,28712,35.23914669,-82.74347902,House, 
94,ROSENWALD LN,BREVARD,NC,28712,35.238617,-82.74358489,House, 
99,ROSENWALD LN,BREVARD,NC,28712,35.23825393,-82.74293771,House, 
134,ROSENWALD LN,BREVARD,NC,28712,35.23783905,-82.74360797,House, 
166,ROSENWALD LN,BREVARD,NC,28712,35.23759667,-82.74413103,House, 
168,ROSENWALD LN,BREVARD,NC,28712,35.23733692,-82.74414221,House, 
170,ROSENWALD LN,BREVARD,NC,28712,35.23717175,-82.74361605,House, 
225,ROSENWALD LN,BREVARD,NC,28712,35.23659278,-82.74292172,House, 
234,ROSENWALD LN,BREVARD,NC,28712,35.23660363,-82.74332473,House, 
90,ROSMAN HWY,BREVARD,NC,28712,35.22590713,-82.7390169,House, 
99,ROSMAN HWY,BREVARD,NC,28712,35.22543408,-82.73867429,House, 
137,ROSMAN HWY,BREVARD,NC,28712,35.22495491,-82.73921305,House, 
163,ROSMAN HWY,BREVARD,NC,28712,35.22473791,-82.73952283,House, 
167,ROSMAN HWY,BREVARD,NC,28712,35.22468462,-82.7395794,House, 
171,ROSMAN HWY,BREVARD,NC,28712,35.22462702,-82.73965206,House, 
175,ROSMAN HWY,BREVARD,NC,28712,35.22456927,-82.73972936,House, 
181,ROSMAN HWY,BREVARD,NC,28712,35.22450148,-82.73982291,House, 
198,ROSMAN HWY,BREVARD,NC,28712,35.2249619,-82.7403923,House, 
200,ROSMAN HWY,BREVARD,NC,28712,35.22490804,-82.74046704,House, 
206,ROSMAN HWY,BREVARD,NC,28712,35.22488385,-82.74050907,House, 
210,ROSMAN HWY,BREVARD,NC,28712,35.22486363,-82.74054621,House, 
214,ROSMAN HWY,BREVARD,NC,28712,35.22484135,-82.74058791,House, 
216,ROSMAN HWY,BREVARD,NC,28712,35.22478756,-82.74066032,House, 
218,ROSMAN HWY,BREVARD,NC,28712,35.22473809,-82.74071664,House, 
220,ROSMAN HWY,BREVARD,NC,28712,35.22469441,-82.7407709,House, 
227,ROSMAN HWY,BREVARD,NC,28712,35.22411906,-82.74034487,House, 
235,ROSMAN HWY,BREVARD,NC,28712,35.22405802,-82.74045026,House, 
245,ROSMAN HWY,BREVARD,NC,28712,35.22399008,-82.7405277,House, 
247,ROSMAN HWY,BREVARD,NC,28712,35.22393631,-82.74059533,House, 
250,ROSMAN HWY,BREVARD,NC,28712,35.22433984,-82.74112511,House, 
271,ROSMAN HWY,BREVARD,NC,28712,35.22371175,-82.7408933,House, 
290,ROSMAN HWY,BREVARD,NC,28712,35.22428666,-82.7416551,House, 
310,ROSMAN HWY,BREVARD,NC,28712,35.22376548,-82.74198544,House, 
325,ROSMAN HWY,BREVARD,NC,28712,35.22305501,-82.74162372,House, 
327,ROSMAN HWY,BREVARD,NC,28712,35.22282731,-82.74121364,House, 
378,ROSMAN HWY,BREVARD,NC,28712,35.22324929,-82.74298091,House, 
380,ROSMAN HWY,BREVARD,NC,28712,35.22334245,-82.74316301,House, 
398,ROSMAN HWY,BREVARD,NC,28712,35.22288538,-82.74327262,House, 
400,ROSMAN HWY,BREVARD,NC,28712,35.22350651,-82.74337675,House, 
401,ROSMAN HWY,BREVARD,NC,28712,35.22254834,-82.7427821,House, 
412,ROSMAN HWY,BREVARD,NC,28712,35.22262488,-82.74345144,House, 
415,ROSMAN HWY,BREVARD,NC,28712,35.22228719,-82.74314,House, 
432,ROSMAN HWY,BREVARD,NC,28712,35.22247066,-82.74363842,House, 
450,ROSMAN HWY,BREVARD,NC,28712,35.2223231,-82.74394702,House, 
480,ROSMAN HWY,BREVARD,NC,28712,35.22219325,-82.74419218,House, 
500,ROSMAN HWY,BREVARD,NC,28712,35.22209984,-82.74450572,House, 
78,S BROAD ST,BREVARD,NC,28712,35.23278195,-82.73504802,House, 
96,S BROAD ST,BREVARD,NC,28712,35.23256561,-82.73519661,House, 
130,S BROAD ST,BREVARD,NC,28712,35.23213889,-82.73554405,House, 
150,S BROAD ST,BREVARD,NC,28712,35.23198324,-82.73562588,House, 
155,S BROAD ST,BREVARD,NC,28712,35.23162152,-82.73528892,Other, 
156,S BROAD ST,BREVARD,NC,28712,35.23189206,-82.73571151,House, 
157,S BROAD ST,BREVARD,NC,28712,35.23167805,-82.73512907,House, 
170,S BROAD ST,BREVARD,NC,28712,35.23167585,-82.73606146,House,STE 1
170,S BROAD ST,BREVARD,NC,28712,35.23164158,-82.73601189,House,STE 2
170,S BROAD ST,BREVARD,NC,28712,35.23161284,-82.73593785,House,STE 3
170,S BROAD ST,BREVARD,NC,28712,35.23167183,-82.73588238,House,STE 4
170,S BROAD ST,BREVARD,NC,28712,35.23158759,-82.73594396,House,STE 5
210,S BROAD ST,BREVARD,NC,28712,35.23120137,-82.73626917,House, 
212,S BROAD ST,BREVARD,NC,28712,35.23126929,-82.73655132,House,STE 14
212,S BROAD ST,BREVARD,NC,28712,35.23134511,-82.73650767,House,STE 21
212,S BROAD ST,BREVARD,NC,28712,35.23123877,-82.73647312,House,STE 22
212,S BROAD ST,BREVARD,NC,28712,35.23131003,-82.73643799,House,STE 23
212,S BROAD ST,BREVARD,NC,28712,35.23119862,-82.73638226,House,STE C
214,S BROAD ST,BREVARD,NC,28712,35.23106797,-82.7363708,House, 
224,S BROAD ST,BREVARD,NC,28712,35.23099103,-82.73676349,House, 
230,S BROAD ST,BREVARD,NC,28712,35.23087667,-82.73649141,House, 
234,S BROAD ST,BREVARD,NC,28712,35.23089161,-82.7368349,House,UNIT A
242,S BROAD ST,BREVARD,NC,28712,35.23073622,-82.73670529,House, 
280,S BROAD ST,BREVARD,NC,28712,35.2303131,-82.73687481,House, 
300,S BROAD ST,BREVARD,NC,28712,35.23011341,-82.73718369,House, 
320,S BROAD ST,BREVARD,NC,28712,35.2299297,-82.73751661,House,STE 4
318,S BROAD ST,BREVARD,NC,28712,35.22997562,-82.73748605,House, 
324,S BROAD ST,BREVARD,NC,28712,35.229871,-82.73754497,House, 
326,S BROAD ST,BREVARD,NC,28712,35.22982369,-82.73757674,House, 
355,S BROAD ST,BREVARD,NC,28712,35.22918915,-82.7372196,House, 
357,S BROAD ST,BREVARD,NC,28712,35.22916468,-82.73723579,House, 
405,S BROAD ST,BREVARD,NC,28712,35.22852159,-82.73736318,House, 
90,S CALDWELL ST,BREVARD,NC,28712,35.23330319,-82.73639062,House, 
150,S CALDWELL ST,BREVARD,NC,28712,35.23235598,-82.73699602,House, 
178,S CALDWELL ST,BREVARD,NC,28712,35.23217709,-82.73710872,House,UNIT 1
178,S CALDWELL ST,BREVARD,NC,28712,35.23217709,-82.73710872,House,UNIT 2
178,S CALDWELL ST,BREVARD,NC,28712,35.23217709,-82.73710872,House,UNIT 3
178,S CALDWELL ST,BREVARD,NC,28712,35.23217709,-82.73710872,House, 
181,S CALDWELL ST,BREVARD,NC,28712,35.23166797,-82.73680511,House, 
210,S CALDWELL ST,BREVARD,NC,28712,35.23167808,-82.73767403,House, 
222,S CALDWELL ST,BREVARD,NC,28712,35.23143514,-82.73759563,House, 
238,S CALDWELL ST,BREVARD,NC,28712,35.23128557,-82.73769403,House, 
253,S CALDWELL ST,BREVARD,NC,28712,35.23090006,-82.73746999,House, 
262,S CALDWELL ST,BREVARD,NC,28712,35.2310698,-82.73785499,House, 
263,S CALDWELL ST,BREVARD,NC,28712,35.2307839,-82.73755832,House, 
294,S CALDWELL ST,BREVARD,NC,28712,35.23073983,-82.73812767,House, 
304,S CALDWELL ST,BREVARD,NC,28712,35.23034497,-82.73851269,House, 
330,S CALDWELL ST,BREVARD,NC,28712,35.23016666,-82.73860889,House, 
