Number,Street,City,State,PostalCode,Latitude,Longitude,Type,ApartmentNumber
303,MAIN ST,ROSMAN,NC,28772,35.1420001,-82.82255837,House, 
311,MAIN ST,ROSMAN,NC,28772,35.14207857,-82.82217614,House, 
314,MAIN ST,ROSMAN,NC,28772,35.14173911,-82.82279365,House, 
316,MAIN ST,ROSMAN,NC,28772,35.14163792,-82.82279425,House, 
325,MAIN ST,ROSMAN,NC,28772,35.1417591,-82.82241076,House, 
328,MAIN ST,ROSMAN,NC,28772,35.14153686,-82.82273788,House, 
341,MAIN ST,ROSMAN,NC,28772,35.14159074,-82.82219595,House, 
355,MAIN ST,ROSMAN,NC,28772,35.14138382,-82.82199648,House, 
358,MAIN ST,ROSMAN,NC,28772,35.14115043,-82.82252444,House, 
378,MAIN ST,ROSMAN,NC,28772,35.14086405,-82.82228026,House, 
405,MAIN ST,ROSMAN,NC,28772,35.1406511,-82.82168839,House, 
423,MAIN ST,ROSMAN,NC,28772,35.14043483,-82.82151553,House, 
451,MAIN ST,ROSMAN,NC,28772,35.14007453,-82.82140282,House, 
485,MAIN ST,ROSMAN,NC,28772,35.13962211,-82.82116729,House, 
501,MAIN ST,ROSMAN,NC,28772,35.13933532,-82.82094582,House, 
560,MAIN ST,ROSMAN,NC,28772,35.13886836,-82.82021359,House, 
57,MAJESTIC VIEW DR,BREVARD,NC,28712,35.15597187,-82.80391626,House, 
65,MAJESTIC VIEW DR,BREVARD,NC,28712,35.15591241,-82.80375384,House, 
71,MAJESTIC VIEW DR,BREVARD,NC,28712,35.15584775,-82.8035859,House, 
86,MAJESTIC VIEW DR,BREVARD,NC,28712,35.15547362,-82.80383321,House, 
97,MAJESTIC VIEW DR,BREVARD,NC,28712,35.15521682,-82.80378516,House, 
92,MALLARD PT,LAKE TOXAWAY,NC,28747,35.14024873,-82.94272426,House, 
99,MALLARD PT,LAKE TOXAWAY,NC,28747,35.13992448,-82.94243628,House, 
121,MALLARD PT,LAKE TOXAWAY,NC,28747,35.13960004,-82.9427187,House, 
124,MALLARD PT,LAKE TOXAWAY,NC,28747,35.13986682,-82.94295403,House, 
139,MALLARD PT,LAKE TOXAWAY,NC,28747,35.13935166,-82.94324263,House, 
176,MANN'S WAY,ROSMAN,NC,28772,35.1352425,-82.83345862,House, 
110,MCCALL COVE RD,LAKE TOXAWAY,NC,28747,35.1486443,-82.88684136,House, 
172,MCCALL COVE RD,LAKE TOXAWAY,NC,28747,35.14797059,-82.88573512,House, 
248,MCCALL COVE RD,LAKE TOXAWAY,NC,28747,35.14857262,-82.88483244,House, 
252,MCCALL COVE RD,LAKE TOXAWAY,NC,28747,35.14871932,-82.88502894,House, 
336,MCCALL COVE RD,LAKE TOXAWAY,NC,28747,35.14946785,-82.88569452,House, 
612,MCCALL COVE RD,LAKE TOXAWAY,NC,28747,35.1498027,-82.88231169,House, 
706,MCCALL COVE RD,LAKE TOXAWAY,NC,28747,35.14896339,-82.88128727,House, 
175,MCKEE RD,LAKE TOXAWAY,NC,28747,35.15380463,-82.93132029,House, 
223,MCKEE RD,LAKE TOXAWAY,NC,28747,35.15330441,-82.93389406,House, 
234,MCKEE RD,LAKE TOXAWAY,NC,28747,35.15467735,-82.93244207,House, 
270,MCKEE RD,LAKE TOXAWAY,NC,28747,35.15442034,-82.93351472,House, 
12,MOLLY'S WAY,BREVARD,NC,28712,35.14432081,-82.81514714,House, 
21,MOLLY'S WAY,BREVARD,NC,28712,35.14408847,-82.81504079,House, 
41,MOLLY'S WAY,BREVARD,NC,28712,35.14403232,-82.81541792,House, 
46,MOLLY'S WAY,BREVARD,NC,28712,35.14437914,-82.81537855,House, 
47,MOLLY'S WAY,BREVARD,NC,28712,35.14408419,-82.8156605,House, 
56,MOLLY'S WAY,BREVARD,NC,28712,35.1444798,-82.81548676,House, 
57,MOLLY'S WAY,BREVARD,NC,28712,35.14419223,-82.81581799,House, 
60,MOLLY'S WAY,BREVARD,NC,28712,35.14460405,-82.81561263,House, 
61,MOLLY'S WAY,BREVARD,NC,28712,35.14444754,-82.81583379,House, 
102,MORTON GAP RD,LAKE TOXAWAY,NC,28747,35.13663396,-82.89984945,House, 
306,MORTON GAP RD,LAKE TOXAWAY,NC,28747,35.13885001,-82.90180334,House, 
324,MORTON GAP RD,LAKE TOXAWAY,NC,28747,35.13930943,-82.90199783,House, 
416,MORTON GAP RD,LAKE TOXAWAY,NC,28747,35.13989316,-82.90222742,House, 
478,MORTON GAP RD,LAKE TOXAWAY,NC,28747,35.14098468,-82.90154642,House, 
483,MORTON GAP RD,LAKE TOXAWAY,NC,28747,35.14082182,-82.9031469,House, 
635,MORTON GAP RD,LAKE TOXAWAY,NC,28747,35.14154602,-82.90324532,House, 
21,MOUNTIAN VIEW RD,LAKE TOXAWAY,NC,28747,35.14069148,-82.93988582,House, 
122,MYERS DR,LAKE TOXAWAY,NC,28747,35.15674723,-82.93961972,House, 
135,MYERS DR,LAKE TOXAWAY,NC,28747,35.15699084,-82.93965769,House, 
171,MYERS DR,LAKE TOXAWAY,NC,28747,35.15731263,-82.93920994,House, 
210,MYERS DR,LAKE TOXAWAY,NC,28747,35.15739343,-82.93869873,House, 
173,NANTAHALA RD,LAKE TOXAWAY,NC,28747,35.15841621,-82.93137937,House, 
10,NEWTOWN RD,ROSMAN,NC,28772,35.14596484,-82.82485722,House, 
40,NEWTOWN RD,ROSMAN,NC,28772,35.14633969,-82.82472142,House, 
80,NEWTOWN RD,ROSMAN,NC,28772,35.14655317,-82.82450907,House, 
90,NEWTOWN RD,ROSMAN,NC,28772,35.14671101,-82.82418957,House, 
100,NEWTOWN RD,ROSMAN,NC,28772,35.14682469,-82.82383842,House, 
101,NEWTOWN RD,ROSMAN,NC,28772,35.14709687,-82.82375731,House, 
133,NEWTOWN RD,ROSMAN,NC,28772,35.14706493,-82.82341973,House, 
137,NEWTOWN RD,ROSMAN,NC,28772,35.14708779,-82.82324915,House, 
158,NEWTOWN RD,ROSMAN,NC,28772,35.14682212,-82.82294405,House, 
161,NEWTOWN RD,ROSMAN,NC,28772,35.14740809,-82.82290425,House, 
180,NEWTOWN RD,ROSMAN,NC,28772,35.14721706,-82.82240615,House, 
210,NEWTOWN RD,ROSMAN,NC,28772,35.1475322,-82.82205381,House, 
217,NEWTOWN RD,ROSMAN,NC,28772,35.14791309,-82.82261186,House, 
233,NEWTOWN RD,ROSMAN,NC,28772,35.14788548,-82.82227563,House, 
235,NEWTOWN RD,ROSMAN,NC,28772,35.14813379,-82.82229658,House, 
236,NEWTOWN RD,ROSMAN,NC,28772,35.14803508,-82.82171255,House, 
283,NEWTOWN RD,ROSMAN,NC,28772,35.14831139,-82.82205619,House, 
285,NEWTOWN RD,ROSMAN,NC,28772,35.14848842,-82.8218863,House, 
300,NEWTOWN RD,ROSMAN,NC,28772,35.14905509,-82.82073063,House, 
302,NEWTOWN RD,ROSMAN,NC,28772,35.14925874,-82.82106734,House, 
311,NEWTOWN RD,ROSMAN,NC,28772,35.14905813,-82.82184554,House, 
312,NEWTOWN RD,ROSMAN,NC,28772,35.14983429,-82.82117244,House, 
343,NEWTOWN RD,ROSMAN,NC,28772,35.14941312,-82.82168581,House, 
383,NEWTOWN RD,ROSMAN,NC,28772,35.14973004,-82.82190183,House, 
391,NEWTOWN RD,ROSMAN,NC,28772,35.15012995,-82.82149829,House, 
190,NEWTOWN RESERVOIR RD,ROSMAN,NC,28772,35.14828344,-82.81920947,House, 
195,NEWTOWN RESERVOIR RD,ROSMAN,NC,28772,35.14839939,-82.81903514,House, 
269,NEWTOWN RESERVOIR RD,ROSMAN,NC,28772,35.14837591,-82.81786296,House, 
100,OLD CALVERT LANDFILL RD,BREVARD,NC,28712,35.15679294,-82.81208576,House, 
102,OLD CALVERT LANDFILL RD,BREVARD,NC,28712,35.15678171,-82.8126426,House, 
163,OLD CALVERT LANDFILL RD,BREVARD,NC,28712,35.15660236,-82.81333615,House, 
425,OLD CARTWRIGHT PL,BREVARD,NC,28712,35.1575275,-82.81710084,House, 
655,OLD CARTWRIGHT PL,BREVARD,NC,28712,35.15966518,-82.81632238,House, 
18,OLD QUEBEC RD,LAKE TOXAWAY,NC,28747,35.13974412,-82.87648156,House, 
36,OLD QUEBEC RD,LAKE TOXAWAY,NC,28747,35.1395037,-82.87735208,House, 
230,OLD QUEBEC RD,LAKE TOXAWAY,NC,28747,35.13945055,-82.88029937,House, 
764,OLD QUEBEC RD,LAKE TOXAWAY,NC,28747,35.13514148,-82.88639529,House, 
1106,OLD QUEBEC RD,LAKE TOXAWAY,NC,28747,35.13737461,-82.88972648,House, 
864,OLD ROSMAN HWY,BREVARD,NC,28712,35.15904464,-82.81109266,House, 
944,OLD ROSMAN HWY,BREVARD,NC,28712,35.15801881,-82.81070219,House, 
985,OLD ROSMAN HWY,BREVARD,NC,28712,35.15732876,-82.810246,House, 
1124,OLD ROSMAN HWY,BREVARD,NC,28712,35.15567393,-82.81122801,House, 
1166,OLD ROSMAN HWY,BREVARD,NC,28712,35.15484973,-82.81121619,House, 
1379,OLD ROSMAN HWY,BREVARD,NC,28712,35.15235504,-82.80929914,House, 
1422,OLD ROSMAN HWY,BREVARD,NC,28712,35.15079302,-82.81142893,House, 
1521,OLD ROSMAN HWY,BREVARD,NC,28712,35.14943737,-82.80981681,House, 
1525,OLD ROSMAN HWY,BREVARD,NC,28712,35.14925633,-82.81058814,House, 
1628,OLD ROSMAN HWY,BREVARD,NC,28712,35.14798273,-82.81195368,House, 
1684,OLD ROSMAN HWY,BREVARD,NC,28712,35.14765302,-82.81143018,House, 
1696,OLD ROSMAN HWY,BREVARD,NC,28712,35.14871329,-82.81110324,House, 
1871,OLD ROSMAN HWY,BREVARD,NC,28712,35.14477428,-82.81248982,House, 
1911,OLD ROSMAN HWY,BREVARD,NC,28712,35.14432333,-82.81258143,House, 
1938,OLD ROSMAN HWY,BREVARD,NC,28712,35.14420795,-82.81344727,House, 
1986,OLD ROSMAN HWY,BREVARD,NC,28712,35.14382309,-82.81384326,House, 
1989,OLD ROSMAN HWY,BREVARD,NC,28712,35.14329244,-82.81321659,House, 
2012,OLD ROSMAN HWY,BREVARD,NC,28712,35.14344614,-82.81403833,House, 
2036,OLD ROSMAN HWY,BREVARD,NC,28712,35.14319653,-82.81430779,House, 
2050,OLD ROSMAN HWY,BREVARD,NC,28712,35.14301324,-82.81442428,House, 
2064,OLD ROSMAN HWY,BREVARD,NC,28712,35.14285441,-82.81457335,House, 
2086,OLD ROSMAN HWY,BREVARD,NC,28712,35.14269248,-82.81471285,House, 
2088,OLD ROSMAN HWY,BREVARD,NC,28712,35.1424486,-82.81482876,House, 
2110,OLD ROSMAN HWY,BREVARD,NC,28712,35.14237071,-82.81534485,House, 
2134,OLD ROSMAN HWY,BREVARD,NC,28712,35.14208242,-82.81538401,House, 
2170,OLD ROSMAN HWY,BREVARD,NC,28712,35.14154212,-82.8155288,House, 
2180,OLD ROSMAN HWY,BREVARD,NC,28712,35.14141824,-82.81563627,House, 
2182,OLD ROSMAN HWY,BREVARD,NC,28712,35.14135992,-82.8156892,House, 
2190,OLD ROSMAN HWY,BREVARD,NC,28712,35.14130478,-82.81573699,House, 
2192,OLD ROSMAN HWY,BREVARD,NC,28712,35.14124394,-82.81579221,House, 
2225,OLD ROSMAN HWY,BREVARD,NC,28712,35.14024141,-82.81540129,House, 
2227,OLD ROSMAN HWY,BREVARD,NC,28712,35.14052823,-82.81578837,House, 
2320,OLD ROSMAN HWY,BREVARD,NC,28712,35.13980064,-82.81750986,House, 
2330,OLD ROSMAN HWY,BREVARD,NC,28712,35.13983838,-82.81780573,House, 
2412,OLD ROSMAN HWY,BREVARD,NC,28712,35.13970409,-82.81843855,House, 
2430,OLD ROSMAN HWY,BREVARD,NC,28712,35.1396644,-82.81898497,House, 
2701,OLD ROSMAN HWY,BREVARD,NC,28712,35.14211655,-82.82078855,House, 
2741,OLD ROSMAN HWY,BREVARD,NC,28712,35.14273674,-82.82081371,House, 
2770,OLD ROSMAN HWY,BREVARD,NC,28712,35.14317514,-82.82082589,House, 
2783,OLD ROSMAN HWY,BREVARD,NC,28712,35.14334228,-82.82125511,House, 
26,OLD TURNPIKE RD,ROSMAN,NC,28772,35.14620303,-82.82652721,House, 
119,OLD TURNPIKE RD,ROSMAN,NC,28772,35.14564273,-82.82777024,House, 
169,OLD TURNPIKE RD,ROSMAN,NC,28772,35.14552409,-82.82900162,House, 
317,OLD TURNPIKE RD,ROSMAN,NC,28772,35.14576776,-82.83041894,House, 
519,OLD TURNPIKE RD,ROSMAN,NC,28772,35.14554118,-82.83294543,House, 
573,OLD TURNPIKE RD,ROSMAN,NC,28772,35.14436149,-82.83365152,House, 
595,OLD TURNPIKE RD,ROSMAN,NC,28772,35.14408903,-82.83370729,House, 
630,OLD TURNPIKE RD,ROSMAN,NC,28772,35.1438924,-82.83411366,House, 
26,ONE BLUFF LN,LAKE TOXAWAY,NC,28747,35.15732172,-82.94198052,House, 
39,ONE BLUFF LN,LAKE TOXAWAY,NC,28747,35.15767344,-82.94201935,House, 
48,ONE BLUFF LN,LAKE TOXAWAY,NC,28747,35.15754696,-82.94173426,House, 
56,ONE BLUFF LN,LAKE TOXAWAY,NC,28747,35.15779627,-82.94161853,House, 
75,ORR RD,BREVARD,NC,28712,35.14640845,-82.79870405,House, 
76,ORR RD,BREVARD,NC,28712,35.14780999,-82.79963108,House, 
78,ORR RD,BREVARD,NC,28712,35.14678391,-82.80111982,House, 
140,ORR RD,BREVARD,NC,28712,35.14608301,-82.79998997,House, 
173,ORR RD,BREVARD,NC,28712,35.14563412,-82.79948069,House, 
261,ORR RD,BREVARD,NC,28712,35.14421783,-82.79955688,House, 
267,ORR RD,BREVARD,NC,28712,35.14420592,-82.79885672,House, 
120,OUR RD,ROSMAN,NC,28772,35.14100379,-82.83660229,House, 
137,OUR RD,ROSMAN,NC,28772,35.14133291,-82.83562038,House, 
140,OUR RD,ROSMAN,NC,28772,35.1407554,-82.83519879,House, 
116,OWEN FARM RD,LAKE TOXAWAY,NC,28747,35.15027303,-82.93728979,House, 
168,OWEN FARM RD,LAKE TOXAWAY,NC,28747,35.15018345,-82.93784005,House, 
240,OWEN FARM RD,LAKE TOXAWAY,NC,28747,35.15050328,-82.93899346,House, 
279,OWEN FARM RD,LAKE TOXAWAY,NC,28747,35.14938421,-82.93921358,House, 
76,OWEN RIVERSIDE LN,ROSMAN,NC,28772,35.14090605,-82.83965429,House, 
93,OWEN RIVERSIDE LN,ROSMAN,NC,28772,35.14098918,-82.83914969,House, 
20,PARKER FARM RD,BREVARD,NC,28712,35.14669765,-82.79648202,House, 
27,PARKER FARM RD,BREVARD,NC,28712,35.14692279,-82.79570011,House, 
133,PARKER FARM RD,BREVARD,NC,28712,35.14597647,-82.79523161,House, 
311,PARKER FARM RD,BREVARD,NC,28712,35.14419698,-82.79610196,House, 
20,PARKWAY RD,ROSMAN,NC,28772,35.14380717,-82.83884817,House, 
25,PARKWAY RD,ROSMAN,NC,28772,35.14380648,-82.83923505,House, 
54,PARKWAY RD,ROSMAN,NC,28772,35.14422179,-82.83924206,House, 
147,PARKWAY RD,ROSMAN,NC,28772,35.14518829,-82.84040812,House, 
341,PARKWAY RD,ROSMAN,NC,28772,35.14738963,-82.84056229,House, 
343,PARKWAY RD,ROSMAN,NC,28772,35.14767787,-82.84030706,House, 
665,PARKWAY RD,ROSMAN,NC,28772,35.14876971,-82.83985318,House, 
667,PARKWAY RD,ROSMAN,NC,28772,35.14987398,-82.83726377,House, 
671,PARKWAY RD,ROSMAN,NC,28772,35.15079098,-82.83681529,House, 
728,PARKWAY RD,ROSMAN,NC,28772,35.15204435,-82.83694878,House, 
1237,PARKWAY RD,ROSMAN,NC,28772,35.15590283,-82.83257494,House, 
1394,PARKWAY RD,ROSMAN,NC,28772,35.15849234,-82.83206742,House, 
100,PEA RIDGE RD,LAKE TOXAWAY,NC,28747,35.15406149,-82.93849089,House, 
107,PEA RIDGE RD,LAKE TOXAWAY,NC,28747,35.15468717,-82.93918591,House, 
311,PEA RIDGE RD,LAKE TOXAWAY,NC,28747,35.15586697,-82.93640227,House, 
255,PHEASANT GAP RD,ROSMAN,NC,28772,35.14389399,-82.84700981,House, 
384,PHEASANT GAP RD,ROSMAN,NC,28772,35.14527172,-82.84743848,House, 
497,PHEASANT GAP RD,ROSMAN,NC,28772,35.14569026,-82.85006253,House, 
578,PHEASANT GAP RD,ROSMAN,NC,28772,35.14631554,-82.84833746,House, 
319,PICKENS HWY,ROSMAN,NC,28772,35.14715954,-82.82696455,House, 
366,PICKENS HWY,ROSMAN,NC,28772,35.14638764,-82.82686169,House, 
530,PICKENS HWY,ROSMAN,NC,28772,35.14537564,-82.82440087,House, 
544,PICKENS HWY,ROSMAN,NC,28772,35.1451695,-82.82406482,House, 
546,PICKENS HWY,ROSMAN,NC,28772,35.14498887,-82.82391978,House, 
550,PICKENS HWY,ROSMAN,NC,28772,35.14527174,-82.82364757,House, 
576,PICKENS HWY,ROSMAN,NC,28772,35.14520447,-82.8233749,House, 
624,PICKENS HWY,ROSMAN,NC,28772,35.145109,-82.8227812,House, 
635,PICKENS HWY,ROSMAN,NC,28772,35.14523971,-82.82210778,House, 
638,PICKENS HWY,ROSMAN,NC,28772,35.14483707,-82.82221838,House, 
661,PICKENS HWY,ROSMAN,NC,28772,35.144998,-82.8219705,House, 
680,PICKENS HWY,ROSMAN,NC,28772,35.14455688,-82.8219722,House, 
710,PICKENS HWY,ROSMAN,NC,28772,35.14428349,-82.82196399,House, 
720,PICKENS HWY,ROSMAN,NC,28772,35.14409237,-82.82162463,House, 
749,PICKENS HWY,ROSMAN,NC,28772,35.14393362,-82.82128406,House, 
1026,PICKENS HWY,ROSMAN,NC,28772,35.14109344,-82.82477293,House, 
1051,PICKENS HWY,ROSMAN,NC,28772,35.14106884,-82.82418907,House, 
1055,PICKENS HWY,ROSMAN,NC,28772,35.14089509,-82.82405481,House, 
1060,PICKENS HWY,ROSMAN,NC,28772,35.14063341,-82.82490848,House, 
1140,PICKENS HWY,ROSMAN,NC,28772,35.13976761,-82.82349448,House, 
1451,PICKENS HWY,ROSMAN,NC,28772,35.13558753,-82.82117495,House, 
1507,PICKENS HWY,ROSMAN,NC,28772,35.13513424,-82.82106548,House, 
124,POUNDING BRANCH RD,LAKE TOXAWAY,NC,28747,35.15181224,-82.94134334,House, 
197,POUNDING BRANCH RD,LAKE TOXAWAY,NC,28747,35.151059,-82.94082381,House, 
11,PRESSLEY'S CIR,ROSMAN,NC,28772,35.14555123,-82.82829995,House, 
15,PRESSLEY'S CIR,ROSMAN,NC,28772,35.14549718,-82.82828667,House, 
21,PRESSLEY'S CIR,ROSMAN,NC,28772,35.1454161,-82.82826676,House, 
61,PRESSLEY'S CIR,ROSMAN,NC,28772,35.14489404,-82.82807121,House, 
79,PRESSLEY'S CIR,ROSMAN,NC,28772,35.14461463,-82.82800782,House, 
8,PRETTY PRINCESS MDW,BREVARD,NC,28712,35.14481879,-82.81497066,House, 
156,QUARTZ MINE RD,LAKE TOXAWAY,NC,28747,35.14232711,-82.94138132,House, 
164,QUARTZ MINE RD,LAKE TOXAWAY,NC,28747,35.14193832,-82.94119404,House, 
39,R.C. SMITH RD,ROSMAN,NC,28772,35.14635557,-82.83045865,House, 
68,R.C. SMITH RD,ROSMAN,NC,28772,35.14665066,-82.83059345,House, 
95,R.C. SMITH RD,ROSMAN,NC,28772,35.14656949,-82.83106915,House, 
58,RAINBOW'S END LN,LAKE TOXAWAY,NC,28747,35.15763622,-82.9377682,House, 
138,RAINBOW'S END LN,LAKE TOXAWAY,NC,28747,35.15760578,-82.9367723,House, 
20,C K'S WAY,BREVARD,NC,28712,35.1449178,-82.81311725,House, 
21,C K'S WAY,BREVARD,NC,28712,35.14463986,-82.81348351,House, 
26,C K'S WAY,BREVARD,NC,28712,35.1450095,-82.8133155,House, 
35,C K'S WAY,BREVARD,NC,28712,35.14471114,-82.81374405,House, 
38,C K'S WAY,BREVARD,NC,28712,35.14509241,-82.81351757,House, 
30,RIVER WAY,ROSMAN,NC,28772,35.14214986,-82.8234693,House, 
80,RIVER WAY,ROSMAN,NC,28772,35.14152582,-82.82310187,House, 
184,ROBINSON DR,LAKE TOXAWAY,NC,28747,35.13942472,-82.88874412,House, 
196,ROBINSON DR,LAKE TOXAWAY,NC,28747,35.13885627,-82.88902522,House, 
116,ROCKY MOUNTAIN RD,LAKE TOXAWAY,NC,28747,35.14160958,-82.91648497,House, 
118,ROCKY MOUNTAIN RD,LAKE TOXAWAY,NC,28774,35.1413289,-82.91600726,House, 
164,ROCKY MOUNTAIN RD,LAKE TOXAWAY,NC,28747,35.14256174,-82.91684331,House, 
203,ROCKY MOUNTAIN RD,LAKE TOXAWAY,NC,28747,35.14266899,-82.91792115,House, 
418,ROCKY MOUNTAIN RD,LAKE TOXAWAY,NC,28747,35.14254263,-82.91535438,House, 
540,ROCKY MOUNTAIN RD,LAKE TOXAWAY,NC,28747,35.14253443,-82.91468534,House, 
804,ROCKY MOUNTAIN RD,LAKE TOXAWAY,NC,28747,35.14381732,-82.90974622,House, 
854,ROCKY MOUNTAIN RD,LAKE TOXAWAY,NC,28747,35.14385672,-82.90895547,House, 
890,ROCKY MOUNTAIN RD,LAKE TOXAWAY,NC,28747,35.14388195,-82.90827524,House, 
956,ROCKY MOUNTAIN RD,LAKE TOXAWAY,NC,28747,35.14391951,-82.90765618,House, 
980,ROCKY MOUNTAIN RD,LAKE TOXAWAY,NC,28747,35.14370011,-82.90699314,House, 
994,ROCKY MOUNTAIN RD,LAKE TOXAWAY,NC,28747,35.14406641,-82.90675504,House, 
1024,ROCKY MOUNTAIN RD,LAKE TOXAWAY,NC,28747,35.14444706,-82.90693503,House, 
1134,ROCKY MOUNTAIN RD,LAKE TOXAWAY,NC,28747,35.14442468,-82.90604435,House, 
1180,ROCKY MOUNTAIN RD,LAKE TOXAWAY,NC,28747,35.14550852,-82.90577762,House, 
1206,ROCKY MOUNTAIN RD,LAKE TOXAWAY,NC,28747,35.14599309,-82.90580605,House, 
1215,ROCKY MOUNTAIN RD,LAKE TOXAWAY,NC,28747,35.14644034,-82.9074921,House, 
8050,ROSMAN HWY,ROSMAN,NC,28772,35.14661295,-82.83433568,House, 
8149,ROSMAN HWY,ROSMAN,NC,28772,35.14551994,-82.8348865,House, 
8160,ROSMAN HWY,ROSMAN,NC,28772,35.14510805,-82.83565051,House, 
8164,ROSMAN HWY,ROSMAN,NC,28772,35.14540807,-82.83564319,House, 
8271,ROSMAN HWY,ROSMAN,NC,28772,35.14402121,-82.8362966,House, 
8785,ROSMAN HWY,ROSMAN,NC,28772,35.13944602,-82.84216016,House, 
8879,ROSMAN HWY,ROSMAN,NC,28772,35.14004317,-82.84464729,House, 
8914,ROSMAN HWY,ROSMAN,NC,28772,35.14061206,-82.84558652,House, 
9060,ROSMAN HWY,ROSMAN,NC,28772,35.14066402,-82.84815164,House, 
9205,ROSMAN HWY,ROSMAN,NC,28772,35.13892572,-82.84940787,House, 
9324,ROSMAN HWY,ROSMAN,NC,28772,35.13911381,-82.85275292,House, 
9501,ROSMAN HWY,ROSMAN,NC,28772,35.13750433,-82.85541754,House, 
9526,ROSMAN HWY,ROSMAN,NC,28772,35.13823809,-82.856529,House, 
9528,ROSMAN HWY,ROSMAN,NC,28772,35.1386618,-82.85669485,House, 
9717,ROSMAN HWY,ROSMAN,NC,28772,35.13596324,-82.85890231,House, 
9729,ROSMAN HWY,ROSMAN,NC,28772,35.13543159,-82.8599471,House, 
9857,ROSMAN HWY,ROSMAN,NC,28772,35.13567613,-82.86023219,House, 
10504,ROSMAN HWY,LAKE TOXAWAY,NC,28747,35.13733378,-82.86933951,House, 
10506,ROSMAN HWY,LAKE TOXAWAY,NC,28747,35.13771091,-82.86957843,House, 
10903,ROSMAN HWY,LAKE TOXAWAY,NC,28747,35.13528358,-82.87556224,House, 
10920,ROSMAN HWY,LAKE TOXAWAY,NC,28747,35.13586324,-82.8749516,House, 
10921,ROSMAN HWY,LAKE TOXAWAY,NC,28747,35.13539275,-82.87600272,House, 
10922,ROSMAN HWY,LAKE TOXAWAY,NC,28747,35.13571992,-82.87540971,House, 
167,ROSMAN SCHOOL RD,ROSMAN,NC,28772,35.14390882,-82.82722687,House, 
39,S GRAY FOX RD,ROSMAN,NC,28772,35.13639181,-82.83459465,House, 
76,S GRAY FOX RD,ROSMAN,NC,28772,35.13625767,-82.83537142,House, 
81,S GRAY FOX RD,ROSMAN,NC,28772,35.13575881,-82.83449696,House, 
101,S GRAY FOX RD,ROSMAN,NC,28772,35.13539583,-82.83516639,House, 
5,SAGE'S WAY,BREVARD,NC,28712,35.1406555,-82.81870697,House, 
10,SAGE'S WAY,BREVARD,NC,28712,35.14058032,-82.81904569,House, 
48,SAND ROCK RD,LAKE TOXAWAY,NC,28747,35.14071505,-82.89875841,House, 
50,SAND ROCK RD,LAKE TOXAWAY,NC,28747,35.14072395,-82.89878573,House, 
51,SAND ROCK RD,LAKE TOXAWAY,NC,28747,35.14058341,-82.89889587,House, 
89,SAND ROCK RD,LAKE TOXAWAY,NC,28747,35.14107411,-82.89923649,House, 
95,SAND ROCK RD,LAKE TOXAWAY,NC,28747,35.14115649,-82.89922962,House, 
241,SAND ROCK RD,LAKE TOXAWAY,NC,28747,35.14329768,-82.89938695,House, 
354,SAND ROCK RD,LAKE TOXAWAY,NC,28747,35.1441259,-82.89852251,House, 
410,SAND ROCK RD,LAKE TOXAWAY,NC,28747,35.14480708,-82.8982409,House, 
431,SAND ROCK RD,LAKE TOXAWAY,NC,28747,35.1450941,-82.89844679,House, 
460,SAND ROCK RD,LAKE TOXAWAY,NC,28747,35.14525759,-82.89791078,House, 
53,SELDOM SEEN LN,LAKE TOXAWAY,NC,28747,35.15713617,-82.91128784,House, 
115,SELDOM SEEN LN,LAKE TOXAWAY,NC,28747,35.15757789,-82.91224151,House, 
157,SELDOM SEEN LN,LAKE TOXAWAY,NC,28747,35.15806516,-82.91258969,House, 
539,SEMINOLE WAY,LAKE TOXAWAY,NC,28747,35.13513847,-82.94948643,House, 
561,SEMINOLE WAY,LAKE TOXAWAY,NC,28747,35.13537979,-82.94956388,House, 
575,SEMINOLE WAY,LAKE TOXAWAY,NC,28747,35.1357053,-82.94958108,House, 
583,SEMINOLE WAY,LAKE TOXAWAY,NC,28747,35.13596219,-82.94969744,House, 
589,SEMINOLE WAY,LAKE TOXAWAY,NC,28747,35.13615826,-82.94990309,House, 
