Number,Street,City,State,PostalCode,Latitude,Longitude,Type,ApartmentNumber
52,LUPINE RIDGE CIR,LAKE TOXAWAY,NC,28747,35.16497048,-82.93551155,House, 
75,LUPINE RIDGE CIR,LAKE TOXAWAY,NC,28747,35.16421251,-82.93565646,House, 
82,LUPINE RIDGE CIR,LAKE TOXAWAY,NC,28747,35.16463092,-82.93571959,House, 
98,LUPINE RIDGE CIR,LAKE TOXAWAY,NC,28747,35.16448588,-82.93593337,House, 
105,LUPINE RIDGE CIR,LAKE TOXAWAY,NC,28747,35.16383381,-82.93579462,House, 
107,LUPINE RIDGE CIR,LAKE TOXAWAY,NC,28747,35.163996,-82.93629556,House, 
108,LUPINE RIDGE CIR,LAKE TOXAWAY,NC,28747,35.16440961,-82.93646324,House, 
149,LUPINE RIDGE CIR,LAKE TOXAWAY,NC,28747,35.16412966,-82.93698213,House, 
165,LUPINE RIDGE CIR,LAKE TOXAWAY,NC,28747,35.16450272,-82.93683754,House, 
215,LUPINE RIDGE CIR,LAKE TOXAWAY,NC,28747,35.16451741,-82.93737748,House, 
217,LUPINE RIDGE CIR,LAKE TOXAWAY,NC,28747,35.16459497,-82.93785389,House, 
279,LUPINE RIDGE CIR,LAKE TOXAWAY,NC,28747,35.16507579,-82.93768536,House, 
301,LUPINE RIDGE CIR,LAKE TOXAWAY,NC,28747,35.16532983,-82.93802271,House, 
304,LUPINE RIDGE CIR,LAKE TOXAWAY,NC,28747,35.16539167,-82.93753354,House, 
350,LUPINE RIDGE CIR,LAKE TOXAWAY,NC,28747,35.16551528,-82.93723373,House, 
354,LUPINE RIDGE CIR,LAKE TOXAWAY,NC,28747,35.16526117,-82.93685161,House, 
382,LUPINE RIDGE CIR,LAKE TOXAWAY,NC,28747,35.16520062,-82.93643806,House, 
321,MACEDONIA CHURCH RD,ROSMAN,NC,28772,35.19684168,-82.86083685,House, 
413,MACEDONIA CHURCH RD,ROSMAN,NC,28772,35.19827384,-82.86132654,House, 
737,MACEDONIA CHURCH RD,ROSMAN,NC,28772,35.20131918,-82.86577578,House, 
739,MACEDONIA CHURCH RD,ROSMAN,NC,28772,35.20163878,-82.86612385,House, 
849,MACEDONIA CHURCH RD,ROSMAN,NC,28772,35.2030587,-82.86596198,House, 
971,MACEDONIA CHURCH RD,ROSMAN,NC,28772,35.20424831,-82.86701298,House, 
983,MACEDONIA CHURCH RD,ROSMAN,NC,28772,35.20444905,-82.86733639,House, 
1043,MACEDONIA CHURCH RD,ROSMAN,NC,28772,35.20489189,-82.86805947,House, 
1198,MACEDONIA CHURCH RD,ROSMAN,NC,28772,35.2050734,-82.87023149,House, 
1211,MACEDONIA CHURCH RD,ROSMAN,NC,28772,35.2049953,-82.86977363,House, 
1213,MACEDONIA CHURCH RD,ROSMAN,NC,28772,35.2040461,-82.86906645,House, 
1240,MACEDONIA CHURCH RD,ROSMAN,NC,28772,35.20513404,-82.87067018,House, 
1994,MACEDONIA CHURCH RD,ROSMAN,NC,28772,35.20565266,-82.88329339,House, 
2279,MACEDONIA CHURCH RD,ROSMAN,NC,28772,35.20443927,-82.88773293,House, 
2444,MACEDONIA CHURCH RD,ROSMAN,NC,28772,35.20584235,-82.89047405,House, 
2495,MACEDONIA CHURCH RD,ROSMAN,NC,28772,35.2039057,-82.89175669,House, 
2497,MACEDONIA CHURCH RD,ROSMAN,NC,28772,35.20373712,-82.89296252,House, 
2700,MACEDONIA CHURCH RD,ROSMAN,NC,28772,35.20302752,-82.89517613,House, 
3091,MACEDONIA CHURCH RD,LAKE TOXAWAY,NC,28747,35.19980933,-82.89993082,House, 
3117,MACEDONIA CHURCH RD,LAKE TOXAWAY,NC,28747,35.19913932,-82.90029586,House, 
3165,MACEDONIA CHURCH RD,LAKE TOXAWAY,NC,28747,35.19850637,-82.90041786,House, 
3200,MACEDONIA CHURCH RD,LAKE TOXAWAY,NC,28747,35.19802671,-82.90067264,House, 
3270,MACEDONIA CHURCH RD,LAKE TOXAWAY,NC,28747,35.19708616,-82.90048372,House, 
3284,MACEDONIA CHURCH RD,LAKE TOXAWAY,NC,28747,35.19689955,-82.90048362,House, 
3308,MACEDONIA CHURCH RD,LAKE TOXAWAY,NC,28747,35.1965744,-82.90050147,House, 
3613,MACEDONIA CHURCH RD,LAKE TOXAWAY,NC,28747,35.19303608,-82.89837313,House, 
3617,MACEDONIA CHURCH RD,LAKE TOXAWAY,NC,28747,35.19275674,-82.89989721,House, 
3675,MACEDONIA CHURCH RD,LAKE TOXAWAY,NC,28747,35.19160433,-82.90056804,House, 
82,MAPLE WAY,LAKE TOXAWAY,NC,28747,35.17203356,-82.93991036,House, 
100,MAPLE WAY,LAKE TOXAWAY,NC,28747,35.17188749,-82.93888676,House, 
246,MAPLE WAY,LAKE TOXAWAY,NC,28747,35.17293086,-82.93874684,House, 
177,MCINTOSH RD,LAKE TOXAWAY,NC,28747,35.1640512,-82.94856428,House, 
201,MISERS CREEK TRL,LAKE TOXAWAY,NC,28747,35.19471696,-82.92516341,House, 
258,MISERS CREEK TRL,LAKE TOXAWAY,NC,28747,35.19494523,-82.92363294,House, 
279,MISERS CREEK TRL,LAKE TOXAWAY,NC,28747,35.19521389,-82.92400046,House, 
64,MOHAWK TRL,LAKE TOXAWAY,NC,28747,35.16296282,-82.93506724,House, 
70,N FORK RIVER RD,BALSAM GROVE,NC,28708,35.23723904,-82.87891363,House, 
153,N FORK RIVER RD,BALSAM GROVE,NC,28708,35.2362299,-82.87849958,House, 
276,N FORK RIVER RD,BALSAM GROVE,NC,28708,35.23517345,-82.87883452,House, 
150,NATURE PRESERVE RD,BALSAM GROVE,NC,28708,35.22323419,-82.86143828,House, 
39,OLD CCC CAMP RD,BALSAM GROVE,NC,28708,35.23097012,-82.87506726,House, 
81,OLD CCC CAMP RD,BALSAM GROVE,NC,28708,35.23133494,-82.87445006,House, 
177,OLD CCC CAMP RD,BALSAM GROVE,NC,28708,35.23283672,-82.87441643,House, 
291,OLD CCC CAMP RD,BALSAM GROVE,NC,28708,35.23402637,-82.87418182,House, 
327,OLD CCC CAMP RD,BALSAM GROVE,NC,28708,35.23543276,-82.87433043,House, 
135,OLD HOMEPLACE DR,LAKE TOXAWAY,NC,28747,35.19370145,-82.90308084,House, 
279,OLD PARKER MOUNTAIN RD,ROSMAN,NC,28772,35.20660312,-82.89482199,House, 
49,OLD WAGON RD,ROSMAN,NC,28772,35.20232859,-82.85782125,House, 
115,OLD WAGON RD,ROSMAN,NC,28772,35.20307695,-82.85829595,House, 
287,OLD WAGON RD,ROSMAN,NC,28772,35.20477979,-82.8589311,House, 
463,OLD WAGON RD,ROSMAN,NC,28772,35.20706987,-82.86006027,House, 
485,OLD WAGON RD,ROSMAN,NC,28772,35.20738439,-82.86026795,House, 
553,OLD WAGON RD,ROSMAN,NC,28772,35.20903749,-82.85986975,House, 
667,OLD WAGON RD,ROSMAN,NC,28772,35.20997417,-82.85861988,House, 
56,ORLIS LOOP,BALSAM GROVE,NC,28708,35.22482901,-82.86286899,House, 
80,ORLIS LOOP,BALSAM GROVE,NC,28708,35.22473591,-82.86315923,House, 
113,ORLIS LOOP,BALSAM GROVE,NC,28708,35.22463751,-82.8627065,House, 
207,ORLIS LOOP,BALSAM GROVE,NC,28708,35.22309261,-82.86391461,House, 
226,ORLIS LOOP,BALSAM GROVE,NC,28708,35.22296295,-82.86427315,House, 
330,ORLIS LOOP,BALSAM GROVE,NC,28708,35.22289476,-82.86491845,House, 
10,OSCAR GALLOWAY RD,LAKE TOXAWAY,NC,28747,35.18853093,-82.9231366,House, 
145,OSCAR GALLOWAY RD,LAKE TOXAWAY,NC,28747,35.18831278,-82.92484071,House, 
151,OSCAR GALLOWAY RD,LAKE TOXAWAY,NC,28747,35.18839355,-82.92492379,House, 
157,OSCAR GALLOWAY RD,LAKE TOXAWAY,NC,28747,35.18846979,-82.92499045,House, 
378,OSCAR GALLOWAY RD,LAKE TOXAWAY,NC,28747,35.1897805,-82.92728635,House, 
233,OWEN DR,LAKE TOXAWAY,NC,28747,35.19969774,-82.91325031,House, 
1,PARI DR,ROSMAN,NC,28772,35.19957129,-82.87193649,House, 
6220,PARKWAY RD,BALSAM GROVE,NC,28708,35.20348082,-82.85710378,House, 
6278,PARKWAY RD,BALSAM GROVE,NC,28708,35.20497912,-82.85707455,House, 
6346,PARKWAY RD,BALSAM GROVE,NC,28708,35.20786235,-82.85743496,House, 
6354,PARKWAY RD,BALSAM GROVE,NC,28708,35.20700643,-82.857581,House, 
6432,PARKWAY RD,BALSAM GROVE,NC,28708,35.20641269,-82.85780898,House, 
6477,PARKWAY RD,BALSAM GROVE,NC,28708,35.20763992,-82.85956362,House, 
6560,PARKWAY RD,BALSAM GROVE,NC,28708,35.20851061,-82.85867978,House, 
7616,PARKWAY RD,BALSAM GROVE,NC,28708,35.22182017,-82.86013073,House, 
7685,PARKWAY RD,BALSAM GROVE,NC,28708,35.2216939,-82.86056277,House, 
7831,PARKWAY RD,BALSAM GROVE,NC,28708,35.22458901,-82.8613496,House, 
7935,PARKWAY RD,BALSAM GROVE,NC,28708,35.225175,-82.86289062,House, 
8098,PARKWAY RD,BALSAM GROVE,NC,28708,35.22546273,-82.86465762,House, 
8104,PARKWAY RD,BALSAM GROVE,NC,28708,35.22547439,-82.86482657,House, 
8121,PARKWAY RD,BALSAM GROVE,NC,28708,35.22515683,-82.86532243,House, 
8124,PARKWAY RD,BALSAM GROVE,NC,28708,35.22551113,-82.86528101,House, 
8125,PARKWAY RD,BALSAM GROVE,NC,28708,35.22516447,-82.86541415,House, 
8165,PARKWAY RD,BALSAM GROVE,NC,28708,35.22538593,-82.86594255,House, 
8450,PARKWAY RD,BALSAM GROVE,NC,28708,35.22691131,-82.87008223,House, 
8470,PARKWAY RD,BALSAM GROVE,NC,28708,35.2270941,-82.87035775,House, 
8494,PARKWAY RD,BALSAM GROVE,NC,28708,35.22756015,-82.87057935,House, 
8508,PARKWAY RD,BALSAM GROVE,NC,28708,35.22781413,-82.87037934,House, 
8510,PARKWAY RD,BALSAM GROVE,NC,28708,35.22767078,-82.8709598,House, 
8552,PARKWAY RD,BALSAM GROVE,NC,28708,35.2281394,-82.87131356,House, 
8554,PARKWAY RD,BALSAM GROVE,NC,28708,35.22893983,-82.87056869,House, 
8576,PARKWAY RD,BALSAM GROVE,NC,28708,35.22840277,-82.8716384,House, 
8636,PARKWAY RD,BALSAM GROVE,NC,28708,35.22871847,-82.87239845,House, 
8638,PARKWAY RD,BALSAM GROVE,NC,28708,35.22910692,-82.87260741,House, 
8674,PARKWAY RD,BALSAM GROVE,NC,28708,35.22941303,-82.87321556,House, 
8696,PARKWAY RD,BALSAM GROVE,NC,28708,35.22960991,-82.87271449,House, 
8720,PARKWAY RD,BALSAM GROVE,NC,28708,35.22973607,-82.87327203,House, 
8730,PARKWAY RD,BALSAM GROVE,NC,28708,35.23003889,-82.87308933,House, 
8732,PARKWAY RD,BALSAM GROVE,NC,28708,35.23022347,-82.87339902,House, 
8820,PARKWAY RD,BALSAM GROVE,NC,28708,35.23180992,-82.87353288,House, 
9218,PARKWAY RD,BALSAM GROVE,NC,28708,35.23448228,-82.87113127,House, 
9220,PARKWAY RD,BALSAM GROVE,NC,28708,35.2351682,-82.86921355,House, 
9614,PARKWAY RD,BALSAM GROVE,NC,28708,35.24069052,-82.87884463,House, 
9616,PARKWAY RD,BALSAM GROVE,NC,28708,35.23831605,-82.87692694,House, 
9618,PARKWAY RD,BALSAM GROVE,NC,28708,35.2397927,-82.87874088,House, 
9620,PARKWAY RD,BALSAM GROVE,NC,28708,35.24036547,-82.87906069,House, 
9647,PARKWAY RD,BALSAM GROVE,NC,28708,35.23932496,-82.87931809,House, 
9663,PARKWAY RD,BALSAM GROVE,NC,28708,35.23961691,-82.88008042,House, 
9722,PARKWAY RD,BALSAM GROVE,NC,28708,35.24182386,-82.8793683,House, 
9734,PARKWAY RD,BALSAM GROVE,NC,28708,35.2408427,-82.87975592,House, 
9800,PARKWAY RD,BALSAM GROVE,NC,28708,35.24195309,-82.88024713,House, 
9801,PARKWAY RD,BALSAM GROVE,NC,28708,35.240806,-82.88138275,House, 
9803,PARKWAY RD,BALSAM GROVE,NC,28708,35.24115754,-82.88227785,House, 
9864,PARKWAY RD,BALSAM GROVE,NC,28708,35.2422796,-82.88070304,House, 
9866,PARKWAY RD,BALSAM GROVE,NC,28708,35.24251076,-82.88070541,House, 
9900,PARKWAY RD,BALSAM GROVE,NC,28708,35.24296405,-82.88111354,House, 
9902,PARKWAY RD,BALSAM GROVE,NC,28708,35.24327821,-82.8815771,House, 
9974,PARKWAY RD,BALSAM GROVE,NC,28708,35.24381513,-82.88155242,House, 
10000,PARKWAY RD,BALSAM GROVE,NC,28708,35.24418472,-82.88199043,House, 
10128,PARKWAY RD,BALSAM GROVE,NC,28708,35.24579448,-82.88252813,House, 
10196,PARKWAY RD,BALSAM GROVE,NC,28708,35.24671238,-82.88348343,House, 
20,PAUL HARVEY RD,BALSAM GROVE,NC,28708,35.24298691,-82.86999988,House, 
148,PAW PAW'S WAY,BALSAM GROVE,NC,28708,35.22810803,-82.86912823,House, 
46,PEGGY RIDGE RD,BALSAM GROVE,NC,28708,35.22347165,-82.86846208,House, 
83,PEGGY RIDGE RD,BALSAM GROVE,NC,28708,35.22242366,-82.86828967,House, 
330,PEGGY RIDGE RD,BALSAM GROVE,NC,28708,35.22350354,-82.87088287,House, 
405,PEGGY RIDGE RD,BALSAM GROVE,NC,28708,35.22352445,-82.87207725,House, 
20,PHIVO DR,BALSAM GROVE,NC,28708,35.239739,-82.86077092,House, 
22,PHIVO DR,BALSAM GROVE,NC,28708,35.24017315,-82.8605849,House, 
54,PHIVO DR,BALSAM GROVE,NC,28708,35.23953035,-82.86130317,House, 
112,PHIVO DR,BALSAM GROVE,NC,28708,35.24001524,-82.8613971,House, 
274,PHIVO DR,BALSAM GROVE,NC,28708,35.24081484,-82.86294209,House, 
39,PIN OAK DR,BALSAM GROVE,NC,28708,35.2498255,-82.85351907,House, 
70,PIN OAK DR,BALSAM GROVE,NC,28708,35.25013109,-82.85288436,House, 
142,PIN OAK DR,BALSAM GROVE,NC,28708,35.25062341,-82.85334928,House, 
58,PRESSLEY FIELDS RD,BALSAM GROVE,NC,28708,35.20920193,-82.8626682,House, 
415,PRESSLEY FIELDS RD,BALSAM GROVE,NC,28708,35.21051559,-82.86637178,House, 
33,QUALLA TRCE,LAKE TOXAWAY,NC,28747,35.16128863,-82.93883088,House, 
68,QUALLA TRCE,LAKE TOXAWAY,NC,28747,35.16095617,-82.93859266,House, 
253,RICHLAND CREEK RD,LAKE TOXAWAY,NC,28747,35.17032826,-82.89080524,House, 
393,RICHLAND CREEK RD,LAKE TOXAWAY,NC,28747,35.16944436,-82.89314971,House, 
516,RICHLAND CREEK RD,LAKE TOXAWAY,NC,28747,35.17091119,-82.89444134,House, 
684,RICHLAND CREEK RD,LAKE TOXAWAY,NC,28747,35.17221488,-82.89655545,House, 
481,RICHLAND RIDGE RD,LAKE TOXAWAY,NC,28747,35.16415694,-82.89110085,House, 
1027,RICHLAND RIDGE RD,LAKE TOXAWAY,NC,28747,35.16216184,-82.89386818,House, 
1283,RICHLAND RIDGE RD,LAKE TOXAWAY,NC,28747,35.16388875,-82.89573009,House, 
10,ROCKY TOP CIR,BALSAM GROVE,NC,28708,35.22211205,-82.92652577,House, 
21,ROSE HILL RD,BALSAM GROVE,NC,28708,35.21552906,-82.92717845,House, 
121,ROSE HILL RD,BALSAM GROVE,NC,28708,35.2167631,-82.92773432,House, 
203,ROSE HILL RD,BALSAM GROVE,NC,28708,35.21608214,-82.92777557,House, 
40,ROUND HOUSE DR,BALSAM GROVE,NC,28708,35.22107944,-82.86015959,House, 
58,ROUND HOUSE DR,BALSAM GROVE,NC,28708,35.22089783,-82.85997772,House, 
92,ROUND HOUSE DR,BALSAM GROVE,NC,28708,35.22051882,-82.8596165,House, 
116,RUNNINGPINE RD,LAKE TOXAWAY,NC,28747,35.16902371,-82.89575206,House, 
1353,RUNNINGPINE RD,LAKE TOXAWAY,NC,28747,35.16151471,-82.90768783,House, 
22,S KIMIKO LN,BALSAM GROVE,NC,28708,35.22994777,-82.86102525,House, 
46,S KIMIKO LN,BALSAM GROVE,NC,28708,35.22969064,-82.86065693,House, 
54,S KIMIKO LN,BALSAM GROVE,NC,28708,35.22935173,-82.86049355,House, 
90,S KIMIKO LN,BALSAM GROVE,NC,28708,35.22906735,-82.86038322,House, 
32,SANDY BRANCH RD,BALSAM GROVE,NC,28708,35.21781193,-82.91306994,House, 
67,SANDY BRANCH RD,BALSAM GROVE,NC,28708,35.21822617,-82.91343939,House, 
144,SANDY BRANCH RD,BALSAM GROVE,NC,28708,35.21902407,-82.91419996,House, 
201,SANDY BRANCH RD,BALSAM GROVE,NC,28708,35.21929872,-82.91508072,House, 
238,SANDY BRANCH RD,BALSAM GROVE,NC,28708,35.21980948,-82.91514709,House, 
250,SANDY BRANCH RD,BALSAM GROVE,NC,28708,35.21999519,-82.91515382,House, 
415,SHELTON RD,LAKE TOXAWAY,NC,28747,35.16905663,-82.93594093,House, 
723,SHELTON RD,LAKE TOXAWAY,NC,28747,35.16698014,-82.94025333,House, 
727,SHELTON RD,LAKE TOXAWAY,NC,28747,35.16653787,-82.93995519,House, 
751,SHELTON RD,LAKE TOXAWAY,NC,28747,35.16617604,-82.93972661,House, 
765,SHELTON RD,LAKE TOXAWAY,NC,28747,35.1659149,-82.93968788,House, 
788,SHELTON RD,LAKE TOXAWAY,NC,28747,35.16953467,-82.93996524,House, 
854,SHELTON RD,LAKE TOXAWAY,NC,28747,35.16675928,-82.94199851,House, 
148,SHOAL CREEK RD,BALSAM GROVE,NC,28708,35.2282423,-82.85888886,House, 
161,SHOAL CREEK RD,BALSAM GROVE,NC,28708,35.2279502,-82.85918975,House, 
280,SHOAL CREEK RD,BALSAM GROVE,NC,28708,35.22953159,-82.85865731,House, 
300,SHOAL CREEK RD,BALSAM GROVE,NC,28708,35.22930753,-82.85808975,House, 
330,SHOAL CREEK RD,BALSAM GROVE,NC,28708,35.22993468,-82.85777226,House, 
361,SHOAL CREEK RD,BALSAM GROVE,NC,28708,35.23034496,-82.85856991,House, 
367,SHOAL CREEK RD,BALSAM GROVE,NC,28708,35.23079989,-82.85817061,House, 
615,SHOAL CREEK RD,BALSAM GROVE,NC,28708,35.23357414,-82.85925635,House, 
617,SHOAL CREEK RD,BALSAM GROVE,NC,28708,35.23307548,-82.85935431,House, 
689,SHOAL CREEK RD,BALSAM GROVE,NC,28708,35.23397501,-82.85954892,House, 
937,SHOAL CREEK RD,BALSAM GROVE,NC,28708,35.23474623,-82.86056166,House, 
995,SHOAL CREEK RD,BALSAM GROVE,NC,28708,35.23907109,-82.86098933,House, 
1018,SHOAL CREEK RD,BALSAM GROVE,NC,28708,35.23893226,-82.86046743,House, 
1109,SHOAL CREEK RD,BALSAM GROVE,NC,28708,35.24077135,-82.86142901,House, 
1111,SHOAL CREEK RD,BALSAM GROVE,NC,28708,35.24129735,-82.861268,House, 
1155,SHOAL CREEK RD,BALSAM GROVE,NC,28708,35.23792624,-82.86118888,House, 
1198,SHOAL CREEK RD,BALSAM GROVE,NC,28708,35.24236509,-82.85845926,House, 
1219,SHOAL CREEK RD,BALSAM GROVE,NC,28708,35.24131474,-82.8600032,House, 
1267,SHOAL CREEK RD,BALSAM GROVE,NC,28708,35.24217753,-82.86005342,House, 
1277,SHOAL CREEK RD,BALSAM GROVE,NC,28708,35.24278078,-82.86083508,House, 
1395,SHOAL CREEK RD,BALSAM GROVE,NC,28708,35.24385128,-82.85935642,House, 
1397,SHOAL CREEK RD,BALSAM GROVE,NC,28708,35.24434303,-82.85850664,House, 
1474,SHOAL CREEK RD,BALSAM GROVE,NC,28708,35.24358752,-82.85603697,House, 
1557,SHOAL CREEK RD,BALSAM GROVE,NC,28708,35.24660808,-82.85681299,House, 
1561,SHOAL CREEK RD,BALSAM GROVE,NC,28708,35.24561719,-82.85695016,House, 
1591,SHOAL CREEK RD,BALSAM GROVE,NC,28708,35.24583333,-82.85673146,House, 
1596,SHOAL CREEK RD,BALSAM GROVE,NC,28708,35.24590839,-82.85557504,House, 
1599,SHOAL CREEK RD,BALSAM GROVE,NC,28708,35.24624746,-82.85627183,House, 
1610,SHOAL CREEK RD,BALSAM GROVE,NC,28708,35.24648101,-82.85562386,House, 
1723,SHOAL CREEK RD,BALSAM GROVE,NC,28708,35.24769719,-82.85537985,House, 
1861,SHOAL CREEK RD,BALSAM GROVE,NC,28708,35.2489389,-82.8531714,House, 
2103,SHOAL CREEK RD,BALSAM GROVE,NC,28708,35.25333273,-82.8535092,House, 
2181,SHOAL CREEK RD,BALSAM GROVE,NC,28708,35.25382663,-82.85253311,House, 
2184,SHOAL CREEK RD,BALSAM GROVE,NC,28708,35.25340242,-82.85206307,House, 
2186,SHOAL CREEK RD,BALSAM GROVE,NC,28708,35.2536867,-82.85083005,House, 
3695,SILVERSTEEN RD,LAKE TOXAWAY,NC,28747,35.17427628,-82.88720488,House, 
3800,SILVERSTEEN RD,LAKE TOXAWAY,NC,28747,35.17328287,-82.8888083,House, 
4097,SILVERSTEEN RD,LAKE TOXAWAY,NC,28747,35.17515445,-82.89257275,House, 
4482,SILVERSTEEN RD,LAKE TOXAWAY,NC,28747,35.17677105,-82.89516009,House, 
4521,SILVERSTEEN RD,LAKE TOXAWAY,NC,28747,35.17720625,-82.89690617,House, 
4649,SILVERSTEEN RD,LAKE TOXAWAY,NC,28747,35.1774191,-82.89890943,House, 
4653,SILVERSTEEN RD,LAKE TOXAWAY,NC,28747,35.17742059,-82.89897588,House, 
6239,SILVERSTEEN RD,LAKE TOXAWAY,NC,28747,35.18453846,-82.90622339,House, 
6565,SILVERSTEEN RD,LAKE TOXAWAY,NC,28747,35.18732027,-82.90792101,House, 
6567,SILVERSTEEN RD,LAKE TOXAWAY,NC,28747,35.18667237,-82.909336,House, 
6790,SILVERSTEEN RD,LAKE TOXAWAY,NC,28747,35.1872954,-82.91416915,House, 
6800,SILVERSTEEN RD,LAKE TOXAWAY,NC,28747,35.18698957,-82.91466893,House, 
6930,SILVERSTEEN RD,LAKE TOXAWAY,NC,28747,35.18581607,-82.91751608,House, 
7081,SILVERSTEEN RD,LAKE TOXAWAY,NC,28747,35.18637263,-82.91467649,House, 
7095,SILVERSTEEN RD,LAKE TOXAWAY,NC,28747,35.18601665,-82.91484328,House, 
7109,SILVERSTEEN RD,LAKE TOXAWAY,NC,28747,35.18484288,-82.9150221,House, 
7133,SILVERSTEEN RD,LAKE TOXAWAY,NC,28747,35.18717427,-82.91424631,House, 
7155,SILVERSTEEN RD,LAKE TOXAWAY,NC,28747,35.18541116,-82.91716148,House, 
7163,SILVERSTEEN RD,LAKE TOXAWAY,NC,28747,35.18389082,-82.91786606,House, 
7175,SILVERSTEEN RD,LAKE TOXAWAY,NC,28747,35.18378991,-82.9207718,House, 
7186,SILVERSTEEN RD,LAKE TOXAWAY,NC,28747,35.18376712,-82.9261593,House, 
7339,SILVERSTEEN RD,LAKE TOXAWAY,NC,28747,35.18342354,-82.92150767,House, 
7741,SILVERSTEEN RD,LAKE TOXAWAY,NC,28747,35.18243114,-82.9296306,House, 
7783,SILVERSTEEN RD,LAKE TOXAWAY,NC,28747,35.18088475,-82.92525674,House, 
7785,SILVERSTEEN RD,LAKE TOXAWAY,NC,28747,35.1801546,-82.92679947,House, 
8049,SILVERSTEEN RD,LAKE TOXAWAY,NC,28747,35.18221538,-82.93583273,House, 
1905,SLICK FISHER RD,LAKE TOXAWAY,NC,28747,35.16290015,-82.94663385,House, 
1944,SLICK FISHER RD,LAKE TOXAWAY,NC,28747,35.16224233,-82.9456452,House, 
2089,SLICK FISHER RD,LAKE TOXAWAY,NC,28747,35.16354734,-82.94813144,House, 
2165,SLICK FISHER RD,LAKE TOXAWAY,NC,28747,35.16528538,-82.9480875,House, 
2167,SLICK FISHER RD,LAKE TOXAWAY,NC,28747,35.16568168,-82.9489595,House, 
2169,SLICK FISHER RD,LAKE TOXAWAY,NC,28747,35.16607653,-82.94972171,House, 
2276,SLICK FISHER RD,LAKE TOXAWAY,NC,28747,35.16561122,-82.94599036,House, 
2369,SLICK FISHER RD,LAKE TOXAWAY,NC,28747,35.16643435,-82.94673133,House, 
2710,SLICK FISHER RD,LAKE TOXAWAY,NC,28747,35.16950706,-82.94338724,House, 
4003,SLICK FISHER RD,LAKE TOXAWAY,NC,28747,35.17866653,-82.9493181,House, 
4060,SLICK FISHER RD,LAKE TOXAWAY,NC,28747,35.17946121,-82.94920988,House, 
4102,SLICK FISHER RD,LAKE TOXAWAY,NC,28747,35.18369744,-82.94821825,House, 
31,SMOKEY BEAR MOUNTAIN RD,BALSAM GROVE,NC,28708,35.23222538,-82.87191172,House, 
120,SMOKEY BEAR MOUNTAIN RD,BALSAM GROVE,NC,28708,35.2308645,-82.8726455,House, 
55,SPRING HOUSE RD,LAKE TOXAWAY,NC,28747,35.1698845,-82.93609692,House, 
110,SPRING HOUSE RD,LAKE TOXAWAY,NC,28747,35.17069017,-82.93607729,House, 
112,SPRING HOUSE RD,LAKE TOXAWAY,NC,28747,35.17083688,-82.93623393,House, 
137,SPRING HOUSE RD,LAKE TOXAWAY,NC,28747,35.17027936,-82.93677363,House, 
250,SPRING HOUSE RD,LAKE TOXAWAY,NC,28747,35.17026157,-82.93879404,House, 
278,SPRING HOUSE RD,LAKE TOXAWAY,NC,28747,35.17035349,-82.93942008,House, 
119,SWEETWATER RIDGE RD,BALSAM GROVE,NC,28708,35.23309101,-82.85738919,House, 
160,SWEETWATER RIDGE RD,BALSAM GROVE,NC,28708,35.23284273,-82.85634059,House, 
49,TANASEE GAP RD,BALSAM GROVE,NC,28708,35.22948286,-82.87440594,House, 
112,TANASEE GAP RD,BALSAM GROVE,NC,28708,35.22999735,-82.87484581,House, 
130,TANASEE GAP RD,BALSAM GROVE,NC,28708,35.2303351,-82.87579169,House, 
167,TANASEE GAP RD,BALSAM GROVE,NC,28708,35.23037172,-82.87679947,House, 
286,TANASEE GAP RD,BALSAM GROVE,NC,28708,35.23244765,-82.87574262,House, 
308,TANASEE GAP RD,BALSAM GROVE,NC,28708,35.23226313,-82.87739128,House, 
358,TANASEE GAP RD,BALSAM GROVE,NC,28708,35.23292807,-82.87787823,House, 
390,TANASEE GAP RD,BALSAM GROVE,NC,28708,35.23262044,-82.87893356,House, 
392,TANASEE GAP RD,BALSAM GROVE,NC,28708,35.23414414,-82.87795662,House, 
395,TANASEE GAP RD,BALSAM GROVE,NC,28708,35.23101587,-82.87923388,House, 
493,TANASEE GAP RD,BALSAM GROVE,NC,28708,35.23058862,-82.88073487,House, 
495,TANASEE GAP RD,BALSAM GROVE,NC,28708,35.23112224,-82.88094396,House, 
525,TANASEE GAP RD,BALSAM GROVE,NC,28708,35.23050132,-82.88166094,House, 
578,TANASEE GAP RD,BALSAM GROVE,NC,28708,35.23204217,-82.88340028,House, 
601,TANASEE GAP RD,BALSAM GROVE,NC,28708,35.23050748,-82.88235652,House, 
615,TANASEE GAP RD,BALSAM GROVE,NC,28708,35.23030787,-82.88257611,House, 
633,TANASEE GAP RD,BALSAM GROVE,NC,28708,35.23011232,-82.88272985,House, 
636,TANASEE GAP RD,BALSAM GROVE,NC,28708,35.23030738,-82.88348159,House, 
772,TANASEE GAP RD,BALSAM GROVE,NC,28708,35.22930288,-82.88431627,House, 
774,TANASEE GAP RD,BALSAM GROVE,NC,28708,35.22939448,-82.88538894,House, 
821,TANASEE GAP RD,BALSAM GROVE,NC,28708,35.22750046,-82.88432903,House, 
882,TANASEE GAP RD,BALSAM GROVE,NC,28708,35.22784729,-82.88628726,House, 
884,TANASEE GAP RD,BALSAM GROVE,NC,28708,35.22824549,-82.8892893,House, 
1412,TANASEE GAP RD,BALSAM GROVE,NC,28708,35.22017287,-82.88750023,House, 
1498,TANASEE GAP RD,BALSAM GROVE,NC,28708,35.21959371,-82.88864613,House, 
1523,TANASEE GAP RD,BALSAM GROVE,NC,28708,35.21921092,-82.88847655,House, 
1627,TANASEE GAP RD,BALSAM GROVE,NC,28708,35.21895216,-82.89035085,House, 
1688,TANASEE GAP RD,BALSAM GROVE,NC,28708,35.21935051,-82.89142497,House, 
