Number,Street,City,State,PostalCode,Latitude,Longitude,Type,ApartmentNumber
60,AVIAN CT,BREVARD,NC,28712,35.18001277,-82.79935666,House, 
124,AVIAN CT,BREVARD,NC,28712,35.18041255,-82.79830783,House, 
144,AVIAN CT,BREVARD,NC,28712,35.1807791,-82.79809376,House, 
166,AVIAN CT,BREVARD,NC,28712,35.1812416,-82.79757231,House, 
7,BARTON RD,BREVARD,NC,28712,35.19177785,-82.78854698,House, 
9,BARTON RD,BREVARD,NC,28712,35.19171134,-82.78834661,House, 
34,BARTON RD,BREVARD,NC,28712,35.19129322,-82.78853179,House, 
35,BARTON RD,BREVARD,NC,28712,35.19160921,-82.78821577,House, 
51,BARTON RD,BREVARD,NC,28712,35.19135888,-82.78799737,House, 
76,BARTON RD,BREVARD,NC,28712,35.19083088,-82.78813501,House, 
95,BARTON RD,BREVARD,NC,28712,35.19163877,-82.78770683,House, 
115,BARTON RD,BREVARD,NC,28712,35.19085985,-82.78764419,House, 
21,BLACKBERRY LN,BREVARD,NC,28712,35.18992163,-82.78907503,House, 
48,BLACKBERRY LN,BREVARD,NC,28712,35.1892458,-82.78917171,House, 
10,BLAKE RD,BREVARD,NC,28712,35.19330501,-82.78663596,House, 
30,BLAKE RD,BREVARD,NC,28712,35.19348945,-82.78687956,House, 
35,BLAKE RD,BREVARD,NC,28712,35.19345258,-82.78732464,House, 
37,BLAKE RD,BREVARD,NC,28712,35.19360692,-82.78739207,House, 
215,BLAKE RD,BREVARD,NC,28712,35.19566155,-82.78896949,House, 
250,BLAKE RD,BREVARD,NC,28712,35.19592011,-82.78858119,House, 
55,BOXER RUN,BREVARD,NC,28712,35.19728836,-82.78996418,House, 
65,BOXER RUN,BREVARD,NC,28712,35.19803622,-82.78976398,House, 
100,BOXER RUN,BREVARD,NC,28712,35.1975849,-82.78945738,House, 
9,BROOKSIDE DR,BREVARD,NC,28712,35.18145977,-82.79180006,House, 
14,BROOKSIDE DR,BREVARD,NC,28712,35.18111067,-82.79111642,House, 
35,BROOKSIDE DR,BREVARD,NC,28712,35.18194425,-82.79210108,House, 
37,BROOKSIDE DR,BREVARD,NC,28712,35.18187757,-82.79170793,House, 
42,BROOKSIDE DR,BREVARD,NC,28712,35.18170518,-82.79127546,House, 
56,BROOKSIDE DR,BREVARD,NC,28712,35.18190609,-82.79100563,House, 
58,BROOKSIDE DR,BREVARD,NC,28712,35.18201872,-82.79107559,House, 
62,BROOKSIDE DR,BREVARD,NC,28712,35.18213391,-82.79114225,House, 
70,BROOKSIDE DR,BREVARD,NC,28712,35.18223779,-82.79122325,House, 
78,BROOKSIDE DR,BREVARD,NC,28712,35.18234307,-82.79128528,House, 
79,BROOKSIDE DR,BREVARD,NC,28712,35.18215424,-82.79158618,House, 
84,BROOKSIDE DR,BREVARD,NC,28712,35.18246431,-82.79138793,House, 
61,BROTHERS LN,BREVARD,NC,28712,35.19116935,-82.79670895,House, 
70,BROTHERS LN,BREVARD,NC,28712,35.19117838,-82.79647529,House, 
95,BROTHERS LN,BREVARD,NC,28712,35.19156006,-82.79646415,House, 
22,BULLDOZER LN,BREVARD,NC,28712,35.19185957,-82.78784306,House, 
71,BULLDOZER LN,BREVARD,NC,28712,35.19172326,-82.78699066,House, 
130,BULLDOZER LN,BREVARD,NC,28712,35.19097305,-82.7871603,House, 
180,CANADAY DR,BREVARD,NC,28712,35.19856827,-82.78506516,House, 
230,CANADAY DR,BREVARD,NC,28712,35.19916746,-82.78535247,House, 
250,CANADAY DR,BREVARD,NC,28712,35.19936167,-82.78611877,House, 
58,CATHEY'S CREEK CHURCH RD,BREVARD,NC,28712,35.19504901,-82.78557022,House, 
139,CATHEY'S CREEK CHURCH RD,BREVARD,NC,28712,35.19265416,-82.78662414,House, 
140,CATHEY'S CREEK CHURCH RD,BREVARD,NC,28712,35.19388025,-82.78579855,House, 
271,CATHEY'S CREEK CHURCH RD,BREVARD,NC,28712,35.1923012,-82.78736011,House, 
300,CATHEY'S CREEK CHURCH RD,BREVARD,NC,28712,35.19264114,-82.78805262,House, 
400,CATHEY'S CREEK CHURCH RD,BREVARD,NC,28712,35.19161697,-82.78965249,House, 
402,CATHEY'S CREEK CHURCH RD,BREVARD,NC,28712,35.19191072,-82.79135587,House, 
422,CATHEY'S CREEK CHURCH RD,BREVARD,NC,28712,35.19146415,-82.7904268,House, 
424,CATHEY'S CREEK CHURCH RD,BREVARD,NC,28712,35.19129094,-82.78973257,House, 
430,CATHEY'S CREEK CHURCH RD,BREVARD,NC,28712,35.19113796,-82.78971744,House, 
456,CATHEY'S CREEK CHURCH RD,BREVARD,NC,28712,35.19088182,-82.78977265,House, 
460,CATHEY'S CREEK CHURCH RD,BREVARD,NC,28712,35.19070394,-82.78988942,House, 
554,CATHEY'S CREEK CHURCH RD,BREVARD,NC,28712,35.18987236,-82.79064325,House, 
584,CATHEY'S CREEK CHURCH RD,BREVARD,NC,28712,35.18952701,-82.79069529,House, 
590,CATHEY'S CREEK CHURCH RD,BREVARD,NC,28712,35.18989827,-82.79159269,House, 
594,CATHEY'S CREEK CHURCH RD,BREVARD,NC,28712,35.18922216,-82.79078715,House, 
630,CATHEY'S CREEK CHURCH RD,BREVARD,NC,28712,35.18916378,-82.79106909,House, 
645,CATHEY'S CREEK CHURCH RD,BREVARD,NC,28712,35.1882049,-82.79093457,House, 
751,CATHEY'S CREEK CHURCH RD,BREVARD,NC,28712,35.18713807,-82.79210896,House, 
753,CATHEY'S CREEK CHURCH RD,BREVARD,NC,28712,35.18667224,-82.79225449,House, 
783,CATHEY'S CREEK CHURCH RD,BREVARD,NC,28712,35.18687186,-82.79259719,House, 
808,CATHEY'S CREEK CHURCH RD,BREVARD,NC,28712,35.18710382,-82.79300545,House, 
914,CATHEY'S CREEK CHURCH RD,BREVARD,NC,28712,35.18584981,-82.79441075,House, 
968,CATHEY'S CREEK CHURCH RD,BREVARD,NC,28712,35.18503025,-82.7948048,House, 
970,CATHEY'S CREEK CHURCH RD,BREVARD,NC,28712,35.18521269,-82.79498508,House, 
977,CATHEY'S CREEK CHURCH RD,BREVARD,NC,28712,35.18467454,-82.79347794,House, 
1054,CATHEY'S CREEK CHURCH RD,BREVARD,NC,28712,35.18381085,-82.79576098,House, 
261,CATHEY'S CREEK RD,BREVARD,NC,28712,35.20235989,-82.78026285,House, 
341,CATHEY'S CREEK RD,BREVARD,NC,28712,35.20347241,-82.78012825,House, 
343,CATHEY'S CREEK RD,BREVARD,NC,28712,35.20349978,-82.78010426,House, 
1112,CATHEY'S CREEK RD,BREVARD,NC,28712,35.21086421,-82.78207275,House, 
328,CHERRYFIELD CREEK RD,BREVARD,NC,28712,35.18042744,-82.80857004,House, 
386,CHERRYFIELD CREEK RD,BREVARD,NC,28712,35.1854403,-82.80577845,House, 
388,CHERRYFIELD CREEK RD,BREVARD,NC,28712,35.18434994,-82.80680913,House, 
589,CHERRYFIELD CREEK RD,BREVARD,NC,28712,35.18368212,-82.80958058,House, 
592,CHERRYFIELD CREEK RD,BREVARD,NC,28712,35.18358731,-82.80895822,House, 
596,CHERRYFIELD CREEK RD,BREVARD,NC,28712,35.18342779,-82.80827486,House, 
600,CHERRYFIELD CREEK RD,BREVARD,NC,28712,35.18382312,-82.80861756,House, 
621,CHERRYFIELD CREEK RD,BREVARD,NC,28712,35.18478572,-82.80953144,House, 
20,CHERRYFIELD LOOP,BREVARD,NC,28712,35.18100328,-82.80041537,House, 
78,CLEMENT RD,BREVARD,NC,28712,35.19908015,-82.7824604,House, 
101,CLEMENT RD,BREVARD,NC,28712,35.19876721,-82.78295364,House, 
115,CLEMENT RD,BREVARD,NC,28712,35.19898545,-82.78333399,House, 
133,CLEMENT RD,BREVARD,NC,28712,35.19913844,-82.78370313,House, 
151,CLEMENT RD,BREVARD,NC,28712,35.19951616,-82.78411555,House, 
160,CLEMENT RD,BREVARD,NC,28712,35.19959748,-82.78352711,House, 
216,CLEMENT RD,BREVARD,NC,28712,35.20051248,-82.78377932,House, 
241,CLEMENT RD,BREVARD,NC,28712,35.20050955,-82.78426626,House, 
250,CLEMENT RD,BREVARD,NC,28712,35.20073497,-82.78382143,House, 
252,CLEMENT RD,BREVARD,NC,28712,35.20076071,-82.78355245,House, 
253,CLEMENT RD,BREVARD,NC,28712,35.20071789,-82.78427053,House, 
267,CLEMENT RD,BREVARD,NC,28712,35.20089887,-82.78435967,House, 
268,CLEMENT RD,BREVARD,NC,28712,35.20104839,-82.78351188,House, 
272,CLEMENT RD,BREVARD,NC,28712,35.20126423,-82.78400141,House, 
273,CLEMENT RD,BREVARD,NC,28712,35.20101343,-82.78552393,House, 
289,CLEMENT RD,BREVARD,NC,28712,35.20126418,-82.78478758,House, 
308,CLEMENT RD,BREVARD,NC,28712,35.20174772,-82.78322834,House, 
313,CLEMENT RD,BREVARD,NC,28712,35.20218021,-82.78519234,House, 
364,CLEMENT RD,BREVARD,NC,28712,35.20225972,-82.78410967,House, 
365,CLEMENT RD,BREVARD,NC,28712,35.20225054,-82.78469922,House, 
435,CLEMENT RD,BREVARD,NC,28712,35.20348394,-82.78540274,House, 
477,CLEMENT RD,BREVARD,NC,28712,35.20375403,-82.78538516,House, 
480,CLEMENT RD,BREVARD,NC,28712,35.20383136,-82.78427734,House, 
489,CLEMENT RD,BREVARD,NC,28712,35.20408304,-82.78533733,House, 
501,CLEMENT RD,BREVARD,NC,28712,35.20530952,-82.78725189,House, 
503,CLEMENT RD,BREVARD,NC,28712,35.2047693,-82.78579964,House, 
527,CLEMENT RD,BREVARD,NC,28712,35.20529963,-82.7862189,House, 
536,CLEMENT RD,BREVARD,NC,28712,35.20555129,-82.7820853,House, 
585,CLEMENT RD,BREVARD,NC,28712,35.20522858,-82.78575787,House, 
595,CLEMENT RD,BREVARD,NC,28712,35.20589332,-82.78464774,House, 
653,CLEMENT RD,BREVARD,NC,28712,35.20651628,-82.78462143,House, 
685,CLEMENT RD,BREVARD,NC,28712,35.20709267,-82.78488559,House, 
687,CLEMENT RD,BREVARD,NC,28712,35.20692934,-82.78524539,House, 
729,CLEMENT RD,BREVARD,NC,28712,35.20755425,-82.78382341,House, 
852,CLEMENT RD,BREVARD,NC,28712,35.20725228,-82.78089836,House, 
861,CLEMENT RD,BREVARD,NC,28712,35.20731072,-82.78265313,House, 
871,CLEMENT RD,BREVARD,NC,28712,35.20794359,-82.78303807,House, 
1622,CLEMENT RD,BREVARD,NC,28712,35.21187021,-82.79093758,House, 
1065,CLINIC RD,BALSAM GROVE,NC,28708,35.23464666,-82.84988557,House, 
1072,CLINIC RD,BALSAM GROVE,NC,28708,35.23402459,-82.84893939,House, 
1340,CLINIC RD,BALSAM GROVE,NC,28708,35.23304215,-82.84622515,House, 
1342,CLINIC RD,BALSAM GROVE,NC,28708,35.23346026,-82.84649529,House, 
1500,CLINIC RD,BALSAM GROVE,NC,28708,35.23432527,-82.84586697,House, 
40,CONFEDERATE LN,BREVARD,NC,28712,35.18115089,-82.79500555,House, 
41,CONFEDERATE LN,BREVARD,NC,28712,35.18119877,-82.79444743,House, 
101,COVE LN,BREVARD,NC,28712,35.19868624,-82.79853911,House, 
103,COVE LN,BREVARD,NC,28712,35.19874927,-82.79897264,House, 
210,COVE LN,BREVARD,NC,28712,35.19888611,-82.79988479,House, 
63,DAVES ROCK RD,BALSAM GROVE,NC,28708,35.22185313,-82.84963112,House, 
712,DUFF COVE RD,BREVARD,NC,28712,35.21070845,-82.79273806,House, 
1401,FISH HATCHERY RD,PISGAH FOREST,NC,28768,35.28413655,-82.79222122,House, 
44,FOREST LAKE RD,BREVARD,NC,28712,35.20186384,-82.78606125,House, 
91,FOREST LAKE RD,BREVARD,NC,28712,35.20098059,-82.7860925,House, 
214,FOREST LAKE RD,BREVARD,NC,28712,35.20218364,-82.78737302,House, 
216,FOREST LAKE RD,BREVARD,NC,28712,35.20246958,-82.78729427,House, 
254,FOREST LAKE RD,BREVARD,NC,28712,35.20264455,-82.78794367,House, 
258,FOREST LAKE RD,BREVARD,NC,28712,35.20278753,-82.78836862,House, 
280,FOREST LAKE RD,BREVARD,NC,28712,35.20237016,-82.78885651,House, 
290,FOREST LAKE RD,BREVARD,NC,28712,35.20202079,-82.78907775,House, 
319,FOREST LAKE RD,BREVARD,NC,28712,35.20167404,-82.78849258,House, 
339,FOREST LAKE RD,BREVARD,NC,28712,35.20131237,-82.78849133,House, 
342,FOREST LAKE RD,BREVARD,NC,28712,35.20158742,-82.78959214,House, 
346,FOREST LAKE RD,BREVARD,NC,28712,35.20095489,-82.78906721,House, 
363,FOREST LAKE RD,BREVARD,NC,28712,35.2009336,-82.78821228,House, 
410,FOREST LAKE RD,BREVARD,NC,28712,35.20223187,-82.79107163,House, 
412,FOREST LAKE RD,BREVARD,NC,28712,35.20148978,-82.79054715,House, 
419,FOREST LAKE RD,BREVARD,NC,28712,35.20036151,-82.78891706,House, 
443,FOREST LAKE RD,BREVARD,NC,28712,35.1998602,-82.78860734,House, 
445,FOREST LAKE RD,BREVARD,NC,28712,35.19954258,-82.78925673,House, 
546,FOREST LAKE RD,BREVARD,NC,28712,35.20068618,-82.79005425,House, 
550,FOREST LAKE RD,BREVARD,NC,28712,35.20115918,-82.79070696,House, 
600,FOREST LAKE RD,BREVARD,NC,28712,35.20036349,-82.79093148,House, 
27,FOWLER LN,BREVARD,NC,28712,35.19952379,-82.78473605,House, 
66,FOWLER LN,BREVARD,NC,28712,35.20012158,-82.78553292,House, 
68,FOWLER LN,BREVARD,NC,28712,35.20006245,-82.78579014,House, 
158,FOWLER LN,BREVARD,NC,28712,35.20015221,-82.78664056,House, 
206,FOWLER LN,BREVARD,NC,28712,35.19952749,-82.78742636,House, 
234,FOWLER LN,BREVARD,NC,28712,35.19909714,-82.78770263,House, 
271,FOWLER LN,BREVARD,NC,28712,35.19847263,-82.78759139,House, 
380,FOWLER LN,BREVARD,NC,28712,35.1987885,-82.78903484,House, 
65,GARLAND CT,BREVARD,NC,28712,35.18256151,-82.79380418,House, 
83,GARLAND CT,BREVARD,NC,28712,35.18271984,-82.79326416,House, 
84,GARLAND CT,BREVARD,NC,28712,35.18138193,-82.79381315,House, 
85,GARLAND CT,BREVARD,NC,28712,35.18197161,-82.79389236,House, 
129,GARLAND CT,BREVARD,NC,28712,35.18178813,-82.79338654,House, 
130,GARLAND CT,BREVARD,NC,28712,35.18120541,-82.79307014,House, 
141,GARLAND CT,BREVARD,NC,28712,35.1817433,-82.79269316,House, 
189,GARLAND CT,BREVARD,NC,28712,35.1814173,-82.79214382,House, 
214,GARLAND CT,BREVARD,NC,28712,35.18080441,-82.79236923,House, 
10,GLORY LN,BREVARD,NC,28712,35.18270798,-82.79671514,House, 
19,GLORY LN,BREVARD,NC,28712,35.18297145,-82.79624005,House, 
25,GLORY LN,BREVARD,NC,28712,35.18293047,-82.79614568,House, 
25,GOOD NEIGHBOR DR,BREVARD,NC,28712,35.19896098,-82.78199104,House, 
76,GOOD NEIGHBOR DR,BREVARD,NC,28712,35.19983871,-82.78092607,House, 
89,GOOD NEIGHBOR DR,BREVARD,NC,28712,35.19965069,-82.78183783,House, 
113,GOOD NEIGHBOR DR,BREVARD,NC,28712,35.19988575,-82.78190654,House, 
123,GOOD NEIGHBOR DR,BREVARD,NC,28712,35.2001322,-82.78197755,House, 
138,GOOD NEIGHBOR DR,BREVARD,NC,28712,35.20032306,-82.7813463,House, 
144,GOOD NEIGHBOR DR,BREVARD,NC,28712,35.20059009,-82.78134164,House, 
149,GOOD NEIGHBOR DR,BREVARD,NC,28712,35.20039056,-82.78206507,House, 
157,GOOD NEIGHBOR DR,BREVARD,NC,28712,35.20063086,-82.78217227,House, 
174,GOOD NEIGHBOR DR,BREVARD,NC,28712,35.20086028,-82.78137618,House, 
183,GOOD NEIGHBOR DR,BREVARD,NC,28712,35.20113599,-82.78261613,House, 
190,GOOD NEIGHBOR DR,BREVARD,NC,28712,35.20131979,-82.78176204,House, 
71,GREEN RD,BREVARD,NC,28712,35.18893937,-82.78681186,House, 
105,GREEN RD,BREVARD,NC,28712,35.1887287,-82.78623925,House, 
132,GREEN RD,BREVARD,NC,28712,35.18800474,-82.78635342,House, 
134,GREEN RD,BREVARD,NC,28712,35.187605,-82.78661428,House, 
244,GREEN RD,BREVARD,NC,28712,35.18664275,-82.78529717,House, 
246,GREEN RD,BREVARD,NC,28712,35.1861878,-82.78562887,House, 
9,GRINDSTAFF CIR,BREVARD,NC,28712,35.18572452,-82.79391447,House, 
17,GRINDSTAFF CIR,BREVARD,NC,28712,35.1855968,-82.79375445,House, 
24,GRINDSTAFF CIR,BREVARD,NC,28712,35.18544523,-82.79397213,House, 
27,GRINDSTAFF CIR,BREVARD,NC,28712,35.18543963,-82.7935357,House, 
50,GRINDSTAFF CIR,BREVARD,NC,28712,35.18527669,-82.79393494,House, 
55,GRINDSTAFF CIR,BREVARD,NC,28712,35.18512452,-82.79371784,House, 
72,GRINDSTAFF CIR,BREVARD,NC,28712,35.18529097,-82.79421561,House, 
73,GRINDSTAFF CIR,BREVARD,NC,28712,35.18494785,-82.79403577,House, 
77,HABITAT WAY,BREVARD,NC,28712,35.18948819,-82.79181345,House, 
78,HABITAT WAY,BREVARD,NC,28712,35.18960685,-82.79167405,House, 
96,HABITAT WAY,BREVARD,NC,28712,35.189781,-82.791894,House, 
41,HILTON DR,BREVARD,NC,28712,35.18759449,-82.79102885,House, 
80,HILTON DR,BREVARD,NC,28712,35.18684591,-82.79155385,House, 
143,HILTON DR,BREVARD,NC,28712,35.1864119,-82.79154079,House, 
18,HOPE RD,BREVARD,NC,28712,35.18316581,-82.79710293,House, 
25,HOPE RD,BREVARD,NC,28712,35.18266184,-82.79764728,House, 
130,HOPE RD,BREVARD,NC,28712,35.18282645,-82.798639,House, 
140,HOPE RD,BREVARD,NC,28712,35.18230071,-82.79923472,House, 
611,JIM'S COVE RD,BALSAM GROVE,NC,28708,35.22307323,-82.84884785,House, 
681,JIM'S COVE RD,BALSAM GROVE,NC,28708,35.22390275,-82.84816899,House, 
21,LARGO LN,BREVARD,NC,28712,35.20206358,-82.78707639,House, 
31,LARGO LN,BREVARD,NC,28712,35.20228317,-82.78694298,House, 
39,LARGO LN,BREVARD,NC,28712,35.20231528,-82.78676092,House, 
40,LARGO LN,BREVARD,NC,28712,35.20211549,-82.78652438,House, 
35,LIMEKILN BRANCH RD,BREVARD,NC,28712,35.19511059,-82.79189474,House, 
63,LIMEKILN BRANCH RD,BREVARD,NC,28712,35.19577814,-82.79275356,House, 
110,LIMEKILN BRANCH RD,BREVARD,NC,28712,35.19584562,-82.79120219,House, 
119,LIMEKILN BRANCH RD,BREVARD,NC,28712,35.19607345,-82.79228117,House, 
161,LIMEKILN BRANCH RD,BREVARD,NC,28712,35.19655598,-82.791444,House, 
170,LIMEKILN BRANCH RD,BREVARD,NC,28712,35.19623414,-82.7906292,House, 
172,LIMEKILN BRANCH RD,BREVARD,NC,28712,35.19630712,-82.79012531,House, 
125,LIMEKILN BRANCH RD,BREVARD,NC,28712,35.19626269,-82.79178642,House, 
200,LIMEKILN BRANCH RD,BREVARD,NC,28712,35.19675539,-82.79013115,House, 
205,LIMEKILN BRANCH RD,BREVARD,NC,28712,35.19825132,-82.79050134,House, 
23,LITTLE EGYPT RD,BREVARD,NC,28712,35.18149157,-82.79450662,House, 
48,LITTLE EGYPT RD,BREVARD,NC,28712,35.18190723,-82.7951739,House, 
75,LITTLE EGYPT RD,BREVARD,NC,28712,35.18144353,-82.79553898,House, 
90,LITTLE EGYPT RD,BREVARD,NC,28712,35.18169434,-82.79607248,House, 
91,LITTLE EGYPT RD,BREVARD,NC,28712,35.18134732,-82.79577401,House, 
172,LITTLE EGYPT RD,BREVARD,NC,28712,35.18053619,-82.796137,House, 
193,LITTLE EGYPT RD,BREVARD,NC,28712,35.18063734,-82.79518859,House, 
235,LITTLE EGYPT RD,BREVARD,NC,28712,35.18066426,-82.79458453,House, 
246,LITTLE EGYPT RD,BREVARD,NC,28712,35.1801649,-82.79451139,House, 
265,LITTLE EGYPT RD,BREVARD,NC,28712,35.18071935,-82.79370642,House, 
270,LITTLE EGYPT RD,BREVARD,NC,28712,35.18031294,-82.79399601,House, 
283,LITTLE EGYPT RD,BREVARD,NC,28712,35.18081839,-82.7930794,House, 
300,LITTLE EGYPT RD,BREVARD,NC,28712,35.18019929,-82.79355622,House, 
343,LITTLE EGYPT RD,BREVARD,NC,28712,35.18020989,-82.79258676,House, 
379,LITTLE EGYPT RD,BREVARD,NC,28712,35.18012827,-82.79178823,House, 
130,LOLLIS LN,BREVARD,NC,28712,35.20341363,-82.79070829,House, 
72,LOPEZ LN,BREVARD,NC,28712,35.19439286,-82.79512607,House, 
78,LOPEZ LN,BREVARD,NC,28712,35.19454323,-82.79515387,House, 
81,LOPEZ LN,BREVARD,NC,28712,35.19463329,-82.79544141,House, 
85,LOPEZ LN,BREVARD,NC,28712,35.19475481,-82.79532823,House, 
31,MCKINNEY RD,BREVARD,NC,28712,35.18788129,-82.78490308,House, 
64,MCKINNEY RD,BREVARD,NC,28712,35.18809595,-82.7840727,House, 
66,MCKINNEY RD,BREVARD,NC,28712,35.18823383,-82.78380631,House, 
83,MCKINNEY RD,BREVARD,NC,28712,35.18801218,-82.78461733,House, 
84,MCKINNEY RD,BREVARD,NC,28712,35.18821765,-82.78432516,House, 
98,MCKINNEY RD,BREVARD,NC,28712,35.18854991,-82.784301,House, 
100,MCKINNEY RD,BREVARD,NC,28712,35.18862204,-82.78394809,House, 
117,MCKINNEY RD,BREVARD,NC,28712,35.18843756,-82.78472651,House, 
120,MCKINNEY RD,BREVARD,NC,28712,35.18868179,-82.7846956,House, 
130,MCKINNEY RD,BREVARD,NC,28712,35.18854906,-82.78497236,House, 
176,MCKINNEY RD,BREVARD,NC,28712,35.18801036,-82.78520403,House, 
6,MILL CREEK CTR,BREVARD,NC,28712,35.2014932,-82.78008814,House, 
34,MISTY LN,BREVARD,NC,28712,35.19146008,-82.78333659,House, 
80,MISTY LN,BREVARD,NC,28712,35.19077951,-82.78405872,House, 
81,MISTY LN,BREVARD,NC,28712,35.19079245,-82.78324771,House, 
191,MISTY LN,BREVARD,NC,28712,35.18940934,-82.78259015,House, 
265,MISTY LN,BREVARD,NC,28712,35.1888953,-82.78194109,House, 
56,MONTEITH RD,BREVARD,NC,28712,35.1894013,-82.78622608,House, 
1211,N RICH MOUNTAIN RD,BREVARD,NC,28712,35.25011469,-82.84035621,House, 
62,NIGHT FOX TRL,BREVARD,NC,28712,35.19995226,-82.78805532,House, 
81,NIGHT FOX TRL,BREVARD,NC,28712,35.2001875,-82.78737942,House, 
82,NIGHT FOX TRL,BREVARD,NC,28712,35.1998564,-82.7875471,House, 
81,NORA'S WAY,BREVARD,NC,28712,35.19554388,-82.78352199,House, 
82,NORA'S WAY,BREVARD,NC,28712,35.19622375,-82.78341296,House, 
146,NORA'S WAY,BREVARD,NC,28712,35.19607308,-82.78396725,House, 
210,NORA'S WAY,BREVARD,NC,28712,35.19629108,-82.78471749,House, 
400,NORA'S WAY,BREVARD,NC,28712,35.19690512,-82.78750262,House, 
168,OLD COUNTY HOME RD W,BREVARD,NC,28712,35.19592465,-82.78182674,House, 
195,OLD COUNTY HOME RD W,BREVARD,NC,28712,35.19532847,-82.78133287,House, 
197,OLD COUNTY HOME RD W,BREVARD,NC,28712,35.19395664,-82.78146536,House, 
199,OLD COUNTY HOME RD W,BREVARD,NC,28712,35.19443728,-82.7814709,House, 
210,OLD COUNTY HOME RD W,BREVARD,NC,28712,35.19550495,-82.78190395,House, 
211,OLD COUNTY HOME RD W,BREVARD,NC,28712,35.19490451,-82.78164616,House, 
239,OLD COUNTY HOME RD W,BREVARD,NC,28712,35.19478284,-82.78195317,House, 
285,OLD COUNTY HOME RD W,BREVARD,NC,28712,35.19443639,-82.78193565,House, 
287,OLD COUNTY HOME RD W,BREVARD,NC,28712,35.19409457,-82.78187174,House, 
411,OLD COUNTY HOME RD W,BREVARD,NC,28712,35.19297386,-82.78316738,House, 
440,OLD COUNTY HOME RD W,BREVARD,NC,28712,35.19219773,-82.78350216,House, 
465,OLD COUNTY HOME RD W,BREVARD,NC,28712,35.19168858,-82.78251121,House, 
57,OLD GLOUSTER RD,BREVARD,NC,28712,35.1803865,-82.81017348,House, 
112,OLD GLOUSTER RD,BREVARD,NC,28712,35.18102629,-82.81043115,House, 
165,OLD GLOUSTER RD,BREVARD,NC,28712,35.18100838,-82.81193779,House, 
3661,PARKWAY RD,ROSMAN,NC,28772,35.18067252,-82.84207745,House, 
3662,PARKWAY RD,ROSMAN,NC,28772,35.18305582,-82.84184816,House, 
28,PASSMORE LN,BREVARD,NC,28712,35.18046935,-82.80954163,House, 
146,PASSMORE LN,BREVARD,NC,28712,35.18013502,-82.81251595,House, 
28,PAXTON DR,BREVARD,NC,28712,35.1886937,-82.79162054,House, 
31,PAXTON DR,BREVARD,NC,28712,35.18860938,-82.7918038,House, 
33,PAXTON DR,BREVARD,NC,28712,35.18862833,-82.79182799,House, 
171,PAXTON DR,BREVARD,NC,28712,35.18953711,-82.79288943,House, 
27,PETE MANN RD,BREVARD,NC,28712,35.19633589,-82.79439826,House, 
29,PETE MANN RD,BREVARD,NC,28712,35.19654509,-82.79465478,House, 
