Number,Street,City,State,PostalCode,Latitude,Longitude,Type,ApartmentNumber
15,ADVENTURE RIDGE RD,BREVARD,NC,28712,35.16521983,-82.81525994,House, 
45,ADVENTURE RIDGE RD,BREVARD,NC,28712,35.16529876,-82.81583384,House, 
53,ADVENTURE RIDGE RD,BREVARD,NC,28712,35.16534799,-82.81595696,House, 
61,ADVENTURE RIDGE RD,BREVARD,NC,28712,35.16538937,-82.81606983,House, 
205,ADVENTURE RIDGE RD,BREVARD,NC,28712,35.16443114,-82.81809277,House, 
270,ADVENTURE RIDGE RD,BREVARD,NC,28712,35.1641225,-82.81891943,House, 
272,ADVENTURE RIDGE RD,BREVARD,NC,28712,35.16386464,-82.81898984,House, 
291,ADVENTURE RIDGE RD,BREVARD,NC,28712,35.1636276,-82.81840302,House, 
293,ADVENTURE RIDGE RD,BREVARD,NC,28712,35.16346938,-82.81861029,House, 
360,ADVENTURE RIDGE RD,BREVARD,NC,28712,35.16344275,-82.82002372,House, 
399,ADVENTURE RIDGE RD,BREVARD,NC,28712,35.16268585,-82.81987473,House, 
440,ADVENTURE RIDGE RD,BREVARD,NC,28712,35.16267147,-82.82048706,House, 
56,ALLEN RD,BREVARD,NC,28712,35.16905077,-82.6996618,House, 
58,ALLEN RD,BREVARD,NC,28712,35.16950244,-82.70040688,House, 
146,ALLEN RD,BREVARD,NC,28712,35.16870806,-82.70103752,House, 
147,ALLEN RD,BREVARD,NC,28712,35.16843121,-82.69994554,House, 
90,AMA CT,BREVARD,NC,28712,35.16085508,-82.73430031,House, 
42,AVIAN CT,BREVARD,NC,28712,35.17936565,-82.79927034,House, 
106,AVIAN CT,BREVARD,NC,28712,35.17938935,-82.79842102,House, 
14,BANTAM WAY,BREVARD,NC,28712,35.16565189,-82.73042669,House, 
21,BANTAM WAY,BREVARD,NC,28712,35.16581792,-82.73056071,House, 
24,BANTAM WAY,BREVARD,NC,28712,35.16576437,-82.73036751,House, 
246,BEAR CREEK RD,ROSMAN,NC,28772,35.17536098,-82.83728046,House, 
263,BEAR CREEK RD,ROSMAN,NC,28772,35.1750869,-82.83724492,House, 
13,BEVERLY HILLS DR,BREVARD,NC,28712,35.16167423,-82.70919809,House, 
22,BEVERLY HILLS DR,BREVARD,NC,28712,35.16168177,-82.70957222,House, 
61,BEVERLY HILLS DR,BREVARD,NC,28712,35.16128428,-82.70915099,House, 
90,BEVERLY HILLS DR,BREVARD,NC,28712,35.16121314,-82.70955123,House, 
100,BEVERLY HILLS DR,BREVARD,NC,28712,35.16072554,-82.70997721,House, 
103,BEVERLY HILLS DR,BREVARD,NC,28712,35.16068694,-82.70939243,House, 
130,BEVERLY HILLS DR,BREVARD,NC,28712,35.1601744,-82.7100594,House, 
135,BEVERLY HILLS DR,BREVARD,NC,28712,35.16023047,-82.7094546,House, 
166,BLACK BEAVER RD,BREVARD,NC,28712,35.1633279,-82.6915699,House, 
264,BLACK BEAVER RD,BREVARD,NC,28712,35.16370667,-82.69347044,House, 
25,BLUE HERON TRL,BREVARD,NC,28712,35.17818308,-82.74146547,House, 
63,BLUE HERON TRL,BREVARD,NC,28712,35.17793449,-82.74060652,House, 
70,BLUE HERON TRL,BREVARD,NC,28712,35.17777979,-82.74116114,House, 
116,BLUEBIRD TRL,BREVARD,NC,28712,35.16994454,-82.7229254,House, 
370,BLUEBIRD TRL,BREVARD,NC,28712,35.17368178,-82.72190299,House, 
444,BLUEBIRD TRL,BREVARD,NC,28712,35.1745082,-82.72155781,House, 
480,BLUEBIRD TRL,BREVARD,NC,28712,35.17505326,-82.72234799,House, 
800,BLUEBIRD TRL,BREVARD,NC,28712,35.17696544,-82.72650788,House, 
19,BOBCAT TRL,BREVARD,NC,28712,35.17159029,-82.72436751,House, 
21,BOBCAT TRL,BREVARD,NC,28712,35.17188926,-82.72412493,House, 
32,BOBCAT TRL,BREVARD,NC,28712,35.1714034,-82.72361861,House, 
46,BOBCAT TRL,BREVARD,NC,28712,35.17168382,-82.72338051,House, 
58,BOBCAT TRL,BREVARD,NC,28712,35.17193544,-82.72302841,House, 
70,BOTTOMLESS POND RD,BREVARD,NC,28712,35.16323445,-82.67704201,House, 
101,BOTTOMLESS POND RD,BREVARD,NC,28712,35.16311612,-82.67652513,House, 
24,BRECKENRIDGE TRL,BREVARD,NC,28712,35.17124211,-82.72309794,House, 
47,BRECKENRIDGE TRL,BREVARD,NC,28712,35.17091348,-82.72365377,House, 
164,BRECKENRIDGE TRL,BREVARD,NC,28712,35.17120229,-82.72454957,House, 
189,BRECKENRIDGE TRL,BREVARD,NC,28712,35.17141004,-82.72519497,House, 
27,BRUNDY AVE,BREVARD,NC,28712,35.16516507,-82.71000399,House, 
28,BRUNDY AVE,BREVARD,NC,28712,35.16526117,-82.71115151,House, 
36,BRUNDY AVE,BREVARD,NC,28712,35.16506767,-82.71106417,House, 
50,BRUNDY AVE,BREVARD,NC,28712,35.16469869,-82.71101603,House, 
65,BRUNDY AVE,BREVARD,NC,28712,35.16454811,-82.71063417,House, 
68,BRUNDY AVE,BREVARD,NC,28712,35.16454405,-82.71099507,House, 
85,BRUNDY AVE,BREVARD,NC,28712,35.16430927,-82.71059713,House, 
86,BRUNDY AVE,BREVARD,NC,28712,35.16420953,-82.71084079,House, 
97,BRUNDY AVE,BREVARD,NC,28712,35.16396954,-82.71060826,House, 
114,BRUNDY AVE,BREVARD,NC,28712,35.16416392,-82.71110302,House, 
319,BRUNDY AVE,BREVARD,NC,28712,35.16168927,-82.71172581,House, 
350,BRUNDY AVE,BREVARD,NC,28712,35.16226348,-82.71172208,House, 
24,BUCK HORN DR,CEDAR MOUNTAIN,NC,28718,35.16773992,-82.65362898,House, 
45,BUCK HORN DR,CEDAR MOUNTAIN,NC,28718,35.16879182,-82.65378923,House, 
88,BUCK HORN DR,CEDAR MOUNTAIN,NC,28718,35.16816699,-82.65257027,House, 
95,BUCK HORN DR,CEDAR MOUNTAIN,NC,28718,35.16944983,-82.65227575,House, 
96,BUCK HORN DR,CEDAR MOUNTAIN,NC,28718,35.16817203,-82.65103344,House, 
144,BUCKBERRY LN,BREVARD,NC,28712,35.17625061,-82.81236758,House, 
134,CALVERT RD,BREVARD,NC,28712,35.16897831,-82.80592223,House, 
163,CALVERT RD,BREVARD,NC,28712,35.16821495,-82.80469147,House, 
198,CALVERT RD,BREVARD,NC,28712,35.16783029,-82.80578078,House, 
226,CALVERT RD,BREVARD,NC,28712,35.16740314,-82.80614911,House, 
228,CALVERT RD,BREVARD,NC,28712,35.16738097,-82.80558649,House, 
265,CALVERT RD,BREVARD,NC,28712,35.16688157,-82.80493305,House, 
266,CALVERT RD,BREVARD,NC,28712,35.16657579,-82.80666,House, 
272,CALVERT RD,BREVARD,NC,28712,35.16673107,-82.805462,House, 
302,CALVERT RD,BREVARD,NC,28712,35.16633437,-82.80545607,House, 
342,CALVERT RD,BREVARD,NC,28712,35.16586018,-82.80532972,House, 
410,CALVERT RD,BREVARD,NC,28712,35.16482175,-82.80464808,House, 
522,CALVERT RD,BREVARD,NC,28712,35.16345735,-82.80424471,House, 
605,CALVERT RD,BREVARD,NC,28712,35.1627236,-82.80419415,House, 
628,CALVERT RD,BREVARD,NC,28712,35.16259448,-82.80525793,House, 
630,CALVERT RD,BREVARD,NC,28712,35.16288325,-82.80678554,House, 
637,CALVERT RD,BREVARD,NC,28712,35.16234725,-82.80419476,House, 
639,CALVERT RD,BREVARD,NC,28712,35.16222337,-82.80379596,House, 
657,CALVERT RD,BREVARD,NC,28712,35.16166862,-82.80450588,House, 
700,CALVERT RD,BREVARD,NC,28712,35.16119118,-82.80551197,House, 
890,CALVERT RD,BREVARD,NC,28712,35.16087913,-82.80746813,House, 
896,CALVERT RD,BREVARD,NC,28712,35.16179342,-82.80837696,House, 
928,CALVERT RD,BREVARD,NC,28712,35.16001988,-82.80815996,House, 
137,CANTRELL MOUNTAIN RD,BREVARD,NC,28712,35.16318149,-82.72454357,House, 
217,CANTRELL MOUNTAIN RD,BREVARD,NC,28712,35.16415329,-82.72395968,House, 
221,CANTRELL MOUNTAIN RD,BREVARD,NC,28712,35.16417791,-82.72270469,House, 
911,CANTRELL MOUNTAIN RD,BREVARD,NC,28712,35.16756526,-82.72566326,House, 
950,CANTRELL MOUNTAIN RD,BREVARD,NC,28712,35.16904215,-82.72516771,House, 
993,CANTRELL MOUNTAIN RD,BREVARD,NC,28712,35.1684004,-82.72622488,House, 
1080,CANTRELL MOUNTAIN RD,BREVARD,NC,28712,35.16986462,-82.72666461,House, 
1100,CANTRELL MOUNTAIN RD,BREVARD,NC,28712,35.17124978,-82.72826731,House, 
1141,CANTRELL MOUNTAIN RD,BREVARD,NC,28712,35.16953851,-82.72769495,House, 
1211,CANTRELL MOUNTAIN RD,BREVARD,NC,28712,35.16977057,-82.72883422,House, 
1241,CANTRELL MOUNTAIN RD,BREVARD,NC,28712,35.17033558,-82.72922461,House, 
1271,CANTRELL MOUNTAIN RD,BREVARD,NC,28712,35.17091151,-82.72910553,House, 
1288,CANTRELL MOUNTAIN RD,BREVARD,NC,28712,35.17158207,-82.72894376,House, 
1313,CANTRELL MOUNTAIN RD,BREVARD,NC,28712,35.17145894,-82.72959902,House, 
1366,CANTRELL MOUNTAIN RD,BREVARD,NC,28712,35.17329065,-82.72919637,House, 
1364,CANTRELL MOUNTAIN RD,BREVARD,NC,28712,35.17214694,-82.72952528,House, 
1371,CANTRELL MOUNTAIN RD,BREVARD,NC,28712,35.17199094,-82.73007377,House, 
1559,CANTRELL MOUNTAIN RD,BREVARD,NC,28712,35.17383386,-82.73170835,House, 
1565,CANTRELL MOUNTAIN RD,BREVARD,NC,28712,35.1739727,-82.73175125,House, 
1581,CANTRELL MOUNTAIN RD,BREVARD,NC,28712,35.17355756,-82.7316816,House, 
1593,CANTRELL MOUNTAIN RD,BREVARD,NC,28712,35.17493098,-82.73185301,House, 
1630,CANTRELL MOUNTAIN RD,BREVARD,NC,28712,35.17386035,-82.73081062,House, 
4,CAROLINA CHASE,BREVARD,NC,28712,35.16587503,-82.82656293,House, 
107,CAROLINA CHASE,BREVARD,NC,28712,35.16527546,-82.82812248,House, 
227,CAROLINA CHASE,BREVARD,NC,28712,35.16541752,-82.82956972,House, 
7728,CASCADE LAKE RD,CEDAR MOUNTAIN,NC,28718,35.16546174,-82.64399936,House, 
7730,CASCADE LAKE RD,CEDAR MOUNTAIN,NC,28718,35.16465186,-82.64441937,House, 
64,CASSELL RD,BREVARD,NC,28712,35.16334264,-82.8137603,House, 
65,CASSELL RD,BREVARD,NC,28712,35.16468751,-82.81246459,House, 
74,CASSELL RD,BREVARD,NC,28712,35.1641179,-82.81263417,House, 
95,CASSELL RD,BREVARD,NC,28712,35.16436474,-82.81218341,House, 
121,CASSELL RD,BREVARD,NC,28712,35.16412771,-82.8118158,House, 
122,CASSELL RD,BREVARD,NC,28712,35.16381771,-82.81230351,House, 
130,CASSELL RD,BREVARD,NC,28712,35.16373635,-82.81212282,House, 
155,CASSELL RD,BREVARD,NC,28712,35.16383031,-82.81131243,House, 
171,CASSELL RD,BREVARD,NC,28712,35.16368349,-82.81109,House, 
174,CASSELL RD,BREVARD,NC,28712,35.16320916,-82.81113339,House, 
179,CASSELL RD,BREVARD,NC,28712,35.16355313,-82.81084707,House, 
225,CASSELL RD,BREVARD,NC,28712,35.16347801,-82.81030084,House, 
228,CASSELL RD,BREVARD,NC,28712,35.16277467,-82.81058682,House, 
131,CATTLE DR,BREVARD,NC,28712,35.17012057,-82.71792445,House, 
141,CATTLE DR,BREVARD,NC,28712,35.1715201,-82.7171302,House, 
114,CHAGEE LN,BREVARD,NC,28712,35.16130294,-82.73601478,House, 
145,CHAGEE LN,BREVARD,NC,28712,35.16131395,-82.73689747,House, 
179,CHAGEE LN,BREVARD,NC,28712,35.16187528,-82.73738636,House, 
203,CHAGEE LN,BREVARD,NC,28712,35.16224681,-82.73735863,House, 
251,CHAGEE LN,BREVARD,NC,28712,35.16294473,-82.73707553,House, 
293,CHAGEE LN,BREVARD,NC,28712,35.16355539,-82.73675139,House, 
315,CHAGEE LN,BREVARD,NC,28712,35.16390026,-82.73664593,House, 
324,CHAGEE LN,BREVARD,NC,28712,35.16432839,-82.73650409,House, 
50,CHEOWA PATH,BREVARD,NC,28712,35.16174059,-82.73583578,House, 
58,CHEOWA PATH,BREVARD,NC,28712,35.16255213,-82.73539257,House, 
24,CHERRYFIELD CREEK RD,BREVARD,NC,28712,35.17825004,-82.80374318,House, 
30,CHERRYFIELD CREEK RD,BREVARD,NC,28712,35.17846388,-82.80502096,House, 
221,CHERRYFIELD CREEK RD,BREVARD,NC,28712,35.17816197,-82.80983918,House, 
263,CHERRYFIELD CREEK RD,BREVARD,NC,28712,35.17934677,-82.80819472,House, 
93,CHERRYFIELD LOOP,BREVARD,NC,28712,35.17909251,-82.80146709,House, 
119,CHERRYFIELD LOOP,BREVARD,NC,28712,35.17889335,-82.80193261,House, 
143,CHERRYFIELD LOOP,BREVARD,NC,28712,35.17869602,-82.80224963,House, 
171,CHERRYFIELD LOOP,BREVARD,NC,28712,35.17847088,-82.80263296,House, 
191,CHERRYFIELD LOOP,BREVARD,NC,28712,35.17828382,-82.80295138,House, 
229,CHERRYFIELD LOOP,BREVARD,NC,28712,35.17788888,-82.80343053,House, 
354,CHERRYFIELD LOOP,BREVARD,NC,28712,35.17639517,-82.80447785,House, 
447,CHERRYFIELD LOOP,BREVARD,NC,28712,35.17492171,-82.80376289,House, 
470,CHERRYFIELD LOOP,BREVARD,NC,28712,35.17471933,-82.80465607,House, 
514,CHERRYFIELD LOOP,BREVARD,NC,28712,35.17540819,-82.80493174,House, 
22,CLEMSON WAY,BREVARD,NC,28712,35.17664591,-82.73718113,House, 
47,CLEMSON WAY,BREVARD,NC,28712,35.1768392,-82.73655414,House, 
50,CLEMSON WAY,BREVARD,NC,28712,35.17638389,-82.73677973,House, 
31,CLINE ANDERS DR,BREVARD,NC,28712,35.16029937,-82.8087314,House, 
69,CLINE ANDERS DR,BREVARD,NC,28712,35.16079879,-82.80841607,House, 
70,CLINE ANDERS DR,BREVARD,NC,28712,35.1609444,-82.80860611,House, 
76,CLINE ANDERS DR,BREVARD,NC,28712,35.16080019,-82.80875238,House, 
78,CLINE ANDERS DR,BREVARD,NC,28712,35.16075128,-82.80874749,House, 
19,CONNESTEE RD,BREVARD,NC,28712,35.17799551,-82.73637129,House, 
40,CONNESTEE RD,BREVARD,NC,28712,35.17838253,-82.73640687,House, 
114,CONNESTEE RD,BREVARD,NC,28712,35.17740768,-82.73673291,House, 
132,CONNESTEE RD,BREVARD,NC,28712,35.17727082,-82.7369558,House, 
171,CONNESTEE RD,BREVARD,NC,28712,35.17668094,-82.73769382,House, 
243,CONNESTEE RD,BREVARD,NC,28712,35.17644553,-82.73870993,House, 
247,CONNESTEE RD,BREVARD,NC,28712,35.17621981,-82.73885175,House, 
249,CONNESTEE RD,BREVARD,NC,28712,35.17644088,-82.73891486,House, 
250,CONNESTEE RD,BREVARD,NC,28712,35.17724181,-82.7390552,House, 
264,CONNESTEE RD,BREVARD,NC,28712,35.17649015,-82.73932986,House, 
301,CONNESTEE RD,BREVARD,NC,28712,35.17665233,-82.73977184,House, 
316,CONNESTEE RD,BREVARD,NC,28712,35.17717062,-82.73983628,House, 
360,CONNESTEE RD,BREVARD,NC,28712,35.17642312,-82.74030495,House, 
387,CONNESTEE RD,BREVARD,NC,28712,35.17604431,-82.73955588,House, 
397,CONNESTEE RD,BREVARD,NC,28712,35.17551485,-82.73986291,House, 
422,CONNESTEE RD,BREVARD,NC,28712,35.17604293,-82.74056561,House, 
450,CONNESTEE RD,BREVARD,NC,28712,35.17603752,-82.74103421,House, 
452,CONNESTEE RD,BREVARD,NC,28712,35.17603775,-82.74142337,House, 
461,CONNESTEE RD,BREVARD,NC,28712,35.17527203,-82.74113977,House, 
508,CONNESTEE RD,BREVARD,NC,28712,35.17577678,-82.74224376,House, 
533,CONNESTEE RD,BREVARD,NC,28712,35.17526966,-82.74208065,House, 
535,CONNESTEE RD,BREVARD,NC,28712,35.17501803,-82.74195181,House, 
21,CONNESTEE TRL,BREVARD,NC,28712,35.16295375,-82.72688918,House, 
26,CONNESTEE TRL,BREVARD,NC,28712,35.16292818,-82.72720695,House, 
33,CONNESTEE TRL,BREVARD,NC,28712,35.16227804,-82.72619673,House, 
456,CONNESTEE TRL,BREVARD,NC,28712,35.16181067,-82.73186423,House, 
16,COSTIGAN RD,BREVARD,NC,28712,35.17629795,-82.69246697,House, 
227,COSTIGAN RD,BREVARD,NC,28712,35.17864412,-82.6912433,House, 
230,DEEP WOODS RD,BREVARD,NC,28712,35.16751649,-82.75760953,House, 
848,DEEP WOODS RD,BREVARD,NC,28712,35.1628271,-82.75024822,House, 
20,DEER CHASE CIR,CEDAR MOUNTAIN,NC,28718,35.16324493,-82.65657308,House, 
52,DEER CHASE CIR,CEDAR MOUNTAIN,NC,28718,35.16191017,-82.65667862,House, 
100,DEER CHASE CIR,CEDAR MOUNTAIN,NC,28718,35.16168556,-82.65594915,House, 
140,DEER CHASE CIR,CEDAR MOUNTAIN,NC,28718,35.16170298,-82.65525661,House, 
164,DEER CHASE CIR,CEDAR MOUNTAIN,NC,28718,35.16174235,-82.65418586,House, 
232,DEER CHASE CIR,CEDAR MOUNTAIN,NC,28718,35.16210799,-82.65310285,House, 
306,DEER CHASE CIR,CEDAR MOUNTAIN,NC,28718,35.16323832,-82.65228131,House, 
385,DEER CHASE CIR,CEDAR MOUNTAIN,NC,28718,35.16425073,-82.65437842,House, 
501,DEER CHASE CIR,CEDAR MOUNTAIN,NC,28718,35.16542965,-82.65475019,House, 
565,DEER CHASE CIR,CEDAR MOUNTAIN,NC,28718,35.16653177,-82.65491881,House, 
567,DEER CHASE CIR,CEDAR MOUNTAIN,NC,28718,35.16669528,-82.65560645,House, 
570,DEER CHASE CIR,CEDAR MOUNTAIN,NC,28718,35.16622122,-82.65377832,House, 
630,DEER CHASE CIR,CEDAR MOUNTAIN,NC,28718,35.16726867,-82.65394636,House, 
694,DEER CHASE CIR,CEDAR MOUNTAIN,NC,28718,35.1697356,-82.65460455,House, 
784,DEER CHASE CIR,CEDAR MOUNTAIN,NC,28718,35.16982447,-82.65592109,House, 
836,DEER CHASE CIR,CEDAR MOUNTAIN,NC,28718,35.17003845,-82.65801279,House, 
838,DEER CHASE CIR,CEDAR MOUNTAIN,NC,28718,35.16958309,-82.65849612,House, 
882,DEER CHASE CIR,CEDAR MOUNTAIN,NC,28718,35.16881282,-82.65819078,House, 
888,DEER CHASE CIR,CEDAR MOUNTAIN,NC,28718,35.16838599,-82.65854335,House, 
924,DEER CHASE CIR,CEDAR MOUNTAIN,NC,28718,35.16794463,-82.65842477,House, 
945,DEER CHASE CIR,CEDAR MOUNTAIN,NC,28718,35.16738089,-82.65671547,House, 
1056,DEER CHASE CIR,CEDAR MOUNTAIN,NC,28718,35.16635279,-82.65792746,House, 
1064,DEER CHASE CIR,CEDAR MOUNTAIN,NC,28718,35.16571886,-82.65744699,House, 
1105,DEER CHASE CIR,CEDAR MOUNTAIN,NC,28718,35.16691026,-82.65648793,House, 
1174,DEER CHASE CIR,CEDAR MOUNTAIN,NC,28718,35.16499738,-82.65644062,House, 
1175,DEER CHASE CIR,CEDAR MOUNTAIN,NC,28718,35.16546456,-82.6559386,House, 
1176,DEER CHASE CIR,CEDAR MOUNTAIN,NC,28718,35.16498034,-82.65684836,House, 
1199,DEER CHASE CIR,CEDAR MOUNTAIN,NC,28718,35.16407847,-82.65549551,House, 
77,DEER CHASE DR,CEDAR MOUNTAIN,NC,28718,35.16453684,-82.65939256,House, 
96,DEER CHASE DR,CEDAR MOUNTAIN,NC,28718,35.16216985,-82.65822666,House, 
230,DEER CHASE DR,CEDAR MOUNTAIN,NC,28718,35.16348371,-82.65725348,House, 
259,DEER CHASE DR,CEDAR MOUNTAIN,NC,28718,35.16419656,-82.65639272,House, 
114,DILLOW LN,BREVARD,NC,28712,35.16473779,-82.80704996,House, 
155,DILLOW LN,BREVARD,NC,28712,35.16482636,-82.80627832,House, 
156,DILLOW LN,BREVARD,NC,28712,35.16425518,-82.80684303,House, 
11,DOE RUN,BREVARD,NC,28712,35.16322509,-82.70502134,House, 
50,DOE RUN,BREVARD,NC,28712,35.16375833,-82.70617025,House, 
237,DOE RUN,BREVARD,NC,28712,35.16221631,-82.70726531,House, 
19,DOROTHY DR,BREVARD,NC,28712,35.16891822,-82.71026868,House, 
35,DOROTHY DR,BREVARD,NC,28712,35.16911014,-82.70987548,House, 
55,DOROTHY DR,BREVARD,NC,28712,35.16863928,-82.7098232,House, 
73,DOROTHY DR,BREVARD,NC,28712,35.16826813,-82.70994997,House, 
40,DUCKPOND RD,BREVARD,NC,28712,35.17761332,-82.73959047,House, 
100,DUCKPOND RD,BREVARD,NC,28712,35.17838953,-82.73952737,House, 
158,DUCKPOND RD,BREVARD,NC,28712,35.17880757,-82.73934284,House, 
49,DUNN'S ROCK DR,BREVARD,NC,28712,35.1752777,-82.74041373,House, 
51,DUNN'S ROCK DR,BREVARD,NC,28712,35.1752601,-82.74038752,House, 
56,DUNN'S ROCK DR,BREVARD,NC,28712,35.17509728,-82.74046219,House, 
73,DUNN'S ROCK DR,BREVARD,NC,28712,35.17475771,-82.74002898,House, 
29,E MOYTOY LN,BREVARD,NC,28712,35.16013206,-82.74154007,House, 
99,E MOYTOY LN,BREVARD,NC,28712,35.16069842,-82.74098757,House, 
114,E MOYTOY LN,BREVARD,NC,28712,35.16071479,-82.74036555,House, 
137,E MOYTOY LN,BREVARD,NC,28712,35.16117229,-82.74058258,House, 
138,E MOYTOY LN,BREVARD,NC,28712,35.16104822,-82.7399714,House, 
185,E MOYTOY LN,BREVARD,NC,28712,35.16143149,-82.74024051,House, 
200,E MOYTOY LN,BREVARD,NC,28712,35.16140221,-82.73961689,House, 
223,E MOYTOY LN,BREVARD,NC,28712,35.16222712,-82.73976981,House, 
248,E MOYTOY LN,BREVARD,NC,28712,35.16242589,-82.73908315,House, 
275,E MOYTOY LN,BREVARD,NC,28712,35.16288079,-82.73952404,House, 
311,E MOYTOY LN,BREVARD,NC,28712,35.16314741,-82.73929504,House, 
349,E MOYTOY LN,BREVARD,NC,28712,35.16361223,-82.73885016,House, 
372,E MOYTOY LN,BREVARD,NC,28712,35.16372466,-82.73814526,House, 
71,ELITE RIDGE RD,BREVARD,NC,28712,35.16957101,-82.69752451,House, 
122,ELITE RIDGE RD,BREVARD,NC,28712,35.16785617,-82.69838081,House, 
244,ELITE RIDGE RD,BREVARD,NC,28712,35.16649926,-82.69834106,House, 
300,ELITE RIDGE RD,BREVARD,NC,28712,35.16590298,-82.6983615,House, 
388,ELITE RIDGE RD,BREVARD,NC,28712,35.16486041,-82.69872524,House, 
438,ELITE RIDGE RD,BREVARD,NC,28712,35.164164,-82.69923122,House, 
480,ELITE RIDGE RD,BREVARD,NC,28712,35.16377131,-82.69954141,House, 
500,ELITE RIDGE RD,BREVARD,NC,28712,35.16302149,-82.69984178,House, 
10,FAMILY COVE RD,BREVARD,NC,28712,35.17446142,-82.75168143,House, 
19,FAMILY COVE RD,BREVARD,NC,28712,35.17454374,-82.75101034,House, 
48,FAMILY COVE RD,BREVARD,NC,28712,35.17416919,-82.75152257,House, 
28,FAT CAT'S LN,BREVARD,NC,28712,35.17541308,-82.80339125,House, 
48,FAT CAT'S LN,BREVARD,NC,28712,35.17583554,-82.80318595,House, 
50,FAT CAT'S LN,BREVARD,NC,28712,35.17617873,-82.80342334,House, 
71,FORSYTHIA DR,BREVARD,NC,28712,35.1664727,-82.70825463,House, 
74,FORSYTHIA DR,BREVARD,NC,28712,35.16636346,-82.7081005,House, 
140,FOX DEN HL,BREVARD,NC,28712,35.17127224,-82.78799528,House, 
208,FOX DEN HL,BREVARD,NC,28712,35.17200311,-82.78764059,House, 
40,GALAX LN,BREVARD,NC,28712,35.16096409,-82.69572179,House, 
248,GALAX LN,BREVARD,NC,28712,35.16173244,-82.69754368,House, 
249,GALAX LN,BREVARD,NC,28712,35.16086879,-82.69794507,House, 
167,GOLDEN EAGLE TRL,BREVARD,NC,28712,35.16041238,-82.77238172,House, 
250,GOLDEN EAGLE TRL,BREVARD,NC,28712,35.16335995,-82.77137617,House, 
180,GOOD NEIGHBOR LN,BREVARD,NC,28712,35.16909238,-82.80965552,House, 
224,GOOD NEIGHBOR LN,BREVARD,NC,28712,35.16930486,-82.8101946,House, 
226,GOOD NEIGHBOR LN,BREVARD,NC,28712,35.16978697,-82.81070246,House, 
296,GOOD NEIGHBOR LN,BREVARD,NC,28712,35.16885304,-82.81126004,House, 
300,GOOD NEIGHBOR LN,BREVARD,NC,28712,35.16814873,-82.81183591,House, 
307,GOOD NEIGHBOR LN,BREVARD,NC,28712,35.16763343,-82.81149435,House, 
314,GOOD NEIGHBOR LN,BREVARD,NC,28712,35.16768961,-82.81155065,House, 
50,GREEN HILL RD,BREVARD,NC,28712,35.17268661,-82.71071367,House, 
107,GREEN HILL RD,BREVARD,NC,28712,35.17227541,-82.71156771,House, 
108,GREEN HILL RD,BREVARD,NC,28712,35.17243572,-82.71161456,House, 
133,GREEN HILL RD,BREVARD,NC,28712,35.17225263,-82.71203643,House, 
143,GREEN HILL RD,BREVARD,NC,28712,35.17231301,-82.71220881,House, 
180,GREEN HILL RD,BREVARD,NC,28712,35.17262465,-82.7127204,House, 
243,GREEN HILL RD,BREVARD,NC,28712,35.17258562,-82.71379334,House, 
338,GREEN HILL RD,BREVARD,NC,28712,35.17335465,-82.71505662,House, 
340,GREEN HILL RD,BREVARD,NC,28712,35.17336897,-82.71508502,House, 
713,GREEN HILL RD,BREVARD,NC,28712,35.17645851,-82.71904873,House, 
714,GREEN HILL RD,BREVARD,NC,28712,35.17646172,-82.71884172,House, 
