Number,Street,City,State,PostalCode,Latitude,Longitude,Type,ApartmentNumber
660,LAUREL CREEK DR,CEDAR MOUNTAIN,NC,28718,35.19233872,-82.65636008,House, 
31,LOCHENCOVE RIDGE RD,BREVARD,NC,28712,35.19855268,-82.74678278,House, 
40,LOCHENCOVE RIDGE RD,BREVARD,NC,28712,35.19803227,-82.74671444,House, 
94,LOCHENCOVE RIDGE RD,BREVARD,NC,28712,35.19816154,-82.74627904,House, 
100,LOCHENCOVE RIDGE RD,BREVARD,NC,28712,35.19828808,-82.74559581,House, 
128,LOCHENCOVE RIDGE RD,BREVARD,NC,28712,35.198552,-82.7450761,House, 
163,LOCHENCOVE RIDGE RD,BREVARD,NC,28712,35.19931263,-82.74546235,House, 
164,LOCHENCOVE RIDGE RD,BREVARD,NC,28712,35.19879794,-82.74391799,House, 
211,LOST MINE TRL,BREVARD,NC,28712,35.18277526,-82.69765456,House, 
233,LOST MINE TRL,BREVARD,NC,28712,35.18231802,-82.69716244,House, 
266,LOST MINE TRL,BREVARD,NC,28712,35.18201342,-82.69835157,House, 
291,LOST MINE TRL,BREVARD,NC,28712,35.18157734,-82.69759631,House, 
454,LOST MINE TRL,BREVARD,NC,28712,35.18109011,-82.69485805,House, 
604,LOST MINE TRL,BREVARD,NC,28712,35.18275314,-82.69552988,House, 
730,LOST MINE TRL,BREVARD,NC,28712,35.18468901,-82.69437479,House, 
772,LOST MINE TRL,BREVARD,NC,28712,35.18528204,-82.69557885,House, 
12,MADISON HEIGHTS DR,BREVARD,NC,28712,35.19398146,-82.76377799,House, 
46,MADISON HEIGHTS DR,BREVARD,NC,28712,35.19399524,-82.76420082,House, 
7,MAPLE DR,BREVARD,NC,28712,35.19230815,-82.76127929,House, 
31,MAPLE DR,BREVARD,NC,28712,35.19272534,-82.76147921,House, 
163,MAPLE DR,BREVARD,NC,28712,35.19360975,-82.76242685,House, 
96,MAPLE DR,BREVARD,NC,28712,35.19324307,-82.76105524,House, 
115,MAPLE DR,BREVARD,NC,28712,35.19333787,-82.76167968,House, 
118,MAPLE DR,BREVARD,NC,28712,35.19382186,-82.76121768,House, 
128,MAPLE DR,BREVARD,NC,28712,35.19383307,-82.76214485,House, 
39,MILL HILL DR,BREVARD,NC,28712,35.18232866,-82.73353284,House, 
41,MILL HILL DR,BREVARD,NC,28712,35.18201826,-82.73336242,House, 
104,MILL HILL DR,BREVARD,NC,28712,35.18073857,-82.73463126,House, 
119,MILL HILL DR,BREVARD,NC,28712,35.1812456,-82.7339156,House, 
154,MILL HILL DR,BREVARD,NC,28712,35.18115504,-82.73354557,House, 
170,MILL HILL DR,BREVARD,NC,28712,35.18097653,-82.73363465,House, 
178,MILL HILL DR,BREVARD,NC,28712,35.1808747,-82.73386046,House, 
204,MILL HILL DR,BREVARD,NC,28712,35.18037546,-82.73393095,House, 
25,MILLER FARM LN,BREVARD,NC,28712,35.19913482,-82.7666378,House, 
51,MILLER FARM LN,BREVARD,NC,28712,35.19922749,-82.7670265,House, 
71,MILLER FARM LN,BREVARD,NC,28712,35.19944043,-82.76754801,House, 
80,MILLER FARM LN,BREVARD,NC,28712,35.19979134,-82.76728019,House, 
58,MONTE VISTA DR,BREVARD,NC,28712,35.19651604,-82.72010385,House, 
183,MONTE VISTA DR,BREVARD,NC,28712,35.196291,-82.71735682,House, 
296,MONTE VISTA DR,BREVARD,NC,28712,35.19514551,-82.71795051,House, 
53,MOSSBERG LN,BREVARD,NC,28712,35.18352444,-82.73470141,House, 
84,MOSSBERG LN,BREVARD,NC,28712,35.18387551,-82.7344487,House, 
117,MOSSBERG LN,BREVARD,NC,28712,35.1842686,-82.73368774,Other, 
127,MOSSBERG LN,BREVARD,NC,28712,35.18390865,-82.7338211,Other, 
155,MOUNTAIN BROOK TRL,BREVARD,NC,28712,35.19430566,-82.75052109,House, 
258,MOUNTAIN BROOK TRL,BREVARD,NC,28712,35.19561851,-82.75076478,House, 
82,NEW CASTLE RD,BREVARD,NC,28712,35.18550318,-82.75965359,House, 
154,NEW CASTLE RD,BREVARD,NC,28712,35.18642294,-82.76097329,House, 
198,NEW CASTLE RD,BREVARD,NC,28712,35.18679521,-82.76158396,House, 
243,NEW CASTLE RD,BREVARD,NC,28712,35.18663062,-82.76242134,House, 
355,NEW CASTLE RD,BREVARD,NC,28712,35.18600764,-82.76326463,House, 
50,OLD COUNTY HOME RD E,BREVARD,NC,28712,35.19744932,-82.77907436,House, 
52,OLD COUNTY HOME RD E,BREVARD,NC,28712,35.19818201,-82.77959161,House, 
81,OLD COUNTY HOME RD E,BREVARD,NC,28712,35.19901487,-82.77990802,House, 
177,OLD COUNTY HOME RD E,BREVARD,NC,28712,35.19987403,-82.77888302,House, 
216,OLD COUNTY HOME RD E,BREVARD,NC,28712,35.19959604,-82.77676726,House, 
218,OLD COUNTY HOME RD E,BREVARD,NC,28712,35.19980385,-82.77634185,House, 
167,OLD COUNTY HOME RD W,BREVARD,NC,28712,35.19063272,-82.77911913,House, 
30,OLD ORCHARD LN,BREVARD,NC,28712,35.18898346,-82.70639035,House, 
80,OLD ORCHARD LN,BREVARD,NC,28712,35.18813592,-82.70603063,House, 
90,OLD ORCHARD LN,BREVARD,NC,28712,35.18853763,-82.70556434,House, 
83,OLD SPRING RD,BREVARD,NC,28712,35.19235885,-82.69664115,House, 
163,OLD SPRING RD,BREVARD,NC,28712,35.19315027,-82.69574655,House, 
185,OLD SPRING RD,BREVARD,NC,28712,35.1937398,-82.6949433,House, 
10,OTTO ALEXANDER RD,BREVARD,NC,28712,35.19847403,-82.76734123,House, 
11,OTTO ALEXANDER RD,BREVARD,NC,28712,35.19849099,-82.76693037,House, 
28,OTTO ALEXANDER RD,BREVARD,NC,28712,35.19813795,-82.7677708,House, 
29,OTTO ALEXANDER RD,BREVARD,NC,28712,35.19811084,-82.76710129,House, 
51,OTTO ALEXANDER RD,BREVARD,NC,28712,35.19777637,-82.7672794,House, 
67,OTTO ALEXANDER RD,BREVARD,NC,28712,35.19697089,-82.76656599,House, 
69,OTTO ALEXANDER RD,BREVARD,NC,28712,35.19653051,-82.76683654,House, 
105,OTTO ALEXANDER RD,BREVARD,NC,28712,35.19733347,-82.76777589,House, 
116,OTTO ALEXANDER RD,BREVARD,NC,28712,35.1974531,-82.76905814,House, 
123,OTTO ALEXANDER RD,BREVARD,NC,28712,35.1971371,-82.76796023,House, 
132,OTTO ALEXANDER RD,BREVARD,NC,28712,35.19701888,-82.76836382,House, 
133,OTTO ALEXANDER RD,BREVARD,NC,28712,35.197028,-82.76806265,House, 
170,OTTO ALEXANDER RD,BREVARD,NC,28712,35.19657817,-82.76898145,House, 
282,OTTO ALEXANDER RD,BREVARD,NC,28712,35.19523831,-82.77050585,House, 
365,OTTO ALEXANDER RD,BREVARD,NC,28712,35.1940459,-82.77027413,House, 
11,OVERCREST CIR,BREVARD,NC,28712,35.18088582,-82.76589803,House, 
25,OVERCREST CIR,BREVARD,NC,28712,35.18125195,-82.7663705,House, 
55,OVERCREST CIR,BREVARD,NC,28712,35.18146587,-82.7667143,House, 
64,OVERCREST CIR,BREVARD,NC,28712,35.18178864,-82.76624685,House, 
83,OVERCREST CIR,BREVARD,NC,28712,35.18188485,-82.7672282,House, 
106,OVERCREST CIR,BREVARD,NC,28712,35.1824262,-82.76624064,House, 
107,OVERCREST CIR,BREVARD,NC,28712,35.18252164,-82.76685916,House, 
332,OXFORD CT,BREVARD,NC,28712,35.1881146,-82.76095335,House, 
55,PASO FINO LN,BREVARD,NC,28712,35.18366399,-82.70752105,House, 
82,PASO FINO LN,BREVARD,NC,28712,35.18277218,-82.70762761,House, 
213,PASO FINO LN,BREVARD,NC,28712,35.18281599,-82.70575408,House, 
31,PICCADILLY PL,BREVARD,NC,28712,35.18197961,-82.76204944,House, 
41,PICCADILLY PL,BREVARD,NC,28712,35.1822157,-82.76273732,House, 
75,PICCADILLY PL,BREVARD,NC,28712,35.18207165,-82.76350995,House, 
13,PINECREST DR,BREVARD,NC,28712,35.18392827,-82.76451808,House, 
14,PINECREST DR,BREVARD,NC,28712,35.18359369,-82.76542597,House, 
21,PINECREST DR,BREVARD,NC,28712,35.18329224,-82.7650904,House, 
34,PLEASANT HILL DR,BREVARD,NC,28712,35.18893529,-82.75881251,House, 
43,PLEASANT HILL DR,BREVARD,NC,28712,35.1896821,-82.75905017,House, 
57,PLEASANT HILL DR,BREVARD,NC,28712,35.18935941,-82.75820679,House, 
72,PLEASANT HILL DR,BREVARD,NC,28712,35.18873262,-82.75814319,House, 
87,PLEASANT HILL DR,BREVARD,NC,28712,35.18914477,-82.75771373,House, 
115,PLEASANT HILL DR,BREVARD,NC,28712,35.18886106,-82.75746166,House, 
150,PLEASANT HILL DR,BREVARD,NC,28712,35.18834521,-82.75781743,House, 
180,PLEASANT HILL DR,BREVARD,NC,28712,35.1877769,-82.75751399,House, 
181,PLEASANT HILL DR,BREVARD,NC,28712,35.18813662,-82.75707176,House, 
221,PLEASANT HILL DR,BREVARD,NC,28712,35.18750813,-82.756535,House, 
226,PLEASANT HILL DR,BREVARD,NC,28712,35.18730219,-82.75712791,House, 
231,PLEASANT HILL DR,BREVARD,NC,28712,35.18700976,-82.75664138,House, 
261,PLEASANT HILL DR,BREVARD,NC,28712,35.18673457,-82.75710979,House, 
280,PLEASANT HILL DR,BREVARD,NC,28712,35.18738527,-82.75774681,House, 
356,PLEASANT HILL DR,BREVARD,NC,28712,35.18798066,-82.75805539,House, 
381,PLEASANT HILL DR,BREVARD,NC,28712,35.18785627,-82.75857721,House, 
384,PLEASANT HILL DR,BREVARD,NC,28712,35.18847869,-82.75859441,House, 
80,POLE MILLER EXT,BREVARD,NC,28712,35.1991612,-82.76464187,House, 
102,POLE MILLER EXT,BREVARD,NC,28712,35.19878005,-82.7643499,House, 
110,POLE MILLER EXT,BREVARD,NC,28712,35.19893603,-82.76384867,House, 
122,POLE MILLER EXT,BREVARD,NC,28712,35.19930081,-82.76365911,House, 
170,POLE MILLER EXT,BREVARD,NC,28712,35.1994446,-82.76330066,House, 
190,POLE MILLER EXT,BREVARD,NC,28712,35.19945579,-82.76297557,House, 
192,POLE MILLER EXT,BREVARD,NC,28712,35.19930914,-82.7626759,House, 
224,POLE MILLER EXT,BREVARD,NC,28712,35.19972012,-82.76230017,House, 
236,POLE MILLER EXT,BREVARD,NC,28712,35.19885099,-82.76210388,House, 
266,POLE MILLER EXT,BREVARD,NC,28712,35.19963954,-82.76133545,House, 
724,POLE MILLER EXT,BREVARD,NC,28712,35.19972131,-82.75750043,House, 
760,POLE MILLER EXT,BREVARD,NC,28712,35.19945004,-82.75619861,House, 
763,POLE MILLER EXT,BREVARD,NC,28712,35.19949391,-82.75719234,House, 
850,POLE MILLER EXT,BREVARD,NC,28712,35.19930226,-82.7551723,House, 
914,POLE MILLER EXT,BREVARD,NC,28712,35.1998779,-82.75465105,House, 
926,POLE MILLER EXT,BREVARD,NC,28712,35.19937275,-82.75418251,House, 
242,POLE MILLER RD,BREVARD,NC,28712,35.19992078,-82.76826479,House, 
376,POLE MILLER RD,BREVARD,NC,28712,35.19903339,-82.76627284,House, 
381,POLE MILLER RD,BREVARD,NC,28712,35.19956563,-82.76566176,House, 
409,POLE MILLER RD,BREVARD,NC,28712,35.19895879,-82.76562902,House, 
3257,RICH MOUNTAIN RD,BREVARD,NC,28712,35.19789568,-82.6749756,House, 
4625,RICH MOUNTAIN RD,BREVARD,NC,28712,35.1850368,-82.66504689,House, 
4652,RICH MOUNTAIN RD,BREVARD,NC,28712,35.18459156,-82.66695051,House, 
4857,RICH MOUNTAIN RD,CEDAR MOUNTAIN,NC,28718,35.18036118,-82.66562122,House, 
159,RIVER HILL LN,BREVARD,NC,28712,35.18135107,-82.74362434,House, 
187,RIVER HILL LN,BREVARD,NC,28712,35.18259285,-82.74457124,House, 
41,RIVERSIDE EST,BREVARD,NC,28712,35.19613997,-82.74640255,House, 
70,RIVERSIDE EST,BREVARD,NC,28712,35.19556213,-82.74623889,House, 
75,RIVERSIDE EST,BREVARD,NC,28712,35.1961368,-82.74577086,House, 
113,RIVERSIDE EST,BREVARD,NC,28712,35.19583146,-82.74532842,House, 
135,RIVERSIDE EST,BREVARD,NC,28712,35.19549835,-82.74501428,House, 
156,RIVERSIDE EST,BREVARD,NC,28712,35.1948863,-82.74559823,House, 
299,RIVERSIDE EST,BREVARD,NC,28712,35.19456873,-82.7439419,House, 
339,RIVERSIDE EST,BREVARD,NC,28712,35.19717809,-82.74503611,House, 
374,RIVERSIDE EST,BREVARD,NC,28712,35.1928878,-82.74353001,House, 
381,RIVERSIDE EST,BREVARD,NC,28712,35.19182432,-82.74104815,House, 
256,ROCK FACE RD,BREVARD,NC,28712,35.1829644,-82.69183253,House, 
50,ROCKY PT,BREVARD,NC,28712,35.18651815,-82.69636055,House, 
51,ROCKY PT,BREVARD,NC,28712,35.1868429,-82.69464289,House, 
516,S COUNTRY CLUB RD,BREVARD,NC,28712,35.19776514,-82.74791125,House, 
531,S COUNTRY CLUB RD,BREVARD,NC,28712,35.19749212,-82.7470992,House, 
555,S COUNTRY CLUB RD,BREVARD,NC,28712,35.19697666,-82.74722097,House, 
586,S COUNTRY CLUB RD,BREVARD,NC,28712,35.19668832,-82.74811987,House, 
603,S COUNTRY CLUB RD,BREVARD,NC,28712,35.19672755,-82.74711302,House, 
613,S COUNTRY CLUB RD,BREVARD,NC,28712,35.19637228,-82.74684747,House, 
614,S COUNTRY CLUB RD,BREVARD,NC,28712,35.19624168,-82.74790948,House, 
651,S COUNTRY CLUB RD,BREVARD,NC,28712,35.19565142,-82.74692703,House, 
662,S COUNTRY CLUB RD,BREVARD,NC,28712,35.19576065,-82.74782609,House, 
688,S COUNTRY CLUB RD,BREVARD,NC,28712,35.19547234,-82.74779817,House, 
700,S COUNTRY CLUB RD,BREVARD,NC,28712,35.19496875,-82.74775864,House, 
728,S COUNTRY CLUB RD,BREVARD,NC,28712,35.19451576,-82.74768972,House, 
820,S COUNTRY CLUB RD,BREVARD,NC,28712,35.19416985,-82.74809943,House, 
1586,S COUNTRY CLUB RD,BREVARD,NC,28712,35.18616866,-82.75752969,House, 
1651,S COUNTRY CLUB RD,BREVARD,NC,28712,35.18554541,-82.75730954,House, 
160,SOUTHAMPTON RD,BREVARD,NC,28712,35.18322135,-82.761674,House, 
272,SOUTHAMPTON RD,BREVARD,NC,28712,35.18417133,-82.76302682,House, 
295,SOUTHAMPTON RD,BREVARD,NC,28712,35.18450399,-82.76415075,House, 
308,SOUTHAMPTON RD,BREVARD,NC,28712,35.18466542,-82.76339881,House, 
540,SOUTHAMPTON RD,BREVARD,NC,28712,35.18825053,-82.76326393,House, 
1904,SEE OFF MOUNTAIN RD,BREVARD,NC,28712,35.18014489,-82.70771332,House, 
1922,SEE OFF MOUNTAIN RD,BREVARD,NC,28712,35.18030905,-82.70796304,House, 
2021,SEE OFF MOUNTAIN RD,BREVARD,NC,28712,35.18144237,-82.70862824,House, 
2026,SEE OFF MOUNTAIN RD,BREVARD,NC,28712,35.18151626,-82.70843464,House, 
2041,SEE OFF MOUNTAIN RD,BREVARD,NC,28712,35.18171036,-82.70865885,House, 
2054,SEE OFF MOUNTAIN RD,BREVARD,NC,28712,35.18190207,-82.70848965,House, 
2061,SEE OFF MOUNTAIN RD,BREVARD,NC,28712,35.18194106,-82.70879468,House, 
2118,SEE OFF MOUNTAIN RD,BREVARD,NC,28712,35.18274282,-82.70863805,House, 
2235,SEE OFF MOUNTAIN RD,BREVARD,NC,28712,35.18442773,-82.70933278,House, 
2240,SEE OFF MOUNTAIN RD,BREVARD,NC,28712,35.18451631,-82.70913586,House, 
26,SETTLERS CV,BREVARD,NC,28712,35.19591089,-82.74997327,House, 
22,SHADY VIEW DR,BREVARD,NC,28712,35.18065028,-82.73900161,House, 
31,SHADY VIEW DR,BREVARD,NC,28712,35.18041776,-82.73802264,House, 
33,SHADY VIEW DR,BREVARD,NC,28712,35.18036517,-82.73865584,House, 
103,SHADY VIEW DR,BREVARD,NC,28712,35.18007569,-82.73896248,House, 
60,STARLIGHT CIR,BREVARD,NC,28712,35.18025734,-82.7433267,House, 
11,STILL HILL TRL,BREVARD,NC,28712,35.19706268,-82.72358715,House, 
31,STILL HILL TRL,BREVARD,NC,28712,35.19684397,-82.72495072,House, 
71,STILL HILL TRL,BREVARD,NC,28712,35.19798225,-82.72356629,House, 
206,STILL HOUSE MOUNTAIN RD,BREVARD,NC,28712,35.18874414,-82.76459029,House, 
1118,SYLVAN BYWY,PISGAH FOREST,NC,28768,35.19948604,-82.66606461,House, 
36,TAMARACK LN,BREVARD,NC,28712,35.18935627,-82.70622468,House, 
128,TAMARACK LN,BREVARD,NC,28712,35.18940542,-82.70495018,House, 
166,TAMARACK LN,BREVARD,NC,28712,35.18899953,-82.70519578,House, 
50,TIMBER RIDGE TRL,BREVARD,NC,28712,35.18112135,-82.73730633,House, 
51,TIMBER RIDGE TRL,BREVARD,NC,28712,35.18119796,-82.73663591,House, 
190,TIMBER RIDGE TRL,BREVARD,NC,28712,35.18020719,-82.73721167,House, 
23,TIMBER RIDGE TRL,BREVARD,NC,28712,35.18169176,-82.73690672,House,UNIT 1
23,TIMBER RIDGE TRL,BREVARD,NC,28712,35.18166482,-82.73677466,House,UNIT 2
35,TWIN SPRINGS DR,BREVARD,NC,28712,35.18323536,-82.72993707,House, 
42,TWIN SPRINGS DR,BREVARD,NC,28712,35.18349481,-82.73016605,House, 
52,TWIN SPRINGS DR,BREVARD,NC,28712,35.18324519,-82.73022081,House, 
89,TWIN SPRINGS DR,BREVARD,NC,28712,35.1826023,-82.72995696,House, 
126,VORUS CIR,BREVARD,NC,28712,35.18275087,-82.71468117,House, 
156,VORUS CIR,BREVARD,NC,28712,35.1823069,-82.71451323,House, 
163,VORUS CIR,BREVARD,NC,28712,35.18247886,-82.71437748,House, 
48,W SHADY LN,BREVARD,NC,28712,35.1959672,-82.76820494,House, 
80,W SHADY LN,BREVARD,NC,28712,35.19535734,-82.76804342,House, 
205,W SHADY LN,BREVARD,NC,28712,35.19425055,-82.76696886,House, 
211,W SHADY LN,BREVARD,NC,28712,35.19521864,-82.76637914,House, 
213,W SHADY LN,BREVARD,NC,28712,35.19515651,-82.76598638,House, 
223,W SHADY LN,BREVARD,NC,28712,35.19419217,-82.76671995,House, 
235,W SHADY LN,BREVARD,NC,28712,35.19416498,-82.7665061,House, 
263,W SHADY LN,BREVARD,NC,28712,35.1941113,-82.76632161,House, 
273,W SHADY LN,BREVARD,NC,28712,35.19408969,-82.76601862,House, 
369,W SHADY LN,BREVARD,NC,28712,35.19244299,-82.76599367,House, 
409,W SHADY LN,BREVARD,NC,28712,35.19158122,-82.76652206,House, 
412,W SHADY LN,BREVARD,NC,28712,35.19203973,-82.76719,House, 
500,W SHADY LN,BREVARD,NC,28712,35.19034568,-82.76801641,House, 
502,W SHADY LN,BREVARD,NC,28712,35.19059608,-82.76733016,House, 
515,W SHADY LN,BREVARD,NC,28712,35.19112036,-82.76722168,House, 
544,W SHADY LN,BREVARD,NC,28712,35.19085467,-82.76701262,House, 
574,W SHADY LN,BREVARD,NC,28712,35.19084711,-82.7665784,House, 
40,WALNUT RIDGE CIR,BREVARD,NC,28712,35.18156893,-82.69256815,House, 
101,WALNUT RIDGE CIR,BREVARD,NC,28712,35.18096504,-82.69303604,House, 
153,WALNUT RIDGE CIR,BREVARD,NC,28712,35.1815263,-82.69327023,House, 
177,WALNUT RIDGE CIR,BREVARD,NC,28712,35.18208496,-82.69341621,House, 
199,WALNUT RIDGE CIR,BREVARD,NC,28712,35.18224722,-82.69294873,House, 
209,WALNUT RIDGE RD,BREVARD,NC,28712,35.18328271,-82.70449852,House, 
400,WALNUT RIDGE RD,BREVARD,NC,28712,35.18072605,-82.70396917,House, 
599,WALNUT RIDGE RD,BREVARD,NC,28712,35.18060116,-82.7005994,House, 
1442,WALNUT RIDGE RD,BREVARD,NC,28712,35.18009041,-82.68983155,House, 
1506,WALNUT RIDGE RD,BREVARD,NC,28712,35.18192719,-82.68822356,House, 
1655,WALNUT RIDGE RD,BREVARD,NC,28712,35.18270445,-82.68901132,House, 
1809,WALNUT RIDGE RD,BREVARD,NC,28712,35.18475605,-82.68858864,House, 
39,WHIPPOORWILL RD,BREVARD,NC,28712,35.18039909,-82.7393334,House, 
89,WHIPPOORWILL RD,BREVARD,NC,28712,35.18029896,-82.73955572,House, 
138,WILLIAM'S WAY,BREVARD,NC,28712,35.18640784,-82.77990699,House, 
296,WINDOVER DR,BREVARD,NC,28712,35.18030335,-82.7604834,House, 
350,WINDOVER DR,BREVARD,NC,28712,35.18117433,-82.76162391,House, 
618,WINDOVER DR,BREVARD,NC,28712,35.18047268,-82.76450983,House, 
651,WINDOVER DR,BREVARD,NC,28712,35.18059453,-82.76553644,House, 
719,WINDOVER DR,BREVARD,NC,28712,35.18166359,-82.76576385,House, 
722,WINDOVER DR,BREVARD,NC,28712,35.1817645,-82.76504337,House, 
723,WINDOVER DR,BREVARD,NC,28712,35.18211215,-82.76574891,House, 
883,WINDOVER DR,BREVARD,NC,28712,35.18397541,-82.76629608,House, 
1157,WINDOVER DR,BREVARD,NC,28712,35.18601315,-82.76617901,House, 
1231,WINDOVER DR,BREVARD,NC,28712,35.18642897,-82.76605019,House, 
1244,WINDOVER DR,BREVARD,NC,28712,35.18690625,-82.76702578,House, 
1306,WINDOVER DR,BREVARD,NC,28712,35.1862628,-82.76724176,House, 
1338,WINDOVER DR,BREVARD,NC,28712,35.18573617,-82.76749639,House, 
54,WOODCREST DR,BREVARD,NC,28712,35.1853166,-82.76453466,House, 
59,WOODCREST DR,BREVARD,NC,28712,35.18579059,-82.76475988,House, 
151,WOODED MOUNTAIN LN,BREVARD,NC,28712,35.18406254,-82.72483937,House, 
45,MEREDITH DR,BREVARD,NC,28712,35.18163725,-82.7303357,House, 
92,MEREDITH DR,BREVARD,NC,28712,35.18234115,-82.730173,House, 
89,MEREDITH DR,BREVARD,NC,28712,35.18222702,-82.73037703,House, 
86,MEREDITH DR,BREVARD,NC,28712,35.18224331,-82.73008616,House, 
76,MEREDITH DR,BREVARD,NC,28712,35.18210589,-82.73009768,House, 
52,MEREDITH DR,BREVARD,NC,28712,35.18185913,-82.73003963,House, 
28,MEREDITH DR,BREVARD,NC,28712,35.18212878,-82.72971139,House,UNIT B
247,HIGH MEADOWS LN,BREVARD,NC,28712,35.19982489,-82.72407658,House, 
3927,GREENVILLE HWY,BREVARD,NC,28712,35.18116217,-82.73018147,House, 
136,DOVER LN,BREVARD,NC,28712,35.18410407,-82.76195765,House, 
250,ISLAND FORD RD,BREVARD,NC,28712,35.19842576,-82.77398858,House, 
335,ISLAND FORD RD,BREVARD,NC,28712,35.19936004,-82.77231345,House,
1690,EAGLE LAKE DR,BREVARD,NC,28712,35.18574746,-82.69884364,House,
146,POLE MILLER RD,BREVARD,NC,28712,35.19954866,-82.76974782,House,
624,LOST MINE TRL,BREVARD,NC,28712,35.18323717,-82.69551854,House,
1375,ISLAND FORD RD,BREVARD,NC,28712,35.19293929,-82.76208291,House,
1365,ISLAND FORD RD,BREVARD,NC,28712,35.19288788,-82.76238422,House,
80,MILL HILL DR,BREVARD,NC,28712,35.18190814,-82.73432616,House,
173,JOHNSON RD,BREVARD,NC,28712,35.19490258,-82.71974986,House,
168,JOHNSON RD,BREVARD,NC,28712,35.19393229,-82.71909204,House,
406,BARCLAY FARM RD,BREVARD,NC,28712,35.1919586,-82.73335191,House,
181,ELIZA WARE RD,BREVARD,NC,28712,35.18284038,-82.71237592,House,
185,ELIZA WARE RD,BREVARD,NC,28712,35.18282331,-82.71159521,House,
322,BARBERRY HTS,BREVARD,NC,28712,35.19000616,-82.76462978,House,
256,GREENFIELD CIR,BREVARD,NC,28712,35.18601151,-82.70332138,House,
84,GREENFIELD CIR,BREVARD,NC,28712,35.18520564,-82.70472227,House,
130,GREENFIELD CIR,BREVARD,NC,28712,35.18340323,-82.70355419,House,
54,DOVER LN,BREVARD,NC,28712,35.18268366,-82.76027094,House,
1094,S COUNTRY CLUB RD,BREVARD,NC,28712,35.18907121,-82.75642763,House,
1103,S COUNTRY CLUB RD,BREVARD,NC,28712,35.18661243,-82.75600375,House,Unit 1
1103,S COUNTRY CLUB RD,BREVARD,NC,28712,35.18660612,-82.7559586,House,Unit 2
1600,BECKY MOUNTAIN RD,BREVARD,NC,28712,35.19214292,-82.70708462,House,
9,STILL HOUSE MOUNTAIN RD,BREVARD,NC,28712,35.18939356,-82.76144122,House,
593,WALNUT RIDGE RD,BREVARD,NC,28712,35.18069021,-82.70176048,House,
1170,BARCLAY RD,BREVARD,NC,28712,35.18911031,-82.73180107,House,
153,LAUREL CREEK DR,CEDAR MOUNTAIN,NC,28718,35.19095723,-82.65055482,House,
440,ISLAND FORD RD,BREVARD,NC,28712,35.19835034,-82.77069951,House,
125,HERBS LN,BREVARD,NC,28712,35.19745532,-82.77310561,House,
98,RABBIT CREEK LN,BREVARD,NC,28712,35.19668645,-82.71902602,House,
134,RABBIT CREEK LN,BREVARD,NC,28712,35.1968537,-82.71839977,House,
211,SOUTHAMPTON RD,BREVARD,NC,28712,35.18329202,-82.76327116,House,
16,HANTY BRANCH HL,BREVARD,NC,28712,35.19316838,-82.7215248,House,
958,BARCLAY RD,BREVARD,NC,28712,35.19319223,-82.73339532,House,
342,OXFORD CT,BREVARD,NC,28712,35.18817314,-82.76159844,House,
