Number,Street,City,State,PostalCode,Latitude,Longitude,Type,ApartmentNumber
258,ARBOR WOODS DR,PISGAH FOREST,NC,28768,35.29689895,-82.66503319,House, 
260,ARBOR WOODS DR,PISGAH FOREST,NC,28768,35.29784218,-82.66481053,House, 
295,ARBOR WOODS DR,PISGAH FOREST,NC,28768,35.29756045,-82.6659811,House, 
610,ARBOR WOODS DR,PISGAH FOREST,NC,28768,35.29964254,-82.66487624,House, 
3617,ASHEVILLE HWY,PISGAH FOREST,NC,28768,35.28610754,-82.69024641,House, 
3618,ASHEVILLE HWY,PISGAH FOREST,NC,28768,35.28610158,-82.68956094,House, 
3619,ASHEVILLE HWY,PISGAH FOREST,NC,28768,35.2863375,-82.6903049,House, 
3633,ASHEVILLE HWY,PISGAH FOREST,NC,28768,35.28640366,-82.69010475,House, 
3681,ASHEVILLE HWY,PISGAH FOREST,NC,28768,35.28681244,-82.6897362,House, 
4040,ASHEVILLE HWY,PISGAH FOREST,NC,28768,35.29128691,-82.68537776,House, 
4621,ASHEVILLE HWY,PISGAH FOREST,NC,28768,35.29871533,-82.67947167,House, 
4816,ASHEVILLE HWY,PISGAH FOREST,NC,28768,35.29906011,-82.6765867,House, 
4864,ASHEVILLE HWY,PISGAH FOREST,NC,28768,35.29976077,-82.67579091,House, 
206,AVERY'S CREEK RD,PISGAH FOREST,NC,28768,35.29253074,-82.73899306,House, 
59,BLUE MOON RD,PISGAH FOREST,NC,28768,35.29119628,-82.65938505,House, 
37,C CREEK LN,PISGAH FOREST,NC,28768,35.29566267,-82.66272201,House, 
60,C CREEK LN,PISGAH FOREST,NC,28768,35.2966517,-82.66215027,House, 
611,COYOTE RDG,PISGAH FOREST,NC,28768,35.29986554,-82.65047395,House, 
50,CRYSTAL CREEK DR,PISGAH FOREST,NC,28768,35.28995453,-82.66840193,House, 
112,CRYSTAL CREEK DR,PISGAH FOREST,NC,28768,35.29091995,-82.66803142,House, 
303,CRYSTAL CREEK DR,PISGAH FOREST,NC,28768,35.29295497,-82.66783652,House, 
380,CRYSTAL CREEK DR,PISGAH FOREST,NC,28768,35.29280267,-82.66647695,House, 
387,CRYSTAL CREEK DR,PISGAH FOREST,NC,28768,35.29399609,-82.66620976,House, 
440,CRYSTAL CREEK DR,PISGAH FOREST,NC,28768,35.29313119,-82.66593859,House, 
456,CRYSTAL CREEK DR,PISGAH FOREST,NC,28768,35.29367588,-82.665506,House, 
509,CRYSTAL CREEK DR,PISGAH FOREST,NC,28768,35.29468924,-82.66534888,House, 
590,CRYSTAL CREEK DR,PISGAH FOREST,NC,28768,35.29468677,-82.66436968,House, 
606,CRYSTAL CREEK DR,PISGAH FOREST,NC,28768,35.29495656,-82.66403778,House, 
704,CRYSTAL CREEK DR,PISGAH FOREST,NC,28768,35.29519038,-82.66301282,House, 
761,CRYSTAL CREEK DR,PISGAH FOREST,NC,28768,35.29503284,-82.66212397,House, 
791,CRYSTAL CREEK DR,PISGAH FOREST,NC,28768,35.29454114,-82.66232653,House, 
821,CRYSTAL CREEK DR,PISGAH FOREST,NC,28768,35.29426467,-82.66242455,House, 
866,CRYSTAL CREEK DR,PISGAH FOREST,NC,28768,35.29336127,-82.66297954,House, 
890,CRYSTAL CREEK DR,PISGAH FOREST,NC,28768,35.29274165,-82.66250658,House, 
965,CRYSTAL CREEK DR,PISGAH FOREST,NC,28768,35.29211683,-82.66236129,House, 
215,E DOGWOOD LN,PISGAH FOREST,NC,28768,35.28688255,-82.68680011,House, 
28,ELISE DR,PISGAH FOREST,NC,28768,35.2971374,-82.68104049,House,UNIT 1
28,ELISE DR,PISGAH FOREST,NC,28768,35.2971848,-82.68093941,House,UNIT 2
829,EMMETT RD,PISGAH FOREST,NC,28768,35.29404334,-82.6589378,House, 
127,FOX CREEK LN,PISGAH FOREST,NC,28768,35.29985155,-82.67364406,House, 
201,FOX CREEK LN,PISGAH FOREST,NC,28768,35.29951703,-82.67420876,House, 
259,FOX CREEK LN,PISGAH FOREST,NC,28768,35.29900008,-82.67513396,House, 
293,FOX CREEK LN,PISGAH FOREST,NC,28768,35.29881655,-82.67543876,House, 
305,FOX CREEK LN,PISGAH FOREST,NC,28768,35.29859486,-82.67541955,House, 
2335,FOX HOLLOW RD,PISGAH FOREST,NC,28768,35.29936417,-82.65881009,House, 
2421,FOX HOLLOW RD,PISGAH FOREST,NC,28768,35.29889234,-82.65940378,House, 
2493,FOX HOLLOW RD,PISGAH FOREST,NC,28768,35.29766759,-82.65935882,House, 
2524,FOX HOLLOW RD,PISGAH FOREST,NC,28768,35.29719751,-82.65948664,House, 
2603,FOX HOLLOW RD,PISGAH FOREST,NC,28768,35.29709799,-82.65837223,House, 
388,HIDDEN GAP LN,PISGAH FOREST,NC,28768,35.28625368,-82.64948635,House, 
850,HIDDEN GAP LN,PISGAH FOREST,NC,28768,35.28698557,-82.64647483,House, 
988,HIDDEN GAP LN,PISGAH FOREST,NC,28768,35.28694404,-82.64506912,House, 
45,HILL TOP DR,PISGAH FOREST,NC,28768,35.29367888,-82.66356118,House, 
48,HILL TOP DR,PISGAH FOREST,NC,28768,35.29432005,-82.66348805,House, 
1152,HUDLIN GAP RD,PISGAH FOREST,NC,28768,35.28604475,-82.68879769,House, 
1200,HUDLIN GAP RD,PISGAH FOREST,NC,28768,35.28661035,-82.68882719,House, 
1222,HUDLIN GAP RD,PISGAH FOREST,NC,28768,35.28690784,-82.6887763,House, 
91,IVY LN,PISGAH FOREST,NC,28768,35.28852736,-82.69406529,House, 
182,IVY LN,PISGAH FOREST,NC,28768,35.28994023,-82.69358016,House, 
372,IVY LN,PISGAH FOREST,NC,28768,35.29033738,-82.69458586,House, 
429,IVY LN,PISGAH FOREST,NC,28768,35.29204631,-82.69695968,House, 
540,IVY LN,PISGAH FOREST,NC,28768,35.29095634,-82.69410577,House, 
565,IVY LN,PISGAH FOREST,NC,28768,35.29224734,-82.69494857,House, 
880,IVY LN,PISGAH FOREST,NC,28768,35.29491236,-82.69400347,House, 
883,IVY LN,PISGAH FOREST,NC,28768,35.29393048,-82.69576142,House, 
909,IVY LN,PISGAH FOREST,NC,28768,35.29518639,-82.69485561,House, 
1055,IVY LN,PISGAH FOREST,NC,28768,35.29857233,-82.69244013,House, 
1139,IVY LN,PISGAH FOREST,NC,28768,35.29693838,-82.69488647,House, 
1213,IVY LN,PISGAH FOREST,NC,28768,35.29718019,-82.69653297,House, 
1525,IVY LN,PISGAH FOREST,NC,28768,35.29945357,-82.69832357,House, 
68,LADY SLIPPER LN,PISGAH FOREST,NC,28768,35.28745688,-82.68751268,House, 
69,LAZY BRANCH RD,PISGAH FOREST,NC,28768,35.29129716,-82.67415489,House, 
74,LAZY BRANCH RD,PISGAH FOREST,NC,28768,35.29410933,-82.67247397,House, 
254,LAZY BRANCH RD,PISGAH FOREST,NC,28768,35.29337562,-82.67463271,House, 
1111,LYDAY CREEK RD,PISGAH FOREST,NC,28768,35.28729272,-82.66933866,House, 
1169,LYDAY CREEK RD,PISGAH FOREST,NC,28768,35.28931449,-82.67099216,House, 
1180,LYDAY CREEK RD,PISGAH FOREST,NC,28768,35.29134511,-82.67071845,House, 
1197,LYDAY CREEK RD,PISGAH FOREST,NC,28768,35.28914505,-82.67170088,House, 
1226,LYDAY CREEK RD,PISGAH FOREST,NC,28768,35.29011076,-82.67106706,House, 
1251,LYDAY CREEK RD,PISGAH FOREST,NC,28768,35.29019392,-82.67179536,House, 
1254,LYDAY CREEK RD,PISGAH FOREST,NC,28768,35.29042062,-82.6714549,House, 
1286,LYDAY CREEK RD,PISGAH FOREST,NC,28768,35.29084816,-82.67238712,House, 
1288,LYDAY CREEK RD,PISGAH FOREST,NC,28768,35.29146774,-82.67269641,House, 
1310,LYDAY CREEK RD,PISGAH FOREST,NC,28768,35.29076878,-82.67336985,House, 
1367,LYDAY CREEK RD,PISGAH FOREST,NC,28768,35.28877166,-82.67321433,House, 
1460,LYDAY CREEK RD,PISGAH FOREST,NC,28768,35.29027018,-82.67646675,House, 
34,MELVIN SHIPMAN DR,PISGAH FOREST,NC,28768,35.29328378,-82.69270318,House, 
134,MELVIN SHIPMAN DR,PISGAH FOREST,NC,28768,35.29466616,-82.69351123,House, 
27,MINE MOUNTAIN DR,PISGAH FOREST,NC,28768,35.28774993,-82.69365736,House, 
34,MINE MOUNTAIN DR,PISGAH FOREST,NC,28768,35.28715018,-82.69351694,House, 
64,MINE MOUNTAIN DR,PISGAH FOREST,NC,28768,35.2872595,-82.69305306,House, 
73,MINE MOUNTAIN DR,PISGAH FOREST,NC,28768,35.287978,-82.69320726,House, 
101,MINE MOUNTAIN DR,PISGAH FOREST,NC,28768,35.28826816,-82.69308357,House, 
106,MINE MOUNTAIN DR,PISGAH FOREST,NC,28768,35.28799581,-82.69233002,House, 
139,MINE MOUNTAIN DR,PISGAH FOREST,NC,28768,35.28884271,-82.69278522,House, 
142,MINE MOUNTAIN DR,PISGAH FOREST,NC,28768,35.28835247,-82.69219917,House, 
154,MINE MOUNTAIN DR,PISGAH FOREST,NC,28768,35.28874766,-82.69219206,House, 
200,MINE MOUNTAIN DR,PISGAH FOREST,NC,28768,35.28930617,-82.6919082,House, 
233,MINE MOUNTAIN DR,PISGAH FOREST,NC,28768,35.28942733,-82.69260117,House, 
255,MINE MOUNTAIN DR,PISGAH FOREST,NC,28768,35.28979674,-82.69266673,House, 
277,MINE MOUNTAIN DR,PISGAH FOREST,NC,28768,35.29006246,-82.69274741,House, 
296,MINE MOUNTAIN DR,PISGAH FOREST,NC,28768,35.29124414,-82.69242009,House, 
24,OAK HILL RD,PISGAH FOREST,NC,28768,35.28931241,-82.69395406,House, 
30,OAK HILL RD,PISGAH FOREST,NC,28768,35.28913626,-82.69443058,House, 
39,OAK HILL RD,PISGAH FOREST,NC,28768,35.28877665,-82.69442724,House, 
60,OAK HILL RD,PISGAH FOREST,NC,28768,35.28880256,-82.69509573,House, 
130,OAK HILL RD,PISGAH FOREST,NC,28768,35.28836936,-82.69543866,House, 
362,OLD NC 280 HWY,PISGAH FOREST,NC,28768,35.28593699,-82.69098826,House, 
400,OLD NC 280 HWY,PISGAH FOREST,NC,28768,35.28636001,-82.6908788,House, 
416,OLD NC 280 HWY,PISGAH FOREST,NC,28768,35.28681808,-82.69047522,House, 
485,OLD NC 280 HWY,PISGAH FOREST,NC,28768,35.28747803,-82.69049564,House, 
509,OLD NC 280 HWY,PISGAH FOREST,NC,28768,35.28783323,-82.69042231,House, 
649,OLD NC 280 HWY,PISGAH FOREST,NC,28768,35.29263969,-82.69033255,House, 
788,OLD NC 280 HWY,PISGAH FOREST,NC,28768,35.29100841,-82.68689747,House, 
934,OLD NC 280 HWY,PISGAH FOREST,NC,28768,35.29312652,-82.68600007,House, 
942,OLD NC 280 HWY,PISGAH FOREST,NC,28768,35.29307181,-82.68617472,House, 
1000,OLD NC 280 HWY,PISGAH FOREST,NC,28768,35.29384237,-82.68481109,House, 
1117,OLD NC 280 HWY,PISGAH FOREST,NC,28768,35.29513113,-82.68421158,House, 
101,RED CLOVER LN,PISGAH FOREST,NC,28768,35.29978716,-82.67878156,House, 
200,SILVER CREEK DR,PISGAH FOREST,NC,28768,35.29432769,-82.68804095,House, 
207,TURKEY CREEK RD,PISGAH FOREST,NC,28768,35.28598572,-82.6971549,House, 
260,TURKEY CREEK RD,PISGAH FOREST,NC,28768,35.28776525,-82.69546736,House, 
377,TURKEY CREEK RD,PISGAH FOREST,NC,28768,35.28815229,-82.69681371,House, 
446,TURKEY CREEK RD,PISGAH FOREST,NC,28768,35.28902497,-82.69774727,House, 
634,TURKEY CREEK RD,PISGAH FOREST,NC,28768,35.29083406,-82.69833928,House, 
67,VALLEY DR,PISGAH FOREST,NC,28768,35.29298589,-82.66376991,House, 
149,WESLEY WAY,PISGAH FOREST,NC,28768,35.28801904,-82.6860813,House, 
51,GASH LN,PISGAH FOREST,NC,28768,35.29810121,-82.67729965,House, 
53,GASH LN,PISGAH FOREST,NC,28768,35.298195,-82.67614041,House, 
133,GASH LN,PISGAH FOREST,NC,28768,35.29673806,-82.67813856,House, 
150,GASH LN,PISGAH FOREST,NC,28768,35.29738402,-82.67812039,House, 
59,GASH LN,PISGAH FOREST,NC,28768,35.29758105,-82.67705954,House, 
278,MIDDLE OF NO WHERE DR,PISGAH FOREST,NC,28768,35.29578649,-82.66103633,House,
1090,EMMETT RD,PISGAH FOREST,NC,28768,35.29498016,-82.65644288,House,
45,MIDDLE OF NO WHERE DR,PISGAH FOREST,NC,28768,35.29352254,-82.66104123,House,
1457,LYDAY CREEK RD,PISGAH FOREST,NC,28768,35.2888074,-82.67512604,House,
2034,TURKEY CREEK RD,PISGAH FOREST,NC,28768,35.29736976,-82.70441502,House,
827,IVY LN,PISGAH FOREST,NC,28768,35.29286037,-82.69387103,House,
115,LAZY BRANCH RD,PISGAH FOREST,NC,28768,35.29152315,-82.67421685,House,
1225,LYDAY CREEK RD,PISGAH FOREST,NC,28768,35.28989103,-82.67150776,House,
931,OLD NC 280 HWY,PISGAH FOREST,NC,28768,35.2928705,-82.68690266,House,
201,E DOGWOOD LN,PISGAH FOREST,NC,28768,35.28662729,-82.6868344,House,
2400,FOX HOLLOW RD,PISGAH FOREST,NC,28768,35.29736529,-82.66188575,House,
522,TURKEY CREEK RD,PISGAH FOREST,NC,28768,35.28962809,-82.69816207,House,
2398,FOX HOLLOW RD,PISGAH FOREST,NC,28768,35.29912934,-82.6608637,House,
517,OLD NC 280 HWY,PISGAH FOREST,NC,28768,35.28829306,-82.69067874,House,
323,FRIEDAS WAY,PISGAH FOREST,NC,28768,35.28612933,-82.66150076,House,
379,FRIEDAS WAY,PISGAH FOREST,NC,28768,35.28769197,-82.66154803,House,
229,OLD IVY LN,PISGAH FOREST,NC,28768,35.29969933,-82.69473234,House,
429,TURKEY CREEK RD,PISGAH FOREST,NC,28768,35.28847202,-82.69743203,House,
184,MIRACLE VALLEY RD,PISGAH FOREST,NC,28768,35.29279234,-82.67048727,House,
139,MIRACLE VALLEY RD,PISGAH FOREST,NC,28768,35.2924027,-82.67195178,House,
100,MIRACLE VALLEY RD,PISGAH FOREST,NC,28768,35.29199356,-82.67136018,House,
479,TURKEY CREEK RD,PISGAH FOREST,NC,28768,35.28848712,-82.69874372,House,
71,ELISE DR,PISGAH FOREST,NC,28768,35.29635666,-82.6814323,House,
58,BLUE MOON RD,PISGAH FOREST,NC,28768,35.29368631,-82.6592758,House,
353,ELISE DR,PISGAH FOREST,NC,28768,35.29807493,-82.68296997,House,
264,GASH LN,PISGAH FOREST,NC,28768,35.29586542,-82.67989873,House,
286,BELLA SKY MTN,PISGAH FOREST,NC,28768,35.2905853,-82.65048215,House,
375,BELLA SKY MTN,PISGAH FOREST,NC,28768,35.2900418,-82.65121927,House,
61,BLUE MOON RD,PISGAH FOREST,NC,28768,35.29203034,-82.65943047,House,
74,OLD IVY LN,PISGAH FOREST,NC,28768,35.29790522,-82.69467738,House,
98,MIRACLE VALLEY RD,PISGAH FOREST,NC,28768,35.29145334,-82.67148346,House,
183,MIRACLE VALLEY RD,PISGAH FOREST,NC,28768,35.29356913,-82.67077742,House,
281,LAKE SERENITY DR,PISGAH FOREST,NC,28768,35.28679228,-82.67183317,House,
28,ELISE DR,PISGAH FOREST,NC,28768,35.29713991,-82.68096963,House,
4454,ASHEVILLE HWY,PISGAH FOREST,NC,28768,35.29507275,-82.68006012,House,
67,IVY LN,PISGAH FOREST,NC,28768,35.28795078,-82.69501558,House,
431,IVY LN,PISGAH FOREST,NC,28768,35.2925434,-82.6967832,House,
170,DEEP VALLEY TRL,PISGAH FOREST,NC,28768,35.28927725,-82.64509448,House,
1050,IVY LN,PISGAH FOREST,NC,28768,35.296531,-82.692787,House,
15,ERNEST WAY,PISGAH FOREST,NC,28768,35.286849,-82.694314,House,
180,ERNEST WAY,PISGAH FOREST,NC,28768,35.286132,-82.696897,House,
56,WHITE PINES RECREATION AREA RD,PISGAH FOREST,NC,28768,35.291051,-82.73757,Other,
1462,LYDAY CREEK RD,PISGAH FOREST,NC,28768,35.290626,-82.676485,Other,
1048,IVY LN,PISGAH FOREST,NC,28768,35.296384,-82.692565,House,
538,IVY LN,PISGAH FOREST,NC,28768,35.290776,-82.695113,House,
1109,LYDAY CREEK RD,PISGAH FOREST,NC,28768,35.288395,-82.669176,House,
373,OLD NC 280 HWY,PISGAH FOREST,NC,28768,35.286174,-82.692709,House,
236,ERNEST WAY,PISGAH FOREST,NC,28768,35.285996,-82.697764,House,
1211,IVY LN,PISGAH FOREST,NC,28768,35.297338,-82.696241,House,
610,COYOTE RDG,PISGAH FOREST,NC,28768,35.29954,-82.652009,House,
24,BLUE MOON RD,PISGAH FOREST,NC,28768,35.292475,-82.65847,House,
1318,IVY LN,PISGAH FOREST,NC,28768,35.298711,-82.695421,House,
10,MELVIN SHIPMAN DR,PISGAH FOREST,NC,28768,35.292421,-82.692242,House,
