Number,Street,City,State,PostalCode,Latitude,Longitude,Type,ApartmentNumber
34,ALFRED RD,BREVARD,NC,28712,35.19923165,-82.7183791,House, 
21,BARBERRY HTS,BREVARD,NC,28712,35.1912447,-82.76107046,House, 
44,BARBERRY HTS,BREVARD,NC,28712,35.19166142,-82.76128372,House, 
66,BARBERRY HTS,BREVARD,NC,28712,35.19185433,-82.76155068,House, 
70,BARBERRY HTS,BREVARD,NC,28712,35.19183503,-82.76309832,House, 
147,BARBERRY HTS,BREVARD,NC,28712,35.19032508,-82.76123963,House, 
188,BARBERRY HTS,BREVARD,NC,28712,35.19086296,-82.76200523,House, 
216,BARBERRY HTS,BREVARD,NC,28712,35.19098669,-82.76234705,House, 
226,BARBERRY HTS,BREVARD,NC,28712,35.191047,-82.76266536,House, 
260,BARBERRY HTS,BREVARD,NC,28712,35.19115861,-82.76373892,House, 
274,BARBERRY HTS,BREVARD,NC,28712,35.19060376,-82.76378821,House, 
320,BARBERRY HTS,BREVARD,NC,28712,35.19121086,-82.76466116,House, 
339,BARBERRY HTS,BREVARD,NC,28712,35.19022016,-82.76298823,House, 
361,BARBERRY HTS,BREVARD,NC,28712,35.18994872,-82.76251666,House, 
436,BARBERRY HTS,BREVARD,NC,28712,35.18971143,-82.7619604,House, 
439,BARBERRY HTS,BREVARD,NC,28712,35.19045323,-82.76201906,House, 
484,BARBERRY HTS,BREVARD,NC,28712,35.18984537,-82.7615142,House, 
506,BARBERRY HTS,BREVARD,NC,28712,35.18969926,-82.76110446,House, 
548,BARBERRY HTS,BREVARD,NC,28712,35.18988044,-82.76029528,House, 
163,BARCLAY FARM RD,BREVARD,NC,28712,35.19418147,-82.7296881,House, 
193,BARCLAY FARM RD,BREVARD,NC,28712,35.19322689,-82.72939524,House, 
407,BARCLAY FARM RD,BREVARD,NC,28712,35.19158162,-82.73110038,House, 
382,BARCLAY RD,BREVARD,NC,28712,35.19966058,-82.73961906,House, 
450,BARCLAY RD,BREVARD,NC,28712,35.19875251,-82.73997018,House, 
458,BARCLAY RD,BREVARD,NC,28712,35.19863233,-82.73995533,House, 
466,BARCLAY RD,BREVARD,NC,28712,35.19851124,-82.73991349,House, 
468,BARCLAY RD,BREVARD,NC,28712,35.19848058,-82.73989866,House, 
490,BARCLAY RD,BREVARD,NC,28712,35.19820952,-82.7397064,House, 
524,BARCLAY RD,BREVARD,NC,28712,35.19782785,-82.73937761,House, 
526,BARCLAY RD,BREVARD,NC,28712,35.19780577,-82.73935794,House, 
528,BARCLAY RD,BREVARD,NC,28712,35.19778369,-82.73933828,House, 
608,BARCLAY RD,BREVARD,NC,28712,35.1967245,-82.73833415,House, 
704,BARCLAY RD,BREVARD,NC,28712,35.19412126,-82.73656447,House, 
770,BARCLAY RD,BREVARD,NC,28712,35.19495498,-82.73622173,House, 
812,BARCLAY RD,BREVARD,NC,28712,35.19122179,-82.73502888,House, 
814,BARCLAY RD,BREVARD,NC,28712,35.18924206,-82.73485193,House, 
850,BARCLAY RD,BREVARD,NC,28712,35.19448094,-82.73431801,House, 
960,BARCLAY RD,BREVARD,NC,28712,35.19391717,-82.73178149,House, 
1163,BARCLAY RD,BREVARD,NC,28712,35.19849534,-82.73165117,House, 
1229,BARCLAY RD,BREVARD,NC,28712,35.19706999,-82.72864239,House, 
1340,BARCLAY RD,BREVARD,NC,28712,35.19660245,-82.72726074,House, 
1409,BARCLAY RD,BREVARD,NC,28712,35.19721581,-82.72676645,House, 
1411,BARCLAY RD,BREVARD,NC,28712,35.19655333,-82.72613349,House, 
1765,BARCLAY RD,BREVARD,NC,28712,35.1987766,-82.72099247,House, 
33,BEAR TRACE RD,BREVARD,NC,28712,35.18732897,-82.70454279,House, 
36,BEAR TRACE RD,BREVARD,NC,28712,35.18743568,-82.70316487,House, 
1360,BECKY MOUNTAIN RD,BREVARD,NC,28712,35.19481795,-82.70945349,House, 
1398,BECKY MOUNTAIN RD,BREVARD,NC,28712,35.19430652,-82.7093171,House, 
1428,BECKY MOUNTAIN RD,BREVARD,NC,28712,35.19390107,-82.70911542,House, 
1460,BECKY MOUNTAIN RD,BREVARD,NC,28712,35.19336327,-82.70839568,House, 
1462,BECKY MOUNTAIN RD,BREVARD,NC,28712,35.19335013,-82.70836639,House, 
1574,BECKY MOUNTAIN RD,BREVARD,NC,28712,35.19283586,-82.70768142,House, 
1667,BECKY MOUNTAIN RD,BREVARD,NC,28712,35.19128647,-82.70636931,House, 
1669,BECKY MOUNTAIN RD,BREVARD,NC,28712,35.19125922,-82.70636918,House, 
1692,BECKY MOUNTAIN RD,BREVARD,NC,28712,35.19094238,-82.70662015,House, 
1780,BECKY MOUNTAIN RD,BREVARD,NC,28712,35.18980712,-82.70703995,House, 
1784,BECKY MOUNTAIN RD,BREVARD,NC,28712,35.18974786,-82.70703572,House, 
1844,BECKY MOUNTAIN RD,BREVARD,NC,28712,35.18873127,-82.70685794,House, 
1978,BECKY MOUNTAIN RD,BREVARD,NC,28712,35.18755871,-82.70759536,House, 
2103,BECKY MOUNTAIN RD,BREVARD,NC,28712,35.18562345,-82.70877564,House, 
185,BEECH LN,BREVARD,NC,28712,35.19976681,-82.74285864,House, 
59,BIG PINE DR,BREVARD,NC,28712,35.18869162,-82.69564064,House, 
114,BIG PINE DR,BREVARD,NC,28712,35.18979018,-82.69523538,House, 
115,BIG PINE DR,BREVARD,NC,28712,35.18985236,-82.69593438,House, 
127,CARL MERRILL DR,CEDAR MOUNTAIN,NC,28718,35.19299221,-82.64853386,House, 
184,CARL MERRILL DR,CEDAR MOUNTAIN,NC,28718,35.19369865,-82.64843494,House, 
5389,CASCADE LAKE RD,CEDAR MOUNTAIN,NC,28718,35.19025245,-82.6496525,House, 
5639,CASCADE LAKE RD,CEDAR MOUNTAIN,NC,28718,35.18872227,-82.65042542,House, 
65,CHEEK RD,BREVARD,NC,28712,35.19882941,-82.7185062,House, 
85,CHEEK RD,BREVARD,NC,28712,35.19883397,-82.71761606,House, 
123,CHEEK RD,BREVARD,NC,28712,35.19827094,-82.71648174,House, 
456,COSTIGAN RD,BREVARD,NC,28712,35.1800322,-82.68733221,House, 
241,DANNY LN,BREVARD,NC,28712,35.18681322,-82.70537973,House, 
104,EAGLE CIR,BREVARD,NC,28712,35.19995295,-82.75217259,House, 
171,EAGLE LAKE DR,BREVARD,NC,28712,35.18546973,-82.70695541,House, 
253,EAGLE LAKE DR,BREVARD,NC,28712,35.18590054,-82.70582179,House, 
341,EAGLE LAKE DR,BREVARD,NC,28712,35.18675688,-82.70448239,House, 
417,EAGLE LAKE DR,BREVARD,NC,28712,35.18767109,-82.7022082,House, 
514,EAGLE LAKE DR,BREVARD,NC,28712,35.18706127,-82.70107765,House, 
558,EAGLE LAKE DR,BREVARD,NC,28712,35.18764784,-82.70091817,House, 
608,EAGLE LAKE DR,BREVARD,NC,28712,35.1881947,-82.70089079,House, 
622,EAGLE LAKE DR,BREVARD,NC,28712,35.18875241,-82.69986981,House, 
641,EAGLE LAKE DR,BREVARD,NC,28712,35.18894651,-82.70187535,House, 
886,EAGLE LAKE DR,BREVARD,NC,28712,35.19001239,-82.69811469,House, 
934,EAGLE LAKE DR,BREVARD,NC,28712,35.19044542,-82.6976154,House, 
1058,EAGLE LAKE DR,BREVARD,NC,28712,35.18937171,-82.69687322,House, 
1280,EAGLE LAKE DR,BREVARD,NC,28712,35.18767731,-82.69631715,House, 
1316,EAGLE LAKE DR,BREVARD,NC,28712,35.18754126,-82.69731819,House, 
1514,EAGLE LAKE DR,BREVARD,NC,28712,35.18489475,-82.69649513,House, 
1592,EAGLE LAKE DR,BREVARD,NC,28712,35.18529917,-82.69810245,House, 
1640,EAGLE LAKE DR,BREVARD,NC,28712,35.18524232,-82.69864119,House, 
1643,EAGLE LAKE DR,BREVARD,NC,28712,35.1840458,-82.69859307,House, 
1706,EAGLE LAKE DR,BREVARD,NC,28712,35.18560394,-82.69941906,House, 
1775,EAGLE LAKE DR,BREVARD,NC,28712,35.18414251,-82.70117809,House, 
1788,EAGLE LAKE DR,BREVARD,NC,28712,35.18557823,-82.70052907,House, 
1809,EAGLE LAKE DR,BREVARD,NC,28712,35.18562002,-82.70128172,House, 
1860,EAGLE LAKE DR,BREVARD,NC,28712,35.18649192,-82.70067277,House, 
1905,EAGLE LAKE DR,BREVARD,NC,28712,35.186479,-82.7025159,House, 
58,ELIZA WARE RD,BREVARD,NC,28712,35.1842599,-82.71325741,House, 
330,ELIZA WARE RD,BREVARD,NC,28712,35.18103056,-82.71407288,House, 
725,ELIZA WARE RD,BREVARD,NC,28712,35.180817,-82.7196348,House, 
754,ELIZA WARE RD,BREVARD,NC,28712,35.18125914,-82.71944221,House, 
124,FIRE TOWER RD,BREVARD,NC,28712,35.18507763,-82.66768254,House, 
370,FIRE TOWER RD,BREVARD,NC,28712,35.18287251,-82.67182558,House, 
457,FIRE TOWER RD,BREVARD,NC,28712,35.18149367,-82.67247306,House, 
123,FOX TOWER RD,BREVARD,NC,28712,35.18984222,-82.67282201,House, 
215,FOX TOWER RD,BREVARD,NC,28712,35.18795841,-82.67335408,House, 
258,FOX TOWER RD,BREVARD,NC,28712,35.19082048,-82.67963876,House, 
421,FOX TOWER RD,BREVARD,NC,28712,35.18573846,-82.67648597,House, 
512,FOX TOWER RD,BREVARD,NC,28712,35.18632509,-82.6792626,House, 
624,FOX TOWER RD,BREVARD,NC,28712,35.18528814,-82.68040123,House, 
750,FOX TOWER RD,BREVARD,NC,28712,35.1827419,-82.68206239,House, 
88,HERBS LN,BREVARD,NC,28712,35.19811536,-82.7745803,House, 
101,GAIA HERBS DR,BREVARD,NC,28712,35.19847514,-82.77275658,House, 
625,GREEN RD,BREVARD,NC,28712,35.18551994,-82.77788123,House, 
1017,GREEN RD,BREVARD,NC,28712,35.1832948,-82.77503521,House, 
2359,GREENVILLE HWY,BREVARD,NC,28712,35.19839452,-82.71843925,House, 
2361,GREENVILLE HWY,BREVARD,NC,28712,35.19710307,-82.7174165,House, 
2395,GREENVILLE HWY,BREVARD,NC,28712,35.19983371,-82.71849566,House, 
2425,GREENVILLE HWY,BREVARD,NC,28712,35.19949705,-82.71834946,House, 
2500,GREENVILLE HWY,BREVARD,NC,28712,35.19928849,-82.72199067,House, 
2502,GREENVILLE HWY,BREVARD,NC,28712,35.19942519,-82.72264436,House, 
2555,GREENVILLE HWY,BREVARD,NC,28712,35.19789228,-82.71997005,House, 
2609,GREENVILLE HWY,BREVARD,NC,28712,35.19733612,-82.71917573,House, 
2607,GREENVILLE HWY,BREVARD,NC,28712,35.19728907,-82.72042024,House, 
2719,GREENVILLE HWY,BREVARD,NC,28712,35.1956736,-82.72067076,House, 
3263,GREENVILLE HWY,BREVARD,NC,28712,35.18863969,-82.72289651,House, 
3265,GREENVILLE HWY,BREVARD,NC,28712,35.18631296,-82.72357995,House, 
3460,GREENVILLE HWY,BREVARD,NC,28712,35.18609627,-82.72572152,House, 
3525,GREENVILLE HWY,BREVARD,NC,28712,35.18500159,-82.7246613,House, 
3590,GREENVILLE HWY,BREVARD,NC,28712,35.18465876,-82.72635597,House, 
3598,GREENVILLE HWY,BREVARD,NC,28712,35.18445326,-82.72647367,House, 
3621,GREENVILLE HWY,BREVARD,NC,28712,35.18395716,-82.72607698,House, 
3623,GREENVILLE HWY,BREVARD,NC,28712,35.1838423,-82.72614448,House, 
3625,GREENVILLE HWY,BREVARD,NC,28712,35.18365438,-82.72609368,House, 
3627,GREENVILLE HWY,BREVARD,NC,28712,35.18340843,-82.72617618,House, 
3683,GREENVILLE HWY,BREVARD,NC,28712,35.18253209,-82.72629526,House, 
3685,GREENVILLE HWY,BREVARD,NC,28712,35.18201609,-82.72550249,House, 
3735,GREENVILLE HWY,BREVARD,NC,28712,35.1819583,-82.7267044,House, 
3945,GREENVILLE HWY,BREVARD,NC,28712,35.18047699,-82.73119515,House, 
4140,GREENVILLE HWY,BREVARD,NC,28712,35.1801682,-82.73363074,House, 
4142,GREENVILLE HWY,BREVARD,NC,28712,35.18008383,-82.73372298,House, 
1012,HANNAH FORD RD,BREVARD,NC,28712,35.18113543,-82.77080998,House, 
1014,HANNAH FORD RD,BREVARD,NC,28712,35.1814687,-82.7705308,House, 
1027,HANNAH FORD RD,BREVARD,NC,28712,35.18051721,-82.77117107,House, 
1071,HANNAH FORD RD,BREVARD,NC,28712,35.18220201,-82.77201056,House, 
1072,HANNAH FORD RD,BREVARD,NC,28712,35.18203218,-82.77098006,House, 
1170,HANNAH FORD RD,BREVARD,NC,28712,35.18264182,-82.77139949,House, 
1240,HANNAH FORD RD,BREVARD,NC,28712,35.18320199,-82.77120856,House, 
1268,HANNAH FORD RD,BREVARD,NC,28712,35.18369569,-82.77137495,House, 
1288,HANNAH FORD RD,BREVARD,NC,28712,35.18419524,-82.77283961,House, 
1363,HANNAH FORD RD,BREVARD,NC,28712,35.18347952,-82.7729134,House, 
1365,HANNAH FORD RD,BREVARD,NC,28712,35.1832191,-82.77354957,House, 
1443,HANNAH FORD RD,BREVARD,NC,28712,35.18295464,-82.77407844,House, 
208,HANTY BRANCH HL,BREVARD,NC,28712,35.19210921,-82.72163668,House, 
243,HARD TIMES RDG,BREVARD,NC,28712,35.19596259,-82.66953947,House, 
404,HARD TIMES RDG,BREVARD,NC,28712,35.19690754,-82.66762374,House, 
405,HARD TIMES RDG,BREVARD,NC,28712,35.19720504,-82.66762298,House, 
438,HARD TIMES RDG,BREVARD,NC,28712,35.19734799,-82.66689002,House, 
10,HI LO MOUNTAIN DR,BREVARD,NC,28712,35.19930442,-82.75748325,House, 
37,HI LO MOUNTAIN DR,BREVARD,NC,28712,35.19893677,-82.75740972,House, 
61,HI LO MOUNTAIN DR,BREVARD,NC,28712,35.1987373,-82.75770076,House, 
93,HI LO MOUNTAIN DR,BREVARD,NC,28712,35.19840614,-82.758075,House, 
191,HI LO MOUNTAIN DR,BREVARD,NC,28712,35.19848738,-82.75638232,House, 
193,HI LO MOUNTAIN DR,BREVARD,NC,28712,35.19797964,-82.75402422,House, 
209,HI LO MOUNTAIN DR,BREVARD,NC,28712,35.19781449,-82.75710738,House, 
217,HI LO MOUNTAIN DR,BREVARD,NC,28712,35.1977692,-82.75644075,House, 
56,HIGH POINT TRL,BREVARD,NC,28712,35.19651857,-82.75243931,House, 
64,HILLCREST CIR,BREVARD,NC,28712,35.18034668,-82.7625241,House, 
87,HILLCREST CIR,BREVARD,NC,28712,35.18038368,-82.76349363,House, 
96,HILLCREST CIR,BREVARD,NC,28712,35.18074151,-82.76270173,House, 
112,HILLCREST CIR,BREVARD,NC,28712,35.18117454,-82.76304402,House, 
144,HILLCREST CIR,BREVARD,NC,28712,35.18151458,-82.7635625,House, 
152,HILLCREST CIR,BREVARD,NC,28712,35.18149983,-82.7642312,House, 
153,HILLCREST CIR,BREVARD,NC,28712,35.18118874,-82.76431484,House, 
42,HOGSED RD,BREVARD,NC,28712,35.18569325,-82.70995765,House, 
44,HOGSED RD,BREVARD,NC,28712,35.18629344,-82.71008521,House, 
214,HOGSED RD,BREVARD,NC,28712,35.18534501,-82.71258867,House, 
245,HOGSED RD,BREVARD,NC,28712,35.18521936,-82.71439217,House, 
316,HOGSED RD,BREVARD,NC,28712,35.18602598,-82.71215733,House, 
335,HOGSED RD,BREVARD,NC,28712,35.18604319,-82.71317253,House, 
351,HOGSED RD,BREVARD,NC,28712,35.18625676,-82.7133974,House, 
372,HOGSED RD,BREVARD,NC,28712,35.18680159,-82.71317804,House, 
395,HOGSED RD,BREVARD,NC,28712,35.18630731,-82.71385444,House, 
420,HOGSED RD,BREVARD,NC,28712,35.18796243,-82.71226781,House, 
435,HOGSED RD,BREVARD,NC,28712,35.18749977,-82.71445965,House, 
450,HOGSED RD,BREVARD,NC,28712,35.18889356,-82.71428704,House, 
500,HOGSED RD,BREVARD,NC,28712,35.18779062,-82.71450949,House, 
77,HOMESTEAD LN,BREVARD,NC,28712,35.18605103,-82.71448999,House, 
10,HOMESTEAD LN,BREVARD,NC,28712,35.18692017,-82.71394162,House, 
62,HOMESTEAD LN,BREVARD,NC,28712,35.18640107,-82.71468713,House, 
200,HOMESTEAD LN,BREVARD,NC,28712,35.18681744,-82.71655198,House, 
254,HOMESTEAD LN,BREVARD,NC,28712,35.18619256,-82.7171689,House, 
294,HOMESTEAD LN,BREVARD,NC,28712,35.18565488,-82.71758945,House, 
131,ISLAND FORD RD,BREVARD,NC,28712,35.19990056,-82.77497924,House, 
157,ISLAND FORD RD,BREVARD,NC,28712,35.19943564,-82.77485549,House, 
170,ISLAND FORD RD,BREVARD,NC,28712,35.19954416,-82.77589895,House, 
201,ISLAND FORD RD,BREVARD,NC,28712,35.19993746,-82.77376733,House, 
203,ISLAND FORD RD,BREVARD,NC,28712,35.19987175,-82.77294387,House, 
219,ISLAND FORD RD,BREVARD,NC,28712,35.19919843,-82.77427291,House, 
273,ISLAND FORD RD,BREVARD,NC,28712,35.19923759,-82.77354728,House, 
275,ISLAND FORD RD,BREVARD,NC,28712,35.1992832,-82.7734155,House, 
323,ISLAND FORD RD,BREVARD,NC,28712,35.19947518,-82.772691,House, 
345,ISLAND FORD RD,BREVARD,NC,28712,35.19937643,-82.77212153,House, 
353,ISLAND FORD RD,BREVARD,NC,28712,35.19927009,-82.77190446,House, 
443,ISLAND FORD RD,BREVARD,NC,28712,35.19900999,-82.76985934,House, 
534,ISLAND FORD RD,BREVARD,NC,28712,35.19799921,-82.76928622,House, 
540,ISLAND FORD RD,BREVARD,NC,28712,35.19798661,-82.76907819,House, 
561,ISLAND FORD RD,BREVARD,NC,28712,35.19840649,-82.76893387,House, 
577,ISLAND FORD RD,BREVARD,NC,28712,35.19843947,-82.76828559,House, 
582,ISLAND FORD RD,BREVARD,NC,28712,35.19801851,-82.76826058,House, 
659,ISLAND FORD RD,BREVARD,NC,28712,35.19863706,-82.76811849,House, 
661,ISLAND FORD RD,BREVARD,NC,28712,35.19927441,-82.76829149,House, 
700,ISLAND FORD RD,BREVARD,NC,28712,35.1984888,-82.76668962,House, 
716,ISLAND FORD RD,BREVARD,NC,28712,35.19772191,-82.76613733,House, 
730,ISLAND FORD RD,BREVARD,NC,28712,35.19841987,-82.76582481,House, 
741,ISLAND FORD RD,BREVARD,NC,28712,35.19893977,-82.7648244,House, 
790,ISLAND FORD RD,BREVARD,NC,28712,35.19795467,-82.76515316,House, 
803,ISLAND FORD RD,BREVARD,NC,28712,35.19816707,-82.7642176,House, 
890,ISLAND FORD RD,BREVARD,NC,28712,35.19748112,-82.76358136,House, 
905,ISLAND FORD RD,BREVARD,NC,28712,35.19858066,-82.76341797,House, 
911,ISLAND FORD RD,BREVARD,NC,28712,35.19812024,-82.7627882,House, 
913,ISLAND FORD RD,BREVARD,NC,28712,35.19780602,-82.76256125,House, 
920,ISLAND FORD RD,BREVARD,NC,28712,35.19693207,-82.76307496,House, 
935,ISLAND FORD RD,BREVARD,NC,28712,35.19758634,-82.7622724,House, 
937,ISLAND FORD RD,BREVARD,NC,28712,35.19706898,-82.76220631,House, 
1011,ISLAND FORD RD,BREVARD,NC,28712,35.19572556,-82.76113726,House, 
1013,ISLAND FORD RD,BREVARD,NC,28712,35.19536374,-82.76079177,House, 
1021,ISLAND FORD RD,BREVARD,NC,28712,35.1959783,-82.76207109,House, 
1040,ISLAND FORD RD,BREVARD,NC,28712,35.19600464,-82.76313996,House, 
1089,ISLAND FORD RD,BREVARD,NC,28712,35.19566089,-82.76232704,House, 
1134,ISLAND FORD RD,BREVARD,NC,28712,35.19496126,-82.7634837,House, 
1145,ISLAND FORD RD,BREVARD,NC,28712,35.19426278,-82.76307228,House, 
1170,ISLAND FORD RD,BREVARD,NC,28712,35.1945659,-82.76371291,House, 
1197,ISLAND FORD RD,BREVARD,NC,28712,35.19398058,-82.7630193,House, 
1208,ISLAND FORD RD,BREVARD,NC,28712,35.1929675,-82.76416639,House, 
1210,ISLAND FORD RD,BREVARD,NC,28712,35.19303665,-82.76361636,House, 
1235,ISLAND FORD RD,BREVARD,NC,28712,35.19321466,-82.76290453,House, 
1252,ISLAND FORD RD,BREVARD,NC,28712,35.19246268,-82.76283993,House, 
1318,ISLAND FORD RD,BREVARD,NC,28712,35.19202487,-82.76235852,House, 
1419,ISLAND FORD RD,BREVARD,NC,28712,35.19192535,-82.76067447,House, 
1435,ISLAND FORD RD,BREVARD,NC,28712,35.19171637,-82.76058675,House, 
1437,ISLAND FORD RD,BREVARD,NC,28712,35.19160798,-82.76048736,House, 
1455,ISLAND FORD RD,BREVARD,NC,28712,35.19132707,-82.76040947,House, 
1471,ISLAND FORD RD,BREVARD,NC,28712,35.1910794,-82.76027665,House, 
1482,ISLAND FORD RD,BREVARD,NC,28712,35.1909858,-82.76083537,House, 
1489,ISLAND FORD RD,BREVARD,NC,28712,35.19083169,-82.76016456,House, 
1511,ISLAND FORD RD,BREVARD,NC,28712,35.19058877,-82.76004114,House, 
1529,ISLAND FORD RD,BREVARD,NC,28712,35.19029054,-82.7598761,House, 
1590,ISLAND FORD RD,BREVARD,NC,28712,35.18938825,-82.76017159,House, 
1608,ISLAND FORD RD,BREVARD,NC,28712,35.18873278,-82.76018958,House, 
1610,ISLAND FORD RD,BREVARD,NC,28712,35.18864982,-82.76059139,House, 
3777,ISLAND FORD RD,BREVARD,NC,28712,35.18014193,-82.74258869,House, 
3868,ISLAND FORD RD,BREVARD,NC,28712,35.18007726,-82.74111545,House, 
3870,ISLAND FORD RD,BREVARD,NC,28712,35.18026831,-82.740623,House, 
3953,ISLAND FORD RD,BREVARD,NC,28712,35.18110497,-82.73994926,House, 
4025,ISLAND FORD RD,BREVARD,NC,28712,35.1816555,-82.73851605,House, 
4135,ISLAND FORD RD,BREVARD,NC,28712,35.18195862,-82.73738907,House, 
4192,ISLAND FORD RD,BREVARD,NC,28712,35.18265123,-82.73570847,House, 
4209,ISLAND FORD RD,BREVARD,NC,28712,35.18345611,-82.73681208,House, 
4260,ISLAND FORD RD,BREVARD,NC,28712,35.18256583,-82.73501196,House, 
4261,ISLAND FORD RD,BREVARD,NC,28712,35.18335523,-82.73516307,House, 
4316,ISLAND FORD RD,BREVARD,NC,28712,35.18240607,-82.73463865,House, 
4329,ISLAND FORD RD,BREVARD,NC,28712,35.18325436,-82.73420043,House, 
4333,ISLAND FORD RD,BREVARD,NC,28712,35.18309847,-82.73373993,House, 
4335,ISLAND FORD RD,BREVARD,NC,28712,35.18354052,-82.73380567,House, 
4390,ISLAND FORD RD,BREVARD,NC,28712,35.18178528,-82.73314626,House, 
4392,ISLAND FORD RD,BREVARD,NC,28712,35.18239516,-82.73267355,House, 
4420,ISLAND FORD RD,BREVARD,NC,28712,35.18168739,-82.73161654,House, 
4444,ISLAND FORD RD,BREVARD,NC,28712,35.18255347,-82.73172079,House, 
4542,ISLAND FORD RD,BREVARD,NC,28712,35.18355714,-82.7309927,House, 
4555,ISLAND FORD RD,BREVARD,NC,28712,35.18424407,-82.73050751,House, 
4607,ISLAND FORD RD,BREVARD,NC,28712,35.18409224,-82.72979832,House, 
4701,ISLAND FORD RD,BREVARD,NC,28712,35.18389269,-82.72810285,House, 
4703,ISLAND FORD RD,BREVARD,NC,28712,35.18391777,-82.72781824,House, 
4757,ISLAND FORD RD,BREVARD,NC,28712,35.18380842,-82.72716935,House, 
100,JOHNSON RD,BREVARD,NC,28712,35.19359308,-82.72066979,House, 
170,JOHNSON RD,BREVARD,NC,28712,35.19291351,-82.71694297,House, 
210,JOHNSON RD,BREVARD,NC,28712,35.19431057,-82.71847882,House, 
241,JOHNSON RD,BREVARD,NC,28712,35.19518291,-82.7188751,House, 
310,JOHNSON RD,BREVARD,NC,28712,35.19426237,-82.71767353,House, 
356,JOHNSON RD,BREVARD,NC,28712,35.19414474,-82.71724898,House, 
399,JOHNSON RD,BREVARD,NC,28712,35.19484622,-82.71676168,House, 
400,JOHNSON RD,BREVARD,NC,28712,35.19404212,-82.71677054,House, 
658,JOHNSON RD,BREVARD,NC,28712,35.19410686,-82.71456295,House, 
40,KAGLE MOUNTAIN VIEW DR,BREVARD,NC,28712,35.19877076,-82.76968096,House, 
50,KAGLE MOUNTAIN VIEW DR,BREVARD,NC,28712,35.19913802,-82.7690238,House, 
87,KAGLE MOUNTAIN VIEW DR,BREVARD,NC,28712,35.19966839,-82.76936106,House, 
88,KAGLE MOUNTAIN VIEW DR,BREVARD,NC,28712,35.19968561,-82.76904451,House, 
141,LAS PRADERAS CIR,BREVARD,NC,28712,35.18081655,-82.70575489,House, 
531,LAS PRADERAS CIR,BREVARD,NC,28712,35.18023001,-82.70288967,House, 
690,LAS PRADERAS CIR,BREVARD,NC,28712,35.18124534,-82.70477923,House, 
50,LAUREL CREEK DR,CEDAR MOUNTAIN,NC,28718,35.19157999,-82.64915177,House, 
91,LAUREL CREEK DR,CEDAR MOUNTAIN,NC,28718,35.19088855,-82.64962524,House, 
142,LAUREL CREEK DR,CEDAR MOUNTAIN,NC,28718,35.19154726,-82.6498884,House, 
144,LAUREL CREEK DR,CEDAR MOUNTAIN,NC,28718,35.19238152,-82.6497632,House, 
235,LAUREL CREEK DR,CEDAR MOUNTAIN,NC,28718,35.19071363,-82.65113752,House, 
280,LAUREL CREEK DR,CEDAR MOUNTAIN,NC,28718,35.19157104,-82.65182056,House, 
433,LAUREL CREEK DR,CEDAR MOUNTAIN,NC,28718,35.19301895,-82.65328477,House, 
601,LAUREL CREEK DR,CEDAR MOUNTAIN,NC,28718,35.1926488,-82.65522847,House, 
