Number,Street,City,State,PostalCode,Latitude,Longitude,Type,ApartmentNumber
63,CEDAR CREST DR,BREVARD,NC,28712,35.24115924,-82.7199389,House,
71,CEDAR CREST DR,BREVARD,NC,28712,35.24094125,-82.71985416,House,
82,CEDAR CREST DR,BREVARD,NC,28712,35.2407761,-82.72027116,House,
91,CEDAR CREST DR,BREVARD,NC,28712,35.24070193,-82.71972474,House,
100,CEDAR CREST DR,BREVARD,NC,28712,35.24052227,-82.72014139,House,
107,CEDAR CREST DR,BREVARD,NC,28712,35.24048193,-82.71960834,House,
108,CEDAR CREST DR,BREVARD,NC,28712,35.24026721,-82.72000079,House,
121,CEDAR CREST DR,BREVARD,NC,28712,35.24025135,-82.7194788,House,
128,CEDAR CREST DR,BREVARD,NC,28712,35.2399983,-82.7198713,House,
133,CEDAR CREST DR,BREVARD,NC,28712,35.23990176,-82.71932297,House,
53,CHERRY ST,BREVARD,NC,28712,35.25115529,-82.70654912,House,
65,CHERRY ST,BREVARD,NC,28712,35.25130444,-82.70683368,House,
87,CHERRY ST,BREVARD,NC,28712,35.25136154,-82.70716732,House,
104,CHERRY ST,BREVARD,NC,28712,35.25186434,-82.70722809,House,
111,CHERRY ST,BREVARD,NC,28712,35.25146835,-82.70750878,House,
121,CHERRY ST,BREVARD,NC,28712,35.25152139,-82.7077729,House,
140,CHERRY ST,BREVARD,NC,28712,35.25208258,-82.70789887,House,
147,CHERRY ST,BREVARD,NC,28712,35.25160682,-82.70811337,House,
159,CHERRY ST,BREVARD,NC,28712,35.25169272,-82.70844923,House,
166,CHERRY ST,BREVARD,NC,28712,35.25216264,-82.70840358,House,
175,CHERRY ST,BREVARD,NC,28712,35.25175948,-82.70875984,House,
205,CHERRY ST,BREVARD,NC,28712,35.25187249,-82.70906415,House,
232,CHERRY ST,BREVARD,NC,28712,35.25248067,-82.709562,House,
245,CHERRY ST,BREVARD,NC,28712,35.25199238,-82.70971702,House,
270,CHERRY ST,BREVARD,NC,28712,35.25286549,-82.71057603,House,
19,CHESTNUT ST,BREVARD,NC,28712,35.24749594,-82.72153584,Apartment,UNIT 2
19,CHESTNUT ST,BREVARD,NC,28712,35.24736661,-82.72141801,Apartment,UNIT 3
19,CHESTNUT ST,BREVARD,NC,28712,35.24732223,-82.72141984,Apartment,UNIT 4
19,CHESTNUT ST,BREVARD,NC,28712,35.24727153,-82.72142138,Apartment,UNIT 5
19,CHESTNUT ST,BREVARD,NC,28712,35.24722703,-82.72142707,Apartment,UNIT 6
19,CHESTNUT ST,BREVARD,NC,28712,35.24712903,-82.72142259,Apartment,UNIT 7
93,CHESTNUT ST,BREVARD,NC,28712,35.24647334,-82.72161074,House,
95,CHESTNUT ST,BREVARD,NC,28712,35.24649887,-82.72133959,House,
317,CHESTNUT ST,BREVARD,NC,28712,35.24450144,-82.72097665,House,
137,CHESTNUT ST,BREVARD,NC,28712,35.24621921,-82.72133001,House,
169,CHESTNUT ST,BREVARD,NC,28712,35.24584631,-82.72154187,House,
202,CHESTNUT ST,BREVARD,NC,28712,35.24554489,-82.72193726,House,
203,CHESTNUT ST,BREVARD,NC,28712,35.24566493,-82.72148874,House,
247,CHESTNUT ST,BREVARD,NC,28712,35.24519546,-82.72131019,House,
270,CHESTNUT ST,BREVARD,NC,28712,35.24497458,-82.72174533,House,
301,CHESTNUT ST,BREVARD,NC,28712,35.24476471,-82.72098745,House,
315,CHESTNUT ST,BREVARD,NC,28712,35.24455929,-82.72093181,House,
316,CHESTNUT ST,BREVARD,NC,28712,35.24424415,-82.72176218,Apartment,STE 1
316,CHESTNUT ST,BREVARD,NC,28712,35.2443264,-82.72161302,Apartment,STE 2
11,CHIPMUNK CT,BREVARD,NC,28712,35.25048021,-82.72640685,House,
12,CHIPMUNK CT,BREVARD,NC,28712,35.25071255,-82.7266754,House,
24,CHIPMUNK CT,BREVARD,NC,28712,35.25058073,-82.7268914,House,
25,CHIPMUNK CT,BREVARD,NC,28712,35.2503141,-82.72651089,House,
26,CHIPMUNK CT,BREVARD,NC,28712,35.25032904,-82.7268911,House,
9,CLOCK TOWER LN,BREVARD,NC,28712,35.25740506,-82.71902321,House,
17,CLOCK TOWER LN,BREVARD,NC,28712,35.25738263,-82.71918376,House,
33,CLOCK TOWER LN,BREVARD,NC,28712,35.25722249,-82.71941496,House,
41,CLOCK TOWER LN,BREVARD,NC,28712,35.25718609,-82.71956807,House,
55,COLLEGE LN,BREVARD,NC,28712,35.24043989,-82.7227108,Apartment,APT 77
55,COLLEGE LN,BREVARD,NC,28712,35.24043989,-82.7227108,Apartment,APT 97
55,COLLEGE LN,BREVARD,NC,28712,35.24043989,-82.7227108,Apartment,APT 57
55,COLLEGE LN,BREVARD,NC,28712,35.24043989,-82.7227108,Apartment,APT 59
55,COLLEGE LN,BREVARD,NC,28712,35.24043989,-82.7227108,Apartment,APT 61
55,COLLEGE LN,BREVARD,NC,28712,35.24043989,-82.7227108,Apartment,APT 62
55,COLLEGE LN,BREVARD,NC,28712,35.24043989,-82.7227108,Apartment,APT 63
55,COLLEGE LN,BREVARD,NC,28712,35.24043989,-82.7227108,Apartment,APT 64
55,COLLEGE LN,BREVARD,NC,28712,35.24043989,-82.7227108,Apartment,APT 65
55,COLLEGE LN,BREVARD,NC,28712,35.24043989,-82.7227108,Apartment,APT 66
55,COLLEGE LN,BREVARD,NC,28712,35.24043989,-82.7227108,Apartment,APT 67
55,COLLEGE LN,BREVARD,NC,28712,35.24043989,-82.7227108,Apartment,APT 68
55,COLLEGE LN,BREVARD,NC,28712,35.24043989,-82.7227108,Apartment,APT 69
55,COLLEGE LN,BREVARD,NC,28712,35.24043989,-82.7227108,Apartment,APT 70
55,COLLEGE LN,BREVARD,NC,28712,35.24043989,-82.7227108,Apartment,APT 71
55,COLLEGE LN,BREVARD,NC,28712,35.24043989,-82.7227108,Apartment,APT 72
55,COLLEGE LN,BREVARD,NC,28712,35.24043989,-82.7227108,Apartment,APT 73
55,COLLEGE LN,BREVARD,NC,28712,35.24043989,-82.7227108,Apartment,APT 74
55,COLLEGE LN,BREVARD,NC,28712,35.24043989,-82.7227108,Apartment,APT 75
55,COLLEGE LN,BREVARD,NC,28712,35.24043989,-82.7227108,Apartment,APT 79
55,COLLEGE LN,BREVARD,NC,28712,35.24043989,-82.7227108,Apartment,APT 81
55,COLLEGE LN,BREVARD,NC,28712,35.24043989,-82.7227108,Apartment,APT 83
55,COLLEGE LN,BREVARD,NC,28712,35.24043989,-82.7227108,Apartment,APT 84
55,COLLEGE LN,BREVARD,NC,28712,35.24043989,-82.7227108,Apartment,APT 85
55,COLLEGE LN,BREVARD,NC,28712,35.24043989,-82.7227108,Apartment,APT 86
55,COLLEGE LN,BREVARD,NC,28712,35.24043989,-82.7227108,Apartment,APT 87
55,COLLEGE LN,BREVARD,NC,28712,35.24043989,-82.7227108,Apartment,APT 88
55,COLLEGE LN,BREVARD,NC,28712,35.24043989,-82.7227108,Apartment,APT 89
55,COLLEGE LN,BREVARD,NC,28712,35.24043989,-82.7227108,Apartment,APT 90
55,COLLEGE LN,BREVARD,NC,28712,35.24043989,-82.7227108,Apartment,APT 91
55,COLLEGE LN,BREVARD,NC,28712,35.24043989,-82.7227108,Apartment,APT 92
55,COLLEGE LN,BREVARD,NC,28712,35.24043989,-82.7227108,Apartment,APT 93
55,COLLEGE LN,BREVARD,NC,28712,35.24043989,-82.7227108,Apartment,APT 94
55,COLLEGE LN,BREVARD,NC,28712,35.24043989,-82.7227108,Apartment,APT 95
55,COLLEGE LN,BREVARD,NC,28712,35.24043989,-82.7227108,Apartment,APT 96
55,COLLEGE LN,BREVARD,NC,28712,35.24043989,-82.7227108,Apartment,APT 99
8,COLLEGE VIEW CT,BREVARD,NC,28712,35.24089402,-82.72191908,House,
12,COLLEGE VIEW CT,BREVARD,NC,28712,35.2409847,-82.7219454,House,
18,COLLEGE VIEW CT,BREVARD,NC,28712,35.24108767,-82.72195174,House,
24,COLLEGE VIEW CT,BREVARD,NC,28712,35.24118039,-82.72197526,House,
48,COLLEGE VIEW CT,BREVARD,NC,28712,35.24141835,-82.72187579,House,
56,COLLEGE VIEW CT,BREVARD,NC,28712,35.24149721,-82.72184007,House,
60,COLLEGE VIEW CT,BREVARD,NC,28712,35.24160081,-82.72178639,House,
68,COLLEGE VIEW CT,BREVARD,NC,28712,35.24167748,-82.72174665,House,
140,COLLEGE VIEW TER,BREVARD,NC,28712,35.24053408,-82.72160001,House,
142,COLLEGE VIEW TER,BREVARD,NC,28712,35.24061085,-82.72155144,House,
170,COLLEGE VIEW TER,BREVARD,NC,28712,35.24093956,-82.72221356,House,
176,COLLEGE VIEW TER,BREVARD,NC,28712,35.24093841,-82.72233335,House,
180,COLLEGE VIEW TER,BREVARD,NC,28712,35.24094953,-82.72244855,House,
186,COLLEGE VIEW TER,BREVARD,NC,28712,35.24095165,-82.72255773,House,
200,COLLEGE VIEW TER,BREVARD,NC,28712,35.24096847,-82.72275974,House,
206,COLLEGE VIEW TER,BREVARD,NC,28712,35.24096964,-82.72289342,House,
282,COLLEGE VIEW TER,BREVARD,NC,28712,35.24070037,-82.72329537,House,
284,COLLEGE VIEW TER,BREVARD,NC,28712,35.24078506,-82.72329293,House,
20,DEER RUN ST,BREVARD,NC,28712,35.24944583,-82.72638238,House,
30,DEER RUN ST,BREVARD,NC,28712,35.24962142,-82.72625558,House,
46,DEER RUN ST,BREVARD,NC,28712,35.24983175,-82.72611055,House,
47,DEER RUN ST,BREVARD,NC,28712,35.25002452,-82.72660728,House,
58,DEER RUN ST,BREVARD,NC,28712,35.25002768,-82.72607114,House,
72,DEER RUN ST,BREVARD,NC,28712,35.25023241,-82.72592674,House,
94,DEER RUN ST,BREVARD,NC,28712,35.25059501,-82.72572741,House,
167,DEER RUN ST,BREVARD,NC,28712,35.25107321,-82.72670083,House,
175,DEER RUN ST,BREVARD,NC,28712,35.25117833,-82.72697894,House,
193,DEER RUN ST,BREVARD,NC,28712,35.25125718,-82.72731246,House,
194,DEER RUN ST,BREVARD,NC,28712,35.25159071,-82.72717466,House,
100,DEERLAKE RD,BREVARD,NC,28712,35.24848682,-82.723902,House,
114,DEERLAKE RD,BREVARD,NC,28712,35.24905464,-82.72433513,House,
160,DEERLAKE RD,BREVARD,NC,28712,35.24874719,-82.72473951,House,
216,DEERLAKE RD,BREVARD,NC,28712,35.24961963,-82.72499448,House,
218,DEERLAKE RD,BREVARD,NC,28712,35.25006359,-82.72536207,House,
71,DOCTORS LN,BREVARD,NC,28712,35.2553746,-82.7123207,House,
116,DOCTORS LN,BREVARD,NC,28712,35.25498324,-82.71196377,House,
12,E DANBURY LN,BREVARD,NC,28712,35.24850666,-82.71454952,House,
19,E DANBURY LN,BREVARD,NC,28712,35.24883756,-82.71476079,House,
20,E DANBURY LN,BREVARD,NC,28712,35.24857561,-82.71439993,House,
30,E DANBURY LN,BREVARD,NC,28712,35.2486847,-82.71423919,House,
40,E DANBURY LN,BREVARD,NC,28712,35.24884598,-82.71407207,House,
47,E DANBURY LN,BREVARD,NC,28712,35.24909657,-82.71455613,House,
55,E DANBURY LN,BREVARD,NC,28712,35.24926162,-82.71452968,House,
64,E DANBURY LN,BREVARD,NC,28712,35.24930706,-82.71404924,House,
69,E DANBURY LN,BREVARD,NC,28712,35.24941758,-82.71451043,House,
74,E DANBURY LN,BREVARD,NC,28712,35.2494406,-82.714038,House,
80,E DANBURY LN,BREVARD,NC,28712,35.24956064,-82.71403529,House,
83,E DANBURY LN,BREVARD,NC,28712,35.2495782,-82.71448697,House,
88,E DANBURY LN,BREVARD,NC,28712,35.24969879,-82.71404919,House,
91,E DANBURY LN,BREVARD,NC,28712,35.24974353,-82.71455528,House,
94,E DANBURY LN,BREVARD,NC,28712,35.24984409,-82.71403663,House,
243,E FRENCH BROAD ST,BREVARD,NC,28712,35.23476551,-82.7281352,House,
244,E FRENCH BROAD ST,BREVARD,NC,28712,35.23451112,-82.72843171,House,
256,E FRENCH BROAD ST,BREVARD,NC,28712,35.23441189,-82.72831212,House,
260,E FRENCH BROAD ST,BREVARD,NC,28712,35.23429874,-82.72810871,House,
269,E FRENCH BROAD ST,BREVARD,NC,28712,35.23460722,-82.72785336,House,
281,E FRENCH BROAD ST,BREVARD,NC,28712,35.23452346,-82.72769644,House,
299,E FRENCH BROAD ST,BREVARD,NC,28712,35.23438328,-82.72740041,House,
315,E FRENCH BROAD ST,BREVARD,NC,28712,35.23422714,-82.72712098,House,
316,E FRENCH BROAD ST,BREVARD,NC,28712,35.23390361,-82.72729528,House,
21,EAGLE RUN,BREVARD,NC,28712,35.2495033,-82.72684345,House,
22,EAGLE RUN,BREVARD,NC,28712,35.25000201,-82.72683328,House,
23,EAGLE RUN,BREVARD,NC,28712,35.24948066,-82.72690529,House,
25,EAGLE RUN,BREVARD,NC,28712,35.24946611,-82.72697365,House,
27,EAGLE RUN,BREVARD,NC,28712,35.24944984,-82.72703481,House,
38,EAGLE RUN,BREVARD,NC,28712,35.24989896,-82.72723236,House,
40,EAGLE RUN,BREVARD,NC,28712,35.24998943,-82.72731228,House,
10,ENCOMPASS PLZ W,BREVARD,NC,28712,35.24247017,-82.72471199,House,
11,ENCOMPASS PLZ W,BREVARD,NC,28712,35.24227648,-82.72456603,House,
25,FOREST RIDGE AVE,BREVARD,NC,28712,35.25201244,-82.71476028,House,
28,FOREST RIDGE AVE,BREVARD,NC,28712,35.25189651,-82.71420817,House,
42,FOREST RIDGE AVE,BREVARD,NC,28712,35.25229449,-82.71414306,House,
51,FOREST RIDGE AVE,BREVARD,NC,28712,35.2524676,-82.71464579,House,
88,FOREST RIDGE AVE,BREVARD,NC,28712,35.25254352,-82.71369929,House,
89,FOREST RIDGE AVE,BREVARD,NC,28712,35.25280759,-82.71426462,House,
110,FOREST RIDGE AVE,BREVARD,NC,28712,35.25308344,-82.71343223,House,
201,FORTUNE COVE LN,BREVARD,NC,28712,35.25474302,-82.72794356,House,
203,FORTUNE COVE LN,BREVARD,NC,28712,35.25567963,-82.72808244,House,
315,FORTUNE COVE LN,BREVARD,NC,28712,35.25670353,-82.72692203,House,
336,FORTUNE COVE LN,BREVARD,NC,28712,35.25663251,-82.72626929,House,
426,FORTUNE COVE LN,BREVARD,NC,28712,35.25743718,-82.72727117,House,
33,FOX CROSS DR,BREVARD,NC,28712,35.25087203,-82.72625793,House,
45,FOX CROSS DR,BREVARD,NC,28712,35.25107621,-82.72597143,House,
65,FOX CROSS DR,BREVARD,NC,28712,35.25127473,-82.72584279,House,
87,FOX CROSS DR,BREVARD,NC,28712,35.25155683,-82.72578814,House,
113,FOX CROSS DR,BREVARD,NC,28712,35.2517953,-82.72595889,House,
130,FOX CROSS DR,BREVARD,NC,28712,35.25201315,-82.72556542,House,
132,FOX CROSS DR,BREVARD,NC,28712,35.25226784,-82.72560936,House,
144,FOX CROSS DR,BREVARD,NC,28712,35.2524561,-82.72569943,House,
164,FOX CROSS DR,BREVARD,NC,28712,35.25273457,-82.72638163,House,
183,FOX CROSS DR,BREVARD,NC,28712,35.25238712,-82.72638737,House,
197,FOX CROSS DR,BREVARD,NC,28712,35.25238306,-82.72663497,House,
207,FOX CROSS DR,BREVARD,NC,28712,35.25233742,-82.72687195,House,
208,FOX CROSS DR,BREVARD,NC,28712,35.2528127,-82.7266513,House,
225,FOX CROSS DR,BREVARD,NC,28712,35.25224076,-82.72712042,House,
238,FOX CROSS DR,BREVARD,NC,28712,35.25230061,-82.72754924,House,
252,FOX CROSS DR,BREVARD,NC,28712,35.25213568,-82.7276869,House,
263,FOX CROSS DR,BREVARD,NC,28712,35.2517324,-82.72738762,House,
268,FOX CROSS DR,BREVARD,NC,28712,35.25193584,-82.72783216,House,
277,FOX CROSS DR,BREVARD,NC,28712,35.25160514,-82.72753044,House,
280,FOX CROSS DR,BREVARD,NC,28712,35.25186438,-82.72810955,House,
284,FOX CROSS DR,BREVARD,NC,28712,35.25174014,-82.72836406,House,
288,FOX CROSS DR,BREVARD,NC,28712,35.25153387,-82.72819717,House,
30,GREEN ACRES AVE,BREVARD,NC,28712,35.2428714,-82.72545057,House,
53,GREEN ACRES AVE,BREVARD,NC,28712,35.24317415,-82.72590567,House,
54,GREEN ACRES AVE,BREVARD,NC,28712,35.24315285,-82.72548053,House,
63,GREEN ACRES AVE,BREVARD,NC,28712,35.24341607,-82.72592387,House,
64,GREEN ACRES AVE,BREVARD,NC,28712,35.24336559,-82.7254992,House,
75,GREEN ACRES AVE,BREVARD,NC,28712,35.24362393,-82.72593589,House,
76,GREEN ACRES AVE,BREVARD,NC,28712,35.24358097,-82.72551654,House,
92,GREEN ACRES AVE,BREVARD,NC,28712,35.24376601,-82.72553854,House,
99,GREEN ACRES AVE,BREVARD,NC,28712,35.24380818,-82.72596407,House,
106,GREEN ACRES AVE,BREVARD,NC,28712,35.24395266,-82.72545089,House,
109,GREEN ACRES AVE,BREVARD,NC,28712,35.24404069,-82.72599099,House,
114,GREEN ACRES AVE,BREVARD,NC,28712,35.24422967,-82.72549099,House,
115,GREEN ACRES AVE,BREVARD,NC,28712,35.24425498,-82.72581006,House,
16,HARVARD LN,BREVARD,NC,28712,35.23920689,-82.72133342,House,
26,HARVARD LN,BREVARD,NC,28712,35.23925636,-82.72117535,House,
36,HARVARD LN,BREVARD,NC,28712,35.23931093,-82.72104264,House,
20,HAWTHORNE DR,BREVARD,NC,28712,35.25192977,-82.72006893,House,
35,HAWTHORNE DR,BREVARD,NC,28712,35.25201432,-82.72053395,House,
47,HAWTHORNE DR,BREVARD,NC,28712,35.25234117,-82.72037626,House,
66,HAWTHORNE DR,BREVARD,NC,28712,35.25239821,-82.71976201,House,
75,HAWTHORNE DR,BREVARD,NC,28712,35.25267389,-82.72018287,House,
91,HAWTHORNE DR,BREVARD,NC,28712,35.25287228,-82.72000477,House,
96,HAWTHORNE DR,BREVARD,NC,28712,35.25257515,-82.71958876,House,
98,HAWTHORNE DR,BREVARD,NC,28712,35.25287719,-82.71930101,House,
103,HAWTHORNE DR,BREVARD,NC,28712,35.25311469,-82.71978366,House,
130,HAWTHORNE DR,BREVARD,NC,28712,35.25306592,-82.71914577,House,
138,HAWTHORNE DR,BREVARD,NC,28712,35.25332033,-82.71888789,House,
139,HAWTHORNE DR,BREVARD,NC,28712,35.25354301,-82.71937032,House,
157,HAWTHORNE DR,BREVARD,NC,28712,35.25376808,-82.71916215,House,
158,HAWTHORNE DR,BREVARD,NC,28712,35.25349403,-82.71871401,House,
178,HAWTHORNE DR,BREVARD,NC,28712,35.25375146,-82.71853159,House,
189,HAWTHORNE DR,BREVARD,NC,28712,35.25398411,-82.71896308,House,
195,HAWTHORNE DR,BREVARD,NC,28712,35.25418815,-82.7187448,House,
210,HAWTHORNE DR,BREVARD,NC,28712,35.25395107,-82.71830168,House,
215,HAWTHORNE DR,BREVARD,NC,28712,35.25439302,-82.71850328,House,
226,HAWTHORNE DR,BREVARD,NC,28712,35.25405088,-82.71799952,House,
250,HAWTHORNE DR,BREVARD,NC,28712,35.25423061,-82.7177954,House,
267,HAWTHORNE DR,BREVARD,NC,28712,35.25476578,-82.71762581,House,
268,HAWTHORNE DR,BREVARD,NC,28712,35.25438274,-82.7174164,House,
282,HAWTHORNE DR,BREVARD,NC,28712,35.25449881,-82.71707146,House,
302,HAWTHORNE DR,BREVARD,NC,28712,35.25457112,-82.71684306,House,
309,HAWTHORNE DR,BREVARD,NC,28712,35.25500008,-82.71695335,House,
330,HAWTHORNE DR,BREVARD,NC,28712,35.25463228,-82.71648519,House,
331,HAWTHORNE DR,BREVARD,NC,28712,35.25509093,-82.71663777,House,
338,HAWTHORNE DR,BREVARD,NC,28712,35.25472274,-82.71617997,House,
351,HAWTHORNE DR,BREVARD,NC,28712,35.25514553,-82.71633844,House,
353,HAWTHORNE DR,BREVARD,NC,28712,35.25522759,-82.71598395,House,
366,HAWTHORNE DR,BREVARD,NC,28712,35.25481783,-82.71584503,House,
371,HAWTHORNE DR,BREVARD,NC,28712,35.25532226,-82.71571071,House,
391,HAWTHORNE DR,BREVARD,NC,28712,35.25539981,-82.71536423,House,
426,HAWTHORNE DR,BREVARD,NC,28712,35.25490316,-82.71534187,House,
84,HELEN LN,BREVARD,NC,28712,35.25375633,-82.70270993,House,
100,HELEN LN,BREVARD,NC,28712,35.25409865,-82.70276901,House,
132,HELEN LN,BREVARD,NC,28712,35.2544392,-82.70310348,House,
29,HIGHLAND RD,BREVARD,NC,28712,35.24535249,-82.71912702,House,
30,HIGHLAND RD,BREVARD,NC,28712,35.24548199,-82.71897207,House,
39,HIGHLAND RD,BREVARD,NC,28712,35.24549024,-82.71929321,House,
58,HIGHLAND RD,BREVARD,NC,28712,35.24570602,-82.71885889,House,
70,HIGHLAND RD,BREVARD,NC,28712,35.24596982,-82.7189888,House,
80,HIGHLAND RD,BREVARD,NC,28712,35.2462255,-82.71913703,House,
103,HIGHLAND RD,BREVARD,NC,28712,35.24626328,-82.71962853,House,
120,HIGHLAND RD,BREVARD,NC,28712,35.24656949,-82.71916277,House,
123,HIGHLAND RD,BREVARD,NC,28712,35.2465298,-82.71970077,House,
132,HIGHLAND RD,BREVARD,NC,28712,35.24683798,-82.71894057,House,
139,HIGHLAND RD,BREVARD,NC,28712,35.24692979,-82.7197778,House,
142,HIGHLAND RD,BREVARD,NC,28712,35.24700426,-82.71906138,House,
150,HIGHLAND RD,BREVARD,NC,28712,35.24716946,-82.71930406,House,
164,HIGHLAND RD,BREVARD,NC,28712,35.24733549,-82.71952012,House,
21,HILLCREST AVE,BREVARD,NC,28712,35.24296063,-82.72298889,House,
24,HILLCREST AVE,BREVARD,NC,28712,35.24278489,-82.72342334,House,
33,HILLCREST AVE,BREVARD,NC,28712,35.24270604,-82.72295789,House,
36,HILLCREST AVE,BREVARD,NC,28712,35.24259341,-82.72337823,House,
49,HILLCREST AVE,BREVARD,NC,28712,35.2424112,-82.72292159,House,
54,HILLCREST AVE,BREVARD,NC,28712,35.24224818,-82.72334407,House,
67,HILLCREST AVE,BREVARD,NC,28712,35.2421261,-82.7228037,House,
77,HILLCREST AVE,BREVARD,NC,28712,35.24185349,-82.72279127,House,
82,HILLCREST AVE,BREVARD,NC,28712,35.24174518,-82.72330821,House,
95,HILLCREST AVE,BREVARD,NC,28712,35.24144409,-82.72229912,House,
96,HILLCREST AVE,BREVARD,NC,28712,35.2414792,-82.72326985,House,
106,HILLCREST AVE,BREVARD,NC,28712,35.24128677,-82.72323477,House,
116,HILLCREST AVE,BREVARD,NC,28712,35.24105261,-82.723236,House,
12,HILT ST EXT,BREVARD,NC,28712,35.23436315,-82.72426799,House,
26,HILT ST EXT,BREVARD,NC,28712,35.23443636,-82.72404795,House,
36,HILT ST EXT,BREVARD,NC,28712,35.23451006,-82.72387767,House,
39,HILT ST EXT,BREVARD,NC,28712,35.23490473,-82.72407874,House,
45,HILT ST EXT,BREVARD,NC,28712,35.23491781,-82.7237605,House,
46,HILT ST EXT,BREVARD,NC,28712,35.23471936,-82.72364328,House,
10,HOLLYBERRY LN,BREVARD,NC,28712,35.25850045,-82.72160608,House,
16,HOLLYBERRY LN,BREVARD,NC,28712,35.2583653,-82.7215602,House,
22,HOLLYBERRY LN,BREVARD,NC,28712,35.25820916,-82.72151009,House,
34,HOLLYBERRY LN,BREVARD,NC,28712,35.25805016,-82.72143489,House,
40,HOLLYBERRY LN,BREVARD,NC,28712,35.25792294,-82.7213771,House,
50,HOLLYBERRY LN,BREVARD,NC,28712,35.25779404,-82.72124156,House,
89,HOSPITAL DR,BREVARD,NC,28712,35.25674763,-82.71565814,Apartment,STE A
89,HOSPITAL DR,BREVARD,NC,28712,35.25669354,-82.71528726,Apartment,STE B
89,HOSPITAL DR,BREVARD,NC,28712,35.25671342,-82.71546009,Apartment,STE C
260,HOSPITAL DR,BREVARD,NC,28712,35.25621012,-82.71244546,House,
301,HOSPITAL DR,BREVARD,NC,28712,35.25661327,-82.7116858,House,
120,HOSPITAL DR,BREVARD,NC,28712,35.25572893,-82.71398727,Apartment,APT 101
120,HOSPITAL DR,BREVARD,NC,28712,35.25557385,-82.71395506,Apartment,APT 102
120,HOSPITAL DR,BREVARD,NC,28712,35.25573022,-82.71404118,Apartment,APT 103
120,HOSPITAL DR,BREVARD,NC,28712,35.25557187,-82.71401959,Apartment,APT 104
120,HOSPITAL DR,BREVARD,NC,28712,35.25572442,-82.71413426,Apartment,APT 105
120,HOSPITAL DR,BREVARD,NC,28712,35.25556573,-82.71412342,Apartment,APT 106
120,HOSPITAL DR,BREVARD,NC,28712,35.25572233,-82.71420237,Apartment,APT 107
120,HOSPITAL DR,BREVARD,NC,28712,35.25556353,-82.71419513,Apartment,APT 108
120,HOSPITAL DR,BREVARD,NC,28712,35.25570907,-82.7144423,Apartment,APT 109
120,HOSPITAL DR,BREVARD,NC,28712,35.25554461,-82.71442762,Apartment,APT 110
