Number,Street,City,State,PostalCode,Latitude,Longitude,Type,ApartmentNumber
1266,ASHEVILLE HWY,BREVARD,NC,28712,35.26002376,-82.71528267,Apartment,STE 1
1266,ASHEVILLE HWY,BREVARD,NC,28712,35.25987917,-82.71462684,Apartment,STE 2
1266,ASHEVILLE HWY,BREVARD,NC,28712,35.25991935,-82.71487312,Apartment,STE 3
1301,ASHEVILLE HWY,BREVARD,NC,28712,35.25993075,-82.71644284,Apartment,STE A
1301,ASHEVILLE HWY,BREVARD,NC,28712,35.25999654,-82.71647669,Apartment,STE B
1370,ASHEVILLE HWY,BREVARD,NC,28712,35.26060427,-82.71535877,House,
1371,ASHEVILLE HWY,BREVARD,NC,28712,35.2607109,-82.71619262,House,
1386,ASHEVILLE HWY,BREVARD,NC,28712,35.26104828,-82.71535272,House,
1420,ASHEVILLE HWY,BREVARD,NC,28712,35.26147505,-82.71535904,House,
1460,ASHEVILLE HWY,BREVARD,NC,28712,35.26214633,-82.71523458,House,
1474,ASHEVILLE HWY,BREVARD,NC,28712,35.26255454,-82.71509787,House,
1479,ASHEVILLE HWY,BREVARD,NC,28712,35.26218897,-82.71617406,House,
1486,ASHEVILLE HWY,BREVARD,NC,28712,35.26268647,-82.71507467,Apartment,STE A
1486,ASHEVILLE HWY,BREVARD,NC,28712,35.2627573,-82.7150686,Apartment,STE B
1486,ASHEVILLE HWY,BREVARD,NC,28712,35.262834,-82.71505813,House,
1520,ASHEVILLE HWY,BREVARD,NC,28712,35.26301691,-82.71501808,House,
1778,ASHEVILLE HWY,BREVARD,NC,28712,35.26609816,-82.71320904,House,
1856,ASHEVILLE HWY,BREVARD,NC,28712,35.26732087,-82.71211629,House,
1901,ASHEVILLE HWY,BREVARD,NC,28712,35.26812981,-82.71257185,House,
1910,ASHEVILLE HWY,BREVARD,NC,28712,35.26760492,-82.71170983,House,
1951,ASHEVILLE HWY,BREVARD,NC,28712,35.26869183,-82.7118291,House,
1980,ASHEVILLE HWY,BREVARD,NC,28712,35.26823946,-82.71074523,House,
1985,ASHEVILLE HWY,BREVARD,NC,28712,35.26906588,-82.71141364,House,
2054,ASHEVILLE HWY,BREVARD,NC,28712,35.26890043,-82.70968011,House,
2060,ASHEVILLE HWY,BREVARD,NC,28712,35.26904059,-82.70942841,House,
2074,ASHEVILLE HWY,BREVARD,NC,28712,35.26922821,-82.70891872,House,
2196,ASHEVILLE HWY,BREVARD,NC,28712,35.2696265,-82.70775423,House,
2211,ASHEVILLE HWY,BREVARD,NC,28712,35.27105101,-82.70818853,House,
2228,ASHEVILLE HWY,BREVARD,NC,28712,35.27014175,-82.70715157,House,
2235,ASHEVILLE HWY,BREVARD,NC,28712,35.27200202,-82.70773661,House,
2260,ASHEVILLE HWY,BREVARD,NC,28712,35.27090675,-82.7064976,House,
2290,ASHEVILLE HWY,BREVARD,NC,28712,35.27137006,-82.70620322,House,
34,BIG BEND RD,BREVARD,NC,28712,35.26686925,-82.71209403,House,
137,BIG BEND RD,BREVARD,NC,28712,35.26647798,-82.71062965,House,
186,BIG BEND RD,BREVARD,NC,28712,35.26551277,-82.71090909,House,
196,BIG BEND RD,BREVARD,NC,28712,35.26517133,-82.71093922,House,
230,BIG BEND RD,BREVARD,NC,28712,35.26466244,-82.7110044,House,
234,BIG BEND RD,BREVARD,NC,28712,35.26452612,-82.7106776,House,
247,BIG BEND RD,BREVARD,NC,28712,35.26496911,-82.7105736,House,
257,BIG BEND RD,BREVARD,NC,28712,35.26494394,-82.71021757,House,
268,BIG BEND RD,BREVARD,NC,28712,35.26458831,-82.71010553,House,
314,BIG BEND RD,BREVARD,NC,28712,35.26499709,-82.70971487,House,
315,BIG BEND RD,BREVARD,NC,28712,35.26555125,-82.70976193,House,
351,BIG BEND RD,BREVARD,NC,28712,35.26528025,-82.70900944,House,
364,BIG BEND RD,BREVARD,NC,28712,35.26489256,-82.70883319,House,
379,BIG BEND RD,BREVARD,NC,28712,35.2652047,-82.70851147,House,
382,BIG BEND RD,BREVARD,NC,28712,35.26484906,-82.70851709,House,
400,BIG BEND RD,BREVARD,NC,28712,35.26478889,-82.70817167,House,
419,BIG BEND RD,BREVARD,NC,28712,35.26507777,-82.70773171,House,
439,BIG BEND RD,BREVARD,NC,28712,35.2650472,-82.70746378,House,
455,BIG BEND RD,BREVARD,NC,28712,35.26520709,-82.70705271,House,
457,BIG BEND RD,BREVARD,NC,28712,35.26497581,-82.70716302,House,
469,BIG BEND RD,BREVARD,NC,28712,35.26495122,-82.7069124,House,
483,BIG BEND RD,BREVARD,NC,28712,35.26491672,-82.70671435,House,
38,BRANCH LN,BREVARD,NC,28712,35.26555595,-82.70793494,House,
55,BRANCH LN,BREVARD,NC,28712,35.26573302,-82.70862428,House,
58,BRANCH LN,BREVARD,NC,28712,35.26582956,-82.70789627,House,
68,BRANCH LN,BREVARD,NC,28712,35.26593281,-82.70786235,House,
75,BRANCH LN,BREVARD,NC,28712,35.2660934,-82.70823819,House,
78,BRANCH LN,BREVARD,NC,28712,35.26610454,-82.70781069,House,
207,CAMPTOWN RD,BREVARD,NC,28712,35.25995822,-82.71919412,House,
219,CAMPTOWN RD,BREVARD,NC,28712,35.26015516,-82.71894512,House,
235,CAMPTOWN RD,BREVARD,NC,28712,35.26021572,-82.71863754,House,
379,CAMPTOWN RD,BREVARD,NC,28712,35.26127611,-82.71771802,House,
534,CAMPTOWN RD,BREVARD,NC,28712,35.26196733,-82.71994461,House,
735,CAMPTOWN RD,BREVARD,NC,28712,35.25995283,-82.72177735,House,
76,FROG HOLLAR LN,BREVARD,NC,28712,35.26676938,-82.71093896,House,
37,ECUSTA VW,BREVARD,NC,28712,35.26573558,-82.71116679,House,
59,ECUSTA VW,BREVARD,NC,28712,35.26603772,-82.71173352,House,
76,ECUSTA VW,BREVARD,NC,28712,35.26616435,-82.71117424,House,
139,ECUSTA VW,BREVARD,NC,28712,35.26579439,-82.71257049,House,
210,ECUSTA VW,BREVARD,NC,28712,35.26536762,-82.71313203,House,
175,ELK MOUNTAIN TRL,BREVARD,NC,28712,35.26258537,-82.72727018,House,
241,ELK MOUNTAIN TRL,BREVARD,NC,28712,35.26308767,-82.72754997,House,
247,ELK MOUNTAIN TRL,BREVARD,NC,28712,35.26357409,-82.72770341,House,
334,ELK MOUNTAIN TRL,BREVARD,NC,28712,35.26415496,-82.72688454,House,
409,ELK MOUNTAIN TRL,BREVARD,NC,28712,35.2649803,-82.72508878,House,
13,EXCELSIOR DR,BREVARD,NC,28712,35.26410642,-82.70631319,House,
19,EXCELSIOR DR,BREVARD,NC,28712,35.26411443,-82.70644134,House,
20,EXCELSIOR DR,BREVARD,NC,28712,35.26451467,-82.70636944,House,
26,EXCELSIOR DR,BREVARD,NC,28712,35.26451796,-82.70650467,House,
33,EXCELSIOR DR,BREVARD,NC,28712,35.26413107,-82.70665365,House,
39,EXCELSIOR DR,BREVARD,NC,28712,35.26414392,-82.70677631,House,
40,EXCELSIOR DR,BREVARD,NC,28712,35.26454055,-82.70676661,House,
46,EXCELSIOR DR,BREVARD,NC,28712,35.26455354,-82.70689086,House,
49,EXCELSIOR DR,BREVARD,NC,28712,35.26417793,-82.70700322,House,
57,EXCELSIOR DR,BREVARD,NC,28712,35.2641805,-82.70713279,House,
58,EXCELSIOR DR,BREVARD,NC,28712,35.26459149,-82.70713133,House,
64,EXCELSIOR DR,BREVARD,NC,28712,35.26459288,-82.70725219,House,
69,EXCELSIOR DR,BREVARD,NC,28712,35.26419971,-82.70736068,House,
74,EXCELSIOR DR,BREVARD,NC,28712,35.26420793,-82.70747835,House,
87,EXCELSIOR DR,BREVARD,NC,28712,35.26421815,-82.70771633,House,
93,EXCELSIOR DR,BREVARD,NC,28712,35.26422321,-82.70784507,House,
107,EXCELSIOR DR,BREVARD,NC,28712,35.26426551,-82.70806068,House,
113,EXCELSIOR DR,BREVARD,NC,28712,35.26425731,-82.70818239,House,
119,EXCELSIOR DR,BREVARD,NC,28712,35.264392,-82.70853337,House,
125,EXCELSIOR DR,BREVARD,NC,28712,35.26449005,-82.70855139,House,
16,FERN DR,BREVARD,NC,28712,35.26701317,-82.71240934,House,
26,FERN DR,BREVARD,NC,28712,35.26691573,-82.71252277,House,
120,FRANKNOR RDG,BREVARD,NC,28712,35.26741279,-82.71330059,House,
125,FRANKNOR RDG,BREVARD,NC,28712,35.26709916,-82.71381497,House,
170,FRANKNOR RDG,BREVARD,NC,28712,35.26759576,-82.71466185,House,
39,GOODSON LN,BREVARD,NC,28712,35.26393805,-82.7106569,House,
85,GOODSON LN,BREVARD,NC,28712,35.26405199,-82.71141787,House,
24,HILLSIDE HTS,BREVARD,NC,28712,35.26784882,-82.71135618,House,
26,HILLSIDE HTS,BREVARD,NC,28712,35.2677849,-82.71129754,House,
40,HILLSIDE HTS,BREVARD,NC,28712,35.26771605,-82.71124309,House,
49,HILLSIDE HTS,BREVARD,NC,28712,35.26771907,-82.71067015,House,
54,HILLSIDE HTS,BREVARD,NC,28712,35.26751437,-82.71106862,House,
68,HILLSIDE HTS,BREVARD,NC,28712,35.2673445,-82.71087537,House,
80,HILLSIDE HTS,BREVARD,NC,28712,35.26705351,-82.71066068,House,
89,HILLSIDE HTS,BREVARD,NC,28712,35.26745401,-82.71042508,House,
100,HILLSIDE HTS,BREVARD,NC,28712,35.2671281,-82.7102993,House,
117,HILLSIDE HTS,BREVARD,NC,28712,35.26735244,-82.70984701,House,
118,HILLSIDE HTS,BREVARD,NC,28712,35.26706217,-82.70994179,House,
129,HILLSIDE HTS,BREVARD,NC,28712,35.26730884,-82.70956289,House,
138,HILLSIDE HTS,BREVARD,NC,28712,35.26698748,-82.70959249,House,
152,HILLSIDE HTS,BREVARD,NC,28712,35.26691562,-82.70929188,House,
153,HILLSIDE HTS,BREVARD,NC,28712,35.26723303,-82.70924171,House,
172,HILLSIDE HTS,BREVARD,NC,28712,35.26687205,-82.70896342,House,
173,HILLSIDE HTS,BREVARD,NC,28712,35.26718261,-82.70893344,House,
192,HILLSIDE HTS,BREVARD,NC,28712,35.26679645,-82.70860557,House,
193,HILLSIDE HTS,BREVARD,NC,28712,35.26711859,-82.70853164,House,
208,HILLSIDE HTS,BREVARD,NC,28712,35.26672916,-82.70829837,House,
209,HILLSIDE HTS,BREVARD,NC,28712,35.26703265,-82.70818417,House,
227,HILLSIDE HTS,BREVARD,NC,28712,35.26698043,-82.70789658,House,
243,HILLSIDE HTS,BREVARD,NC,28712,35.26691513,-82.70756179,House,
244,HILLSIDE HTS,BREVARD,NC,28712,35.26666297,-82.70793718,House,
248,HILLSIDE HTS,BREVARD,NC,28712,35.26660291,-82.70764337,House,
40,HOMESTEAD TRCE,BREVARD,NC,28712,35.2618623,-82.72186203,House,
126,HOMESTEAD TRCE,BREVARD,NC,28712,35.26268225,-82.72112187,House,
51,LAMBS CREEK RD,BREVARD,NC,28712,35.26412883,-82.71612746,House,
120,LAMBS CREEK RD,BREVARD,NC,28712,35.26504541,-82.71661699,House,
184,LAMBS CREEK RD,BREVARD,NC,28712,35.2667207,-82.71781339,House,
460,LAMBS CREEK RD,BREVARD,NC,28712,35.26839637,-82.7208294,House,
463,LAMBS CREEK RD,BREVARD,NC,28712,35.26700463,-82.72287534,House,
630,LAMBS CREEK RD,BREVARD,NC,28712,35.26936509,-82.72607934,House,
71,LAUREL MOUNTAIN RD,BREVARD,NC,28712,35.26987379,-82.71095894,House,
126,LAUREL MOUNTAIN RD,BREVARD,NC,28712,35.27047312,-82.7113492,House,
150,LAUREL MOUNTAIN RD,BREVARD,NC,28712,35.27108901,-82.71177534,House,
175,LAUREL MOUNTAIN RD,BREVARD,NC,28712,35.27108432,-82.7125403,House,
225,LAUREL MOUNTAIN RD,BREVARD,NC,28712,35.27149427,-82.71356653,House,
227,LAUREL MOUNTAIN RD,BREVARD,NC,28712,35.27172834,-82.71509629,House,
430,LAUREL MOUNTAIN RD,BREVARD,NC,28712,35.27246417,-82.71587602,House,
11,LITTLE BEND LN,BREVARD,NC,28712,35.26543783,-82.7101806,House,
51,LITTLE BEND LN,BREVARD,NC,28712,35.26592802,-82.7100847,Apartment,STE A
67,LITTLE BEND LN,BREVARD,NC,28712,35.266253,-82.7097615,House,
74,LITTLE BEND LN,BREVARD,NC,28712,35.26590143,-82.70964907,House,
98,LITTLE BEND LN,BREVARD,NC,28712,35.2658831,-82.70923383,House,
36,MORRIS RD,BREVARD,NC,28712,35.26408942,-82.71478208,House,
56,MORRIS RD,BREVARD,NC,28712,35.26369489,-82.71467525,House,
76,MORRIS RD,BREVARD,NC,28712,35.26344246,-82.71452578,House,
96,MORRIS RD,BREVARD,NC,28712,35.26320476,-82.71431965,House,
114,MORRIS RD,BREVARD,NC,28712,35.26281677,-82.71443253,House,
124,MORRIS RD,BREVARD,NC,28712,35.26273581,-82.71408066,House,
140,MORRIS RD,BREVARD,NC,28712,35.26249788,-82.71393752,House,
178,MORRIS RD,BREVARD,NC,28712,35.26216,-82.71329288,House,
180,MORRIS RD,BREVARD,NC,28712,35.26198116,-82.71303259,House,
216,MORRIS RD,BREVARD,NC,28712,35.26175915,-82.71283061,House,
358,MORRIS RD,BREVARD,NC,28712,35.26142066,-82.71024607,House,
371,MORRIS RD,BREVARD,NC,28712,35.26219942,-82.70988238,House,
373,MORRIS RD,BREVARD,NC,28712,35.26269796,-82.70960508,House,
386,MORRIS RD,BREVARD,NC,28712,35.26131097,-82.70926142,House,
417,MORRIS RD,BREVARD,NC,28712,35.26208879,-82.70935328,House,
290,PINE MOUNTAIN TRL,BREVARD,NC,28712,35.26018386,-82.72408079,House,
469,PINE MOUNTAIN TRL,BREVARD,NC,28712,35.26000552,-82.72577399,House,
37,PISGAH DR,BREVARD,NC,28712,35.26093533,-82.70977827,House,
48,PISGAH DR,BREVARD,NC,28712,35.26086477,-82.71034779,House,
59,PISGAH DR,BREVARD,NC,28712,35.26066016,-82.70983187,House,
70,PISGAH DR,BREVARD,NC,28712,35.26044541,-82.71040857,House,
85,PISGAH DR,BREVARD,NC,28712,35.26031313,-82.70990818,House,
100,PISGAH DR,BREVARD,NC,28712,35.26003837,-82.71066168,House,
109,PISGAH DR,BREVARD,NC,28712,35.25997503,-82.70999455,House,
476,PISGAH DR,BREVARD,NC,28712,35.26000336,-82.70770641,House,
494,PISGAH DR,BREVARD,NC,28712,35.26028855,-82.70768432,House,
520,PISGAH DR,BREVARD,NC,28712,35.26055334,-82.70761026,House,
534,PISGAH DR,BREVARD,NC,28712,35.26084078,-82.70755308,House,
550,PISGAH DR,BREVARD,NC,28712,35.26110751,-82.70749662,House,
135,PUBLIC SAFETY WAY,BREVARD,NC,28712,35.26250356,-82.7130917,House,
320,PUBLIC SAFETY WAY,BREVARD,NC,28712,35.26523789,-82.71189878,House,
16,RUSTLING WOODS DR,BREVARD,NC,28712,35.2705075,-82.70897768,House,
79,RUSTLING WOODS DR,BREVARD,NC,28712,35.27108141,-82.71000187,House,
235,RUSTLING WOODS DR,BREVARD,NC,28712,35.27225013,-82.71091398,House,
21,SPRINGHOUSE TRL,BREVARD,NC,28712,35.26201473,-82.71803897,House,
30,SPRINGHOUSE TRL,BREVARD,NC,28712,35.26198954,-82.71749563,House,
134,SPRINGHOUSE TRL,BREVARD,NC,28712,35.26341023,-82.7178805,House,
135,SPRINGHOUSE TRL,BREVARD,NC,28712,35.26348152,-82.71850505,House,
158,SPRINGHOUSE TRL,BREVARD,NC,28712,35.26378012,-82.71801549,House,
197,SPRINGHOUSE TRL,BREVARD,NC,28712,35.2646539,-82.72062541,House,
209,SPRINGHOUSE TRL,BREVARD,NC,28712,35.26527528,-82.72103308,House,
11,STONE CREEK TRL,BREVARD,NC,28712,35.25997395,-82.72333765,House,
68,STONE CREEK TRL,BREVARD,NC,28712,35.26038895,-82.72234703,House,
80,STONE CREEK TRL,BREVARD,NC,28712,35.26076311,-82.72213871,House,
83,STONE CREEK TRL,BREVARD,NC,28712,35.26053246,-82.72307111,House,
153,STONE CREEK TRL,BREVARD,NC,28712,35.26168024,-82.72311226,House,
198,STONE CREEK TRL,BREVARD,NC,28712,35.26234991,-82.7224793,House,
250,STONE CREEK TRL,BREVARD,NC,28712,35.26296356,-82.72252023,House,
287,STONE CREEK TRL,BREVARD,NC,28712,35.26275539,-82.72319874,House,
303,STONE CREEK TRL,BREVARD,NC,28712,35.26262066,-82.72426867,House,
414,STONE CREEK TRL,BREVARD,NC,28712,35.26364701,-82.72452155,House,
12,TANGLEWOOD HTS,BREVARD,NC,28712,35.26528714,-82.71529788,House,
82,TANGLEWOOD HTS,BREVARD,NC,28712,35.26582052,-82.71517084,House,
100,TANGLEWOOD HTS,BREVARD,NC,28712,35.26620819,-82.71503111,House,
128,TANGLEWOOD HTS,BREVARD,NC,28712,35.26652372,-82.7150547,House,
160,TANGLEWOOD HTS,BREVARD,NC,28712,35.26682986,-82.71581643,House,
167,TANGLEWOOD HTS,BREVARD,NC,28712,35.26636241,-82.71634439,House,
182,TANGLEWOOD HTS,BREVARD,NC,28712,35.26678258,-82.71630848,House,
189,TANGLEWOOD HTS,BREVARD,NC,28712,35.26701629,-82.71711646,House,
196,TANGLEWOOD HTS,BREVARD,NC,28712,35.26742555,-82.71601354,House,
226,TANGLEWOOD HTS,BREVARD,NC,28712,35.26774844,-82.71642278,House,
227,TANGLEWOOD HTS,BREVARD,NC,28712,35.26771248,-82.71708313,House,
230,TANGLEWOOD HTS,BREVARD,NC,28712,35.26846354,-82.71703082,House,
32,TEMPLE CHURCH RD,BREVARD,NC,28712,35.26096885,-82.70911994,House,
45,TEMPLE CHURCH RD,BREVARD,NC,28712,35.26073877,-82.70840909,House,
50,TEMPLE CHURCH RD,BREVARD,NC,28712,35.26075109,-82.70917744,House,
70,TEMPLE CHURCH RD,BREVARD,NC,28712,35.26045915,-82.70923815,House,
90,TEMPLE CHURCH RD,BREVARD,NC,28712,35.26019528,-82.70927565,House,
106,TEMPLE CHURCH RD,BREVARD,NC,28712,35.25991082,-82.70932488,House,
24,TIMBER TRCE,BREVARD,NC,28712,35.26317032,-82.71849068,House,
34,TIMBER TRCE,BREVARD,NC,28712,35.26282957,-82.71865506,House,
42,TIMBER TRCE,BREVARD,NC,28712,35.26250212,-82.71866992,House,
64,TIMBER TRCE,BREVARD,NC,28712,35.26284585,-82.71804551,House,
56,TOP HAT LN,BREVARD,NC,28712,35.26057163,-82.72075037,House,
72,TOP HAT LN,BREVARD,NC,28712,35.26075103,-82.72042626,House,
80,TOP HAT LN,BREVARD,NC,28712,35.2608888,-82.7201295,House,
106,TOP HAT LN,BREVARD,NC,28712,35.26098756,-82.71962915,House,
136,TOP HAT LN,BREVARD,NC,28712,35.26107368,-82.71924315,House,
16,TUCKAWAY LN,BREVARD,NC,28712,35.26168018,-82.71529238,House,
20,TUCKAWAY LN,BREVARD,NC,28712,35.26191638,-82.71525121,House,
26,TUCKAWAY LN,BREVARD,NC,28712,35.26186205,-82.71519104,House,
28,TUCKAWAY LN,BREVARD,NC,28712,35.26159382,-82.71498553,House,
32,TUCKAWAY LN,BREVARD,NC,28712,35.26182231,-82.71499917,House,
44,TUCKAWAY LN,BREVARD,NC,28712,35.26167007,-82.71481259,House,
49,TUCKAWAY LN,BREVARD,NC,28712,35.2623138,-82.71471518,House,
53,TUCKAWAY LN,BREVARD,NC,28712,35.26234643,-82.71459639,House,
55,TUCKAWAY LN,BREVARD,NC,28712,35.26236774,-82.71444806,House,
57,TUCKAWAY LN,BREVARD,NC,28712,35.26237411,-82.71429538,House,
59,TUCKAWAY LN,BREVARD,NC,28712,35.26214797,-82.71418172,House,
65,TUCKAWAY LN,BREVARD,NC,28712,35.26203009,-82.71410898,House,
68,TUCKAWAY LN,BREVARD,NC,28712,35.26187273,-82.71461306,House,
69,TUCKAWAY LN,BREVARD,NC,28712,35.26198253,-82.7139994,House,
74,TUCKAWAY LN,BREVARD,NC,28712,35.26174896,-82.71445296,House,
80,TUCKAWAY LN,BREVARD,NC,28712,35.26161379,-82.71443275,House,
81,TUCKAWAY LN,BREVARD,NC,28712,35.26185006,-82.71391665,House,
82,TUCKAWAY LN,BREVARD,NC,28712,35.26147194,-82.71438667,House,
86,TUCKAWAY LN,BREVARD,NC,28712,35.26137752,-82.71426822,House,
90,TUCKAWAY LN,BREVARD,NC,28712,35.26133831,-82.7141192,House,
91,TUCKAWAY LN,BREVARD,NC,28712,35.26172903,-82.71382706,House,
94,TUCKAWAY LN,BREVARD,NC,28712,35.2612954,-82.71397506,House,
97,TUCKAWAY LN,BREVARD,NC,28712,35.26159558,-82.71371607,House,
100,TUCKAWAY LN,BREVARD,NC,28712,35.26123549,-82.71382648,House,
101,TUCKAWAY LN,BREVARD,NC,28712,35.26149631,-82.71361798,House,
104,TUCKAWAY LN,BREVARD,NC,28712,35.26121134,-82.71368771,House,
109,TUCKAWAY LN,BREVARD,NC,28712,35.26137305,-82.7134632,House,
110,TUCKAWAY LN,BREVARD,NC,28712,35.26115826,-82.71354516,House,
116,TUCKAWAY LN,BREVARD,NC,28712,35.26111171,-82.71339244,House,
117,TUCKAWAY LN,BREVARD,NC,28712,35.26131014,-82.71328711,House,
123,TUCKAWAY LN,BREVARD,NC,28712,35.26126475,-82.71314363,House,
124,TUCKAWAY LN,BREVARD,NC,28712,35.26105991,-82.71323162,House,
132,TUCKAWAY LN,BREVARD,NC,28712,35.2610341,-82.71310595,House,
133,TUCKAWAY LN,BREVARD,NC,28712,35.26118947,-82.71295103,House,
138,TUCKAWAY LN,BREVARD,NC,28712,35.26095652,-82.7129312,House,
142,TUCKAWAY LN,BREVARD,NC,28712,35.26086368,-82.71271685,House,
48,WELCOME ST,BREVARD,NC,28712,35.26370745,-82.70696108,House,
110,WELCOME ST,BREVARD,NC,28712,35.26398123,-82.70826525,House,
114,WELCOME ST,BREVARD,NC,28712,35.26362306,-82.70853786,House,
29,WHITT LN,BREVARD,NC,28712,35.26062621,-82.71515115,House,
38,WHITT LN,BREVARD,NC,28712,35.26036085,-82.71505352,House,
50,WHITT LN,BREVARD,NC,28712,35.26030251,-82.71486949,House,
56,WHITT LN,BREVARD,NC,28712,35.2602722,-82.71471761,House,
64,WHITT LN,BREVARD,NC,28712,35.26024362,-82.71460899,House,
76,WHITT LN,BREVARD,NC,28712,35.26019987,-82.71433114,House,
84,WHITT LN,BREVARD,NC,28712,35.26015203,-82.71417855,House,
92,WHITT LN,BREVARD,NC,28712,35.26012151,-82.71403753,House,
93,WHITT LN,BREVARD,NC,28712,35.26031481,-82.7139614,House,
100,WHITT LN,BREVARD,NC,28712,35.260064,-82.71388788,House,
101,WHITT LN,BREVARD,NC,28712,35.26028043,-82.71379932,House,
109,WHITT LN,BREVARD,NC,28712,35.26023835,-82.71364777,House,
115,WHITT LN,BREVARD,NC,28712,35.2602187,-82.71348169,House,
116,WHITT LN,BREVARD,NC,28712,35.2600069,-82.71372667,House,
121,WHITT LN,BREVARD,NC,28712,35.26018204,-82.71339024,House,
128,WHITT LN,BREVARD,NC,28712,35.25995079,-82.71353514,House,
129,WHITT LN,BREVARD,NC,28712,35.26013124,-82.7132347,House,
136,WHITT LN,BREVARD,NC,28712,35.25988051,-82.71332697,House,
137,WHITT LN,BREVARD,NC,28712,35.26007152,-82.71308235,House,
143,WHITT LN,BREVARD,NC,28712,35.26004176,-82.71286196,House,
14,SUNRISE TRCE,BREVARD,NC,28712,35.26201874,-82.72675474,House,
153,PUBLIC SAFETY WAY,BREVARD,NC,28712,35.26386446,-82.7135141,House,
155,PUBLIC SAFETY WAY,BREVARD,NC,28712,35.26372119,-82.71342649,House,
300,PUBLIC SAFETY WAY,BREVARD,NC,28712,35.26472605,-82.71208215,House,
71,FRANKNOR RDG,BREVARD,NC,28712,35.26648094,-82.71416973,House,
56,HIGHBUSH LN,BREVARD,NC,28712,35.26016819,-82.72115099,House,
40,HIGHBUSH LN,BREVARD,NC,28712,35.25989484,-82.72119108,House,
186,LAMBS CREEK RD,BREVARD,NC,28712,35.26670273,-82.71831698,House,
130,ECUSTA VW,BREVARD,NC,28712,35.26643521,-82.71243262,House,
687,CAMP TOWN RD,BREVARD,NC,28712,35.26034578,-82.72171895,House,
157,SPRINGHOUSE TRL,BREVARD,NC,28712,35.26375655,-82.71844512,House,
569,CAMP TOWN RD,BREVARD,NC,28712,35.2613279,-82.72034849,House,
515,CAMPTOWN RD,BREVARD,NC,28712,35.26139334,-82.71940889,House,
90,WELCOME ST,BREVARD,NC,28712,35.26381463,-82.70763333,House,
71,TRAILCREEK LN,BREVARD,NC,28712,35.2686283,-82.72672319,House,
97,TRAILCREEK LN,BREVARD,NC,28712,35.26898866,-82.72686086,House,
289,TRAILCREEK LN,BREVARD,NC,28712,35.27146452,-82.72649136,House,
51,LITTLE BEND LN,BREVARD,NC,28712,35.26601135,-82.71010929,Apartment,STE B
1981,ASHEVILLE HWY,BREVARD,NC,28712,35.27086085,-82.7156093,House,
44,SUNSET TRCE,BREVARD,NC,28712,35.26166099,-82.72799744,House,
43,SUNSET TRCE,BREVARD,NC,28712,35.26161115,-82.72752373,House,
535,PINE MOUNTAIN TRL,BREVARD,NC,28712,35.26054375,-82.72686765,House,
295,ELK MOUNTAIN TRL,BREVARD,NC,28712,35.26431338,-82.72738015,House,
607,CAMPTOWN RD,BREVARD,NC,28712,35.2611172,-82.72071126,House,
86,ECUSTA VW,BREVARD,NC,28712,35.2666225,-82.71164254,House,
316,BIG BEND RD,BREVARD,NC,28712,35.2649462,-82.70971839,House,
286,CAMPTOWN RD,BREVARD,NC,28712,35.25990608,-82.71773102,House,
376,CAMPTOWN RD,BREVARD,NC,28712,35.26150743,-82.71710767,House,
384,MORRIS RD,BREVARD,NC,28712,35.26137462,-82.70964105,House,
445,CAMPTOWN RD,BREVARD,NC,28712,35.26157451,-82.71821626,House,
425,CAMPTOWN RD,BREVARD,NC,28712,35.26147928,-82.71779482,House,
1470,ASHEVILLE HWY,BREVARD,NC,28712,35.2624565,-82.71520299,House,
305,CAMPTOWN RD,BREVARD,NC,28712,35.26072341,-82.71820682,House,
40,STONE CREEK TRL,BREVARD,NC,28712,35.25996188,-82.72253901,House,
1301,ASHEVILLE HWY,BREVARD,NC,28712,35.2600622,-82.71648376,Apartment,STE C
40,SUNRISE TRCE,BREVARD,NC,28712,35.26209163,-82.72639813,House,
61,BRANCH LN,BREVARD,NC,28712,35.26616228,-82.7090581,House,
560,CAMPTOWN RD,BREVARD,NC,28712,35.26187498,-82.72050261,House,
85,LITTLE BEND LN,BREVARD,NC,28712,35.26633101,-82.70910743,House,
455,CAMPTOWN RD,BREVARD,NC,28712,35.26148745,-82.71859128,Apartment,
364,CAMPTOWN RD,BREVARD,NC,28712,35.26112068,-82.71709754,House,
374,ELK MOUNTAIN TRL,BREVARD,NC,28712,35.26448892,-82.72623176,House,
21,WELCOME ST,BREVARD,NC,28712,35.26319531,-82.70653973,House,
61,WELCOME ST,BREVARD,NC,28712,35.26324077,-82.70723731,House,
440,PINE MOUNTAIN TRL,BREVARD,NC,28712,35.26079878,-82.72462594,House,
620,CAMPTOWN RD,BREVARD,NC,28712,35.2614245,-82.7215173,House,
199,STONE CREEK TRL,BREVARD,NC,28712,35.26203726,-82.72349451,House,
74,FROG HOLLAR LN,BREVARD,NC,28712,35.26679268,-82.71098726,House,
19,SUNSET TRCE,BREVARD,NC,28712,35.2618703,-82.7271349,House,
62,WELCOME ST,BREVARD,NC,28712,35.26365538,-82.70725585,House,
1301,ASHEVILLE HWY,BREVARD,NC,28712,35.26000726,-82.71641648,House,
6,EDELWEISS LN,BREVARD,NC,28712,35.26566138,-82.70994766,House,
18,EDELWEISS LN,BREVARD,NC,28712,35.26567923,-82.71014404,House,
61,ECUSTA VW,BREVARD,NC,28712,35.26619166,-82.71179365,House,
1409,ASHEVILLE HWY,BREVARD,NC,28712,35.26131269,-82.71641949,Apartment,
388,ELK MOUNTAIN TRL,BREVARD,NC,28712,35.26454111,-82.72547875,House,
535,MORRIS RD,BREVARD,NC,28712,35.261629,-82.707324,House,
75,TEMPLE CHURCH RD,BREVARD,NC,28712,35.260382,-82.708817,House,
85,TEMPLE CHURCH RD,BREVARD,NC,28712,35.260245,-82.708801,House,
95,TEMPLE CHURCH RD,BREVARD,NC,28712,35.260111,-82.708864,House,
105,TEMPLE CHURCH RD,BREVARD,NC,28712,35.259986,-82.70888,House,
465,PISGAH DR,BREVARD,NC,28712,35.259911,-82.708239,House,
475,PISGAH DR,BREVARD,NC,28712,35.260064,-82.708234,House,
485,PISGAH DR,BREVARD,NC,28712,35.2602,-82.708201,House,
495,PISGAH DR,BREVARD,NC,28712,35.260332,-82.708156,House,
71,MAPLE GROVE LN,BREVARD,NC,28712,35.267917,-82.710283,Apartment,101
71,MAPLE GROVE LN,BREVARD,NC,28712,35.26792,-82.710195,Apartment,102
71,MAPLE GROVE LN,BREVARD,NC,28712,35.267935,-82.710282,Apartment,201
71,MAPLE GROVE LN,BREVARD,NC,28712,35.267933,-82.710158,Apartment,202
71,MAPLE GROVE LN,BREVARD,NC,28712,35.26796,-82.71028,Apartment,301
71,MAPLE GROVE LN,BREVARD,NC,28712,35.267956,-82.710155,Apartment,302
71,MAPLE GROVE LN,BREVARD,NC,28712,35.26791,-82.71022,House,
95,MAPLE GROVE LN,BREVARD,NC,28712,35.267938,-82.709947,Apartment,101
95,MAPLE GROVE LN,BREVARD,NC,28712,35.267962,-82.709831,Apartment,102
95,MAPLE GROVE LN,BREVARD,NC,28712,35.267961,-82.709956,Apartment,201
95,MAPLE GROVE LN,BREVARD,NC,28712,35.267985,-82.709838,Apartment,202
95,MAPLE GROVE LN,BREVARD,NC,28712,35.267984,-82.709964,Apartment,301
95,MAPLE GROVE LN,BREVARD,NC,28712,35.268012,-82.709845,Apartment,302
95,MAPLE GROVE LN,BREVARD,NC,28712,35.267945,-82.709888,House,
111,MAPLE GROVE LN,BREVARD,NC,28712,35.267953,-82.709554,Apartment,101
111,MAPLE GROVE LN,BREVARD,NC,28712,35.267905,-82.709443,Apartment,102
111,MAPLE GROVE LN,BREVARD,NC,28712,35.267975,-82.709539,Apartment,201
111,MAPLE GROVE LN,BREVARD,NC,28712,35.267926,-82.709432,Apartment,202
111,MAPLE GROVE LN,BREVARD,NC,28712,35.267998,-82.709528,Apartment,301
111,MAPLE GROVE LN,BREVARD,NC,28712,35.267948,-82.709419,Apartment,302
111,MAPLE GROVE LN,BREVARD,NC,28712,35.267929,-82.709501,House,
104,CHAPEL COVE RD,BREVARD,NC,28712,35.269038,-82.724878,House,
130,CHAPEL COVE RD,BREVARD,NC,28712,35.269326,-82.726044,House,
395,CHAPEL COVE RD,BREVARD,NC,28712,35.270331,-82.723867,House,
114,STONE CREEK TRL,BREVARD,NC,28712,35.261323,-82.722381,House,
99,TRAILCREEK LN,BREVARD,NC,28712,35.269201,-82.727247,House,
71,BROOKSHIRE DR,BREVARD,NC,28712,35.270138,-82.710302,Apartment,
101,BROOKSHIRE DR,BREVARD,NC,28712,35.270538,-82.710283,Apartment,
109,BROOKSHIRE DR,BREVARD,NC,28712,35.270559,-82.709921,Apartment,
71,BROOKSHIRE DR,BREVARD,NC,28712,35.269885,-82.710112,Apartment,APT 209
71,BROOKSHIRE DR,BREVARD,NC,28712,35.269858,-82.710148,Apartment,APT 309
71,BROOKSHIRE DR,BREVARD,NC,28712,35.269828,-82.710189,Apartment,APT 210
71,BROOKSHIRE DR,BREVARD,NC,28712,35.269898,-82.710094,Apartment,APT 109
71,BROOKSHIRE DR,BREVARD,NC,28712,35.269848,-82.710161,Apartment,APT 110
71,BROOKSHIRE DR,BREVARD,NC,28712,35.269816,-82.710203,Apartment,APT 310
71,BROOKSHIRE DR,BREVARD,NC,28712,35.27003,-82.710225,Apartment,APT 106
71,BROOKSHIRE DR,BREVARD,NC,28712,35.270017,-82.71024,Apartment,APT 206
71,BROOKSHIRE DR,BREVARD,NC,28712,35.270003,-82.710256,Apartment,APT 306
71,BROOKSHIRE DR,BREVARD,NC,28712,35.269974,-82.710298,Apartment,APT 108
71,BROOKSHIRE DR,BREVARD,NC,28712,35.26996,-82.710318,Apartment,APT 208
71,BROOKSHIRE DR,BREVARD,NC,28712,35.269945,-82.710334,Apartment,APT 308
71,BROOKSHIRE DR,BREVARD,NC,28712,35.270127,-82.710305,Apartment,APT 105
71,BROOKSHIRE DR,BREVARD,NC,28712,35.270113,-82.710327,Apartment,APT 205
71,BROOKSHIRE DR,BREVARD,NC,28712,35.270101,-82.710346,Apartment,APT 305
71,BROOKSHIRE DR,BREVARD,NC,28712,35.270068,-82.710391,Apartment,APT 107
71,BROOKSHIRE DR,BREVARD,NC,28712,35.270054,-82.71041,Apartment,APT 207
71,BROOKSHIRE DR,BREVARD,NC,28712,35.270041,-82.710428,Apartment,APT 307
71,BROOKSHIRE DR,BREVARD,NC,28712,35.270193,-82.710386,Apartment,APT 102
71,BROOKSHIRE DR,BREVARD,NC,28712,35.270179,-82.710408,Apartment,APT 202
71,BROOKSHIRE DR,BREVARD,NC,28712,35.270169,-82.710426,Apartment,APT 302
71,BROOKSHIRE DR,BREVARD,NC,28712,35.270139,-82.710466,Apartment,APT 104
71,BROOKSHIRE DR,BREVARD,NC,28712,35.270124,-82.710486,Apartment,APT 204
71,BROOKSHIRE DR,BREVARD,NC,28712,35.270105,-82.71051,Apartment,APT 304
71,BROOKSHIRE DR,BREVARD,NC,28712,35.270286,-82.710477,Apartment,APT 101
71,BROOKSHIRE DR,BREVARD,NC,28712,35.270271,-82.710497,Apartment,APT 201
71,BROOKSHIRE DR,BREVARD,NC,28712,35.270258,-82.710516,Apartment,APT 301
71,BROOKSHIRE DR,BREVARD,NC,28712,35.270233,-82.710552,Apartment,APT 103
71,BROOKSHIRE DR,BREVARD,NC,28712,35.270215,-82.710574,Apartment,APT 203
71,BROOKSHIRE DR,BREVARD,NC,28712,35.270196,-82.710596,Apartment,APT 303
109,BROOKSHIRE DR,BREVARD,NC,28712,35.270541,-82.709992,Apartment,APT 113
109,BROOKSHIRE DR,BREVARD,NC,28712,35.270562,-82.709992,Apartment,APT 213
109,BROOKSHIRE DR,BREVARD,NC,28712,35.270584,-82.709994,Apartment,APT 313
109,BROOKSHIRE DR,BREVARD,NC,28712,35.270633,-82.709999,Apartment,APT 111
109,BROOKSHIRE DR,BREVARD,NC,28712,35.270657,-82.71,Apartment,APT 211
109,BROOKSHIRE DR,BREVARD,NC,28712,35.270679,-82.710003,Apartment,APT 311
109,BROOKSHIRE DR,BREVARD,NC,28712,35.270549,-82.709851,Apartment,APT 114
109,BROOKSHIRE DR,BREVARD,NC,28712,35.270568,-82.709852,Apartment,APT 214
109,BROOKSHIRE DR,BREVARD,NC,28712,35.270593,-82.709854,Apartment,APT 314
109,BROOKSHIRE DR,BREVARD,NC,28712,35.270642,-82.709857,Apartment,APT 112
109,BROOKSHIRE DR,BREVARD,NC,28712,35.270666,-82.709859,Apartment,APT 212
109,BROOKSHIRE DR,BREVARD,NC,28712,35.270689,-82.70986,Apartment,APT 312
155,TANGLEWOOD HTS,BREVARD,NC,28712,35.26603,-82.717004,House,
539,CAMPTOWN RD,BREVARD,NC,28712,35.261444,-82.719927,House,
2051,ASHEVILLE HWY,BREVARD,NC,28712,35.269342,-82.710218,Apartment,
50,MORRIS RD,BREVARD,NC,28712,35.263903,-82.714629,Apartment,
81,RUSTLING WOODS DR,BREVARD,NC,28712,35.271197,-82.709661,House,
24,EDELWEISS LN,BREVARD,NC,28712,35.265725,-82.710428,House,
26,EDELWEISS LN,BREVARD,NC,28712,35.265759,-82.71042,House,
214,LAUREL MOUNTAIN RD,BREVARD,NC,28712,35.271666,-82.712156,House,
63,WELCOME ST,BREVARD,NC,28712,35.26325,-82.70744,House,
93,WELCOME ST,BREVARD,NC,28712,35.263261,-82.70788,House,
688,ECUSTA RD,BREVARD,NC,28712,35.262721,-82.707241,Apartment,
222,ELK MOUNTAIN TRL,BREVARD,NC,28712,35.263178,-82.726658,House,
