Number,Street,City,State,PostalCode,Latitude,Longitude,Type,ApartmentNumber
422,THREE MILE KNOB RD,PISGAH FOREST,NC,28768,35.21605242,-82.70384348,House, 
448,THREE MILE KNOB RD,PISGAH FOREST,NC,28768,35.21567563,-82.70389926,House, 
472,THREE MILE KNOB RD,PISGAH FOREST,NC,28768,35.21531561,-82.70369263,House, 
515,THREE MILE KNOB RD,PISGAH FOREST,NC,28768,35.2152794,-82.70261269,House, 
530,THREE MILE KNOB RD,PISGAH FOREST,NC,28768,35.2144675,-82.70327526,House, 
531,THREE MILE KNOB RD,PISGAH FOREST,NC,28768,35.215014,-82.70225362,House, 
544,THREE MILE KNOB RD,PISGAH FOREST,NC,28768,35.21452533,-82.70262668,House, 
549,THREE MILE KNOB RD,PISGAH FOREST,NC,28768,35.2146721,-82.70204077,House, 
590,THREE MILE KNOB RD,PISGAH FOREST,NC,28768,35.21418968,-82.70244718,House, 
593,THREE MILE KNOB RD,PISGAH FOREST,NC,28768,35.21412429,-82.70175364,House, 
624,THREE MILE KNOB RD,PISGAH FOREST,NC,28768,35.21353949,-82.70220062,House, 
645,THREE MILE KNOB RD,PISGAH FOREST,NC,28768,35.21388528,-82.70164529,House, 
650,THREE MILE KNOB RD,PISGAH FOREST,NC,28768,35.21326395,-82.70152579,House, 
653,THREE MILE KNOB RD,PISGAH FOREST,NC,28768,35.21371202,-82.70118621,House, 
676,THREE MILE KNOB RD,PISGAH FOREST,NC,28768,35.21295876,-82.70122204,House, 
713,THREE MILE KNOB RD,PISGAH FOREST,NC,28768,35.21329775,-82.70081217,House, 
729,THREE MILE KNOB RD,PISGAH FOREST,NC,28768,35.21331101,-82.70036561,House, 
738,THREE MILE KNOB RD,PISGAH FOREST,NC,28768,35.21259817,-82.69985391,House, 
740,THREE MILE KNOB RD,PISGAH FOREST,NC,28768,35.21278542,-82.69847636,House, 
741,THREE MILE KNOB RD,PISGAH FOREST,NC,28768,35.21334486,-82.69996594,House, 
783,THREE MILE KNOB RD,PISGAH FOREST,NC,28768,35.21327685,-82.699431,House, 
825,THREE MILE KNOB RD,PISGAH FOREST,NC,28768,35.21368536,-82.69847714,House, 
905,THREE MILE KNOB RD,PISGAH FOREST,NC,28768,35.21380507,-82.69741763,House, 
955,THREE MILE KNOB RD,PISGAH FOREST,NC,28768,35.21440498,-82.69670413,House, 
1017,THREE MILE KNOB RD,PISGAH FOREST,NC,28768,35.21415239,-82.69585586,House, 
1131,THREE MILE KNOB RD,PISGAH FOREST,NC,28768,35.21506235,-82.69523571,House, 
524,THREE MILE KNOB RD,PISGAH FOREST,NC,28768,35.21493496,-82.70301328,House,UNIT 1
524,THREE MILE KNOB RD,PISGAH FOREST,NC,28768,35.21490848,-82.70306819,House,UNIT 2
524,THREE MILE KNOB RD,PISGAH FOREST,NC,28768,35.21483815,-82.70293549,House,UNIT 3
524,THREE MILE KNOB RD,PISGAH FOREST,NC,28768,35.21482202,-82.70299951,House,UNIT 4
20,TIMBERLANE CIR,PISGAH FOREST,NC,28768,35.22103067,-82.69824155,House, 
21,TIMBERLANE CIR,PISGAH FOREST,NC,28768,35.22053968,-82.69841558,House, 
50,TIMBERLANE CIR,PISGAH FOREST,NC,28768,35.22122299,-82.69880198,House, 
85,TIMBERLANE CIR,PISGAH FOREST,NC,28768,35.22121094,-82.69980043,House, 
116,TIMBERLANE CIR,PISGAH FOREST,NC,28768,35.22184747,-82.69943362,House, 
140,TIMBERLANE CIR,PISGAH FOREST,NC,28768,35.22203834,-82.70011117,House, 
192,TIMBERLANE CIR,PISGAH FOREST,NC,28768,35.2223427,-82.70093724,House, 
193,TIMBERLANE CIR,PISGAH FOREST,NC,28768,35.22119232,-82.70071774,House, 
200,TIMBERLANE CIR,PISGAH FOREST,NC,28768,35.22150106,-82.70133703,House, 
9,TIMBERLANE DR,PISGAH FOREST,NC,28768,35.21938038,-82.69522928,House, 
33,TIMBERLANE DR,PISGAH FOREST,NC,28768,35.2194383,-82.69590422,House, 
34,TIMBERLANE DR,PISGAH FOREST,NC,28768,35.22001409,-82.69536937,House, 
61,TIMBERLANE DR,PISGAH FOREST,NC,28768,35.21956269,-82.69644582,House, 
78,TIMBERLANE DR,PISGAH FOREST,NC,28768,35.22010831,-82.69617956,House, 
99,TIMBERLANE DR,PISGAH FOREST,NC,28768,35.21985701,-82.69693025,House, 
100,TIMBERLANE DR,PISGAH FOREST,NC,28768,35.22040174,-82.69670442,House, 
114,TIMBERLANE DR,PISGAH FOREST,NC,28768,35.22051266,-82.69707863,House, 
180,TIMBERLANE DR,PISGAH FOREST,NC,28768,35.22085393,-82.69778937,House, 
221,TIMBERLANE DR,PISGAH FOREST,NC,28768,35.22022273,-82.6978117,House, 
226,TIMBERLANE DR,PISGAH FOREST,NC,28768,35.21999832,-82.69849488,House, 
253,TIMBERLANE DR,PISGAH FOREST,NC,28768,35.21974714,-82.69789542,House, 
272,TIMBERLANE DR,PISGAH FOREST,NC,28768,35.21955997,-82.69874561,House, 
310,TIMBERLANE DR,PISGAH FOREST,NC,28768,35.21909091,-82.6981304,House, 
367,TIMBERLANE DR,PISGAH FOREST,NC,28768,35.21864665,-82.69725006,House, 
386,TIMBERLANE DR,PISGAH FOREST,NC,28768,35.21847096,-82.69828784,House, 
412,TIMBERLANE DR,PISGAH FOREST,NC,28768,35.21801116,-82.69853486,House, 
437,TIMBERLANE DR,PISGAH FOREST,NC,28768,35.21828423,-82.69769328,House, 
462,TIMBERLANE DR,PISGAH FOREST,NC,28768,35.21750308,-82.69716581,House, 
469,TIMBERLANE DR,PISGAH FOREST,NC,28768,35.21820066,-82.69718624,House, 
519,TIMBERLANE DR,PISGAH FOREST,NC,28768,35.21809067,-82.69672688,House, 
532,TIMBERLANE DR,PISGAH FOREST,NC,28768,35.21738099,-82.69655631,House, 
541,TIMBERLANE DR,PISGAH FOREST,NC,28768,35.21801613,-82.69632315,House, 
554,TIMBERLANE DR,PISGAH FOREST,NC,28768,35.21741084,-82.69592105,House, 
55,VALLEY LN,PISGAH FOREST,NC,28768,35.22392712,-82.68400657,House, 
97,VALLEY LN,PISGAH FOREST,NC,28768,35.22462706,-82.68396259,House, 
216,VALLEY LN,PISGAH FOREST,NC,28768,35.2249222,-82.68297128,House, 
25,VALLEY OVERLOOK DR,PISGAH FOREST,NC,28768,35.22786877,-82.7048728,House, 
34,VALLEY OVERLOOK DR,PISGAH FOREST,NC,28768,35.22754253,-82.70414806,House, 
95,VALLEY OVERLOOK DR,PISGAH FOREST,NC,28768,35.22828579,-82.70448051,House, 
98,VALLEY OVERLOOK DR,PISGAH FOREST,NC,28768,35.22792052,-82.70429243,House, 
101,VALLEY OVERLOOK DR,PISGAH FOREST,NC,28768,35.22824198,-82.70400103,House, 
147,VALLEY OVERLOOK DR,PISGAH FOREST,NC,28768,35.2282499,-82.7035762,House, 
200,VALLEY OVERLOOK DR,PISGAH FOREST,NC,28768,35.22822884,-82.70223571,House, 
215,VALLEY OVERLOOK DR,PISGAH FOREST,NC,28768,35.22874622,-82.70298374,House, 
230,VALLEY OVERLOOK DR,PISGAH FOREST,NC,28768,35.22870177,-82.70207589,House, 
112,VALLEY VIEW DR,PISGAH FOREST,NC,28768,35.22163585,-82.6889177,House, 
121,VALLEY VIEW DR,PISGAH FOREST,NC,28768,35.22078473,-82.68812464,House, 
141,VALLEY VIEW DR,PISGAH FOREST,NC,28768,35.22021425,-82.68824219,House, 
184,VALLEY VIEW DR,PISGAH FOREST,NC,28768,35.22110876,-82.69006176,House, 
195,VALLEY VIEW DR,PISGAH FOREST,NC,28768,35.21985734,-82.68869695,House, 
206,VALLEY VIEW DR,PISGAH FOREST,NC,28768,35.21993813,-82.68956269,House, 
227,VALLEY VIEW DR,PISGAH FOREST,NC,28768,35.21943695,-82.68891907,House, 
268,VALLEY VIEW DR,PISGAH FOREST,NC,28768,35.21913077,-82.68994054,House, 
376,VALLEY VIEW DR,PISGAH FOREST,NC,28768,35.21849902,-82.69137839,House, 
394,VALLEY VIEW DR,PISGAH FOREST,NC,28768,35.22025405,-82.69183983,House, 
396,VALLEY VIEW DR,PISGAH FOREST,NC,28768,35.21965834,-82.69290334,House, 
441,VALLEY VIEW DR,PISGAH FOREST,NC,28768,35.21732815,-82.6926565,House, 
510,VALLEY VIEW DR,PISGAH FOREST,NC,28768,35.21867199,-82.69289265,House, 
19,W LAUREL CT,BREVARD,NC,28712,35.22926201,-82.72167063,House, 
33,W LAUREL CT,BREVARD,NC,28712,35.2292576,-82.72181,House, 
41,W LAUREL CT,BREVARD,NC,28712,35.22921069,-82.72201954,House, 
47,W LAUREL CT,BREVARD,NC,28712,35.22922593,-82.72215268,House, 
39,W WOODSONG LN,BREVARD,NC,28712,35.23346694,-82.72459762,House, 
61,W WOODSONG LN,BREVARD,NC,28712,35.23343086,-82.72410095,House, 
15,WARREN LN,BREVARD,NC,28712,35.22757928,-82.72142469,House, 
24,WARREN LN,BREVARD,NC,28712,35.22720061,-82.72093359,House, 
34,WARREN LN,BREVARD,NC,28712,35.22764219,-82.72086014,House, 
54,WARREN LN,BREVARD,NC,28712,35.22798828,-82.72090432,House, 
57,WARREN LN,BREVARD,NC,28712,35.22814431,-82.72148773,House, 
117,WARREN LN,BREVARD,NC,28712,35.22865876,-82.72047076,House, 
128,WARREN LN,BREVARD,NC,28712,35.22827561,-82.72030769,House, 
146,WARREN LN,BREVARD,NC,28712,35.22858828,-82.71964655,House, 
147,WARREN LN,BREVARD,NC,28712,35.22895736,-82.72000496,House, 
21,WHISPERING SPRING DR,PISGAH FOREST,NC,28768,35.21616887,-82.69703484,House, 
91,WHISPERING SPRING DR,PISGAH FOREST,NC,28768,35.21693712,-82.69567135,House, 
112,WHISPERING SPRING DR,PISGAH FOREST,NC,28768,35.21633153,-82.69528707,House, 
20,WILLIAMSON CREEK RD,PISGAH FOREST,NC,28768,35.22546198,-82.70390334,House, 
56,WILLIAMSON CREEK RD,PISGAH FOREST,NC,28768,35.22540247,-82.70327201,House, 
76,WILLIAMSON CREEK RD,PISGAH FOREST,NC,28768,35.22541928,-82.7028271,House, 
94,WILLIAMSON CREEK RD,PISGAH FOREST,NC,28768,35.22545173,-82.70240941,House, 
96,WILLIAMSON CREEK RD,PISGAH FOREST,NC,28768,35.22549689,-82.70233805,House, 
114,WILLIAMSON CREEK RD,PISGAH FOREST,NC,28768,35.22572684,-82.70218578,House, 
176,WILLIAMSON CREEK RD,PISGAH FOREST,NC,28768,35.22562901,-82.70159778,House, 
325,WILLIAMSON CREEK RD,PISGAH FOREST,NC,28768,35.22621088,-82.69897061,House, 
397,WILLIAMSON CREEK RD,PISGAH FOREST,NC,28768,35.22550514,-82.6979339,House, 
495,WILLIAMSON CREEK RD,PISGAH FOREST,NC,28768,35.22467535,-82.6959837,House, 
497,WILLIAMSON CREEK RD,PISGAH FOREST,NC,28768,35.22490488,-82.6951837,House, 
605,WILLIAMSON CREEK RD,PISGAH FOREST,NC,28768,35.22348177,-82.69493133,House, 
611,WILLIAMSON CREEK RD,PISGAH FOREST,NC,28768,35.22375278,-82.69495953,House, 
649,WILLIAMSON CREEK RD,PISGAH FOREST,NC,28768,35.22350684,-82.69423756,House, 
652,WILLIAMSON CREEK RD,PISGAH FOREST,NC,28768,35.2227308,-82.69516629,House, 
724,WILLIAMSON CREEK RD,PISGAH FOREST,NC,28768,35.2227243,-82.69339973,House, 
740,WILLIAMSON CREEK RD,PISGAH FOREST,NC,28768,35.22282591,-82.6929525,House, 
749,WILLIAMSON CREEK RD,PISGAH FOREST,NC,28768,35.22227444,-82.69184646,House, 
842,WILLIAMSON CREEK RD,PISGAH FOREST,NC,28768,35.22328107,-82.69126018,House, 
999,WILLIAMSON CREEK RD,PISGAH FOREST,NC,28768,35.2239678,-82.68953485,House, 
1000,WILLIAMSON CREEK RD,PISGAH FOREST,NC,28768,35.22286192,-82.6905868,House, 
1021,WILLIAMSON CREEK RD,PISGAH FOREST,NC,28768,35.22365328,-82.68860819,House, 
1095,WILLIAMSON CREEK RD,PISGAH FOREST,NC,28768,35.22318181,-82.68808488,House, 
1096,WILLIAMSON CREEK RD,PISGAH FOREST,NC,28768,35.22283819,-82.68856568,House, 
1136,WILLIAMSON CREEK RD,PISGAH FOREST,NC,28768,35.22231929,-82.68803183,House, 
1139,WILLIAMSON CREEK RD,PISGAH FOREST,NC,28768,35.22301264,-82.68719259,House, 
1155,WILLIAMSON CREEK RD,PISGAH FOREST,NC,28768,35.22257192,-82.68691779,House, 
1199,WILLIAMSON CREEK RD,PISGAH FOREST,NC,28768,35.2220713,-82.6861348,House, 
1297,WILLIAMSON CREEK RD,PISGAH FOREST,NC,28768,35.22086396,-82.68599662,House, 
1428,WILLIAMSON CREEK RD,PISGAH FOREST,NC,28768,35.21841955,-82.68587729,House, 
1607,WILLIAMSON CREEK RD,PISGAH FOREST,NC,28768,35.21937016,-82.68336487,House, 
1801,WILLIAMSON CREEK RD,PISGAH FOREST,NC,28768,35.22122531,-82.67993633,House, 
1815,WILLIAMSON CREEK RD,PISGAH FOREST,NC,28768,35.219922,-82.68070622,House, 
1845,WILLIAMSON CREEK RD,PISGAH FOREST,NC,28768,35.21944373,-82.68092019,House, 
1895,WILLIAMSON CREEK RD,PISGAH FOREST,NC,28768,35.2188493,-82.68125809,House, 
1910,WILLIAMSON CREEK RD,PISGAH FOREST,NC,28768,35.21887526,-82.68246947,House, 
1955,WILLIAMSON CREEK RD,PISGAH FOREST,NC,28768,35.21721923,-82.68215204,House, 
1957,WILLIAMSON CREEK RD,PISGAH FOREST,NC,28768,35.21747426,-82.6815452,House, 
2006,WILLIAMSON CREEK RD,PISGAH FOREST,NC,28768,35.21799183,-82.68328629,House, 
2026,WILLIAMSON CREEK RD,PISGAH FOREST,NC,28768,35.21684071,-82.68352455,House, 
2111,WILLIAMSON CREEK RD,PISGAH FOREST,NC,28768,35.21678915,-82.68277911,House, 
2136,WILLIAMSON CREEK RD,PISGAH FOREST,NC,28768,35.21594298,-82.68280692,House, 
2149,WILLIAMSON CREEK RD,PISGAH FOREST,NC,28768,35.21598144,-82.68163135,House, 
73,WILLOW RIDGE RD,PISGAH FOREST,NC,28768,35.22015273,-82.70249379,House, 
331,WILSON DR,BREVARD,NC,28712,35.22483285,-82.72832643,House, 
348,WILSON DR,BREVARD,NC,28712,35.2244428,-82.72852545,House, 
364,WILSON DR,BREVARD,NC,28712,35.22424857,-82.72829035,House, 
369,WILSON DR,BREVARD,NC,28712,35.22456411,-82.72794881,House, 
56,WILSON RD,PISGAH FOREST,NC,28768,35.21191744,-82.71261897,House, 
112,WILSON RD,PISGAH FOREST,NC,28768,35.21201487,-82.71175545,House, 
124,WILSON RD,PISGAH FOREST,NC,28768,35.21224204,-82.71114515,House, 
216,WILSON RD,PISGAH FOREST,NC,28768,35.2122201,-82.71029304,House, 
246,WILSON RD,PISGAH FOREST,NC,28768,35.21257594,-82.70904613,House, 
284,WILSON RD,PISGAH FOREST,NC,28768,35.21272421,-82.70861045,House, 
388,WILSON RD,PISGAH FOREST,NC,28768,35.21288261,-82.706912,House, 
410,WILSON RD,PISGAH FOREST,NC,28768,35.21383963,-82.70606961,House, 
504,WILSON RD,PISGAH FOREST,NC,28768,35.21523606,-82.705766,House, 
734,WILSON RD,PISGAH FOREST,NC,28768,35.21816904,-82.70580898,House, 
736,WILSON RD,PISGAH FOREST,NC,28768,35.21819632,-82.70580958,House, 
849,WILSON RD,PISGAH FOREST,NC,28768,35.21963408,-82.70567473,House, 
895,WILSON RD,PISGAH FOREST,NC,28768,35.22030884,-82.70515339,House, 
946,WILSON RD,PISGAH FOREST,NC,28768,35.2207359,-82.7039161,House, 
1009,WILSON RD,PISGAH FOREST,NC,28768,35.22157204,-82.70448438,House, 
1011,WILSON RD,PISGAH FOREST,NC,28768,35.22171271,-82.7044672,House, 
1045,WILSON RD,PISGAH FOREST,NC,28768,35.22232768,-82.70446844,House, 
1131,WILSON RD,PISGAH FOREST,NC,28768,35.22321436,-82.70476613,House, 
1142,WILSON RD,PISGAH FOREST,NC,28768,35.22370597,-82.70401759,House, 
1214,WILSON RD,PISGAH FOREST,NC,28768,35.22413284,-82.7037867,House, 
1216,WILSON RD,PISGAH FOREST,NC,28768,35.22440167,-82.70373178,House, 
1348,WILSON RD,PISGAH FOREST,NC,28768,35.22648069,-82.7041871,House, 
1350,WILSON RD,PISGAH FOREST,NC,28768,35.22728782,-82.70292806,House, 
1360,WILSON RD,PISGAH FOREST,NC,28768,35.22675352,-82.70416137,House, 
1371,WILSON RD,PISGAH FOREST,NC,28768,35.22681171,-82.70468568,House, 
1526,WILSON RD,PISGAH FOREST,NC,28768,35.2290722,-82.70480395,House, 
1528,WILSON RD,PISGAH FOREST,NC,28768,35.23063251,-82.70387552,House, 
1832,WILSON RD,PISGAH FOREST,NC,28768,35.23270063,-82.7065754,House, 
1026,WILSON RD,PISGAH FOREST,NC,28768,35.22136412,-82.70391501,Apartment, 
122,COMMUNITY CENTER RD,PISGAH FOREST,NC,28768,35.22485674,-82.69120006,House, 
71,DEACON LN,BREVARD,NC,28712,35.22600915,-82.72849576,House, 
32,SMALL TOWN TRL,BREVARD,NC,28712,35.21920686,-82.71521958,House, 
27,SMALL TOWN TRL,BREVARD,NC,28712,35.2190039,-82.71597247,House, 
59,SMALL TOWN TRL,BREVARD,NC,28712,35.21958685,-82.7160874,House, 
2076,PISGAH FOREST DR,PISGAH FOREST,NC,28768,35.21975511,-82.6627913,House, 
100,QUINN DR,BREVARD,NC,28712,35.22570831,-82.71754246,House, 
273,GALLIMORE RD,BREVARD,NC,28712,35.22348421,-82.72762868,House, 
42,MARTIN LN,BREVARD,NC,28712,35.22459288,-82.72608122,House, 
40,MARTIN LN,BREVARD,NC,28712,35.22470699,-82.7262209,House, 
32,MARTIN LN,BREVARD,NC,28712,35.2248946,-82.72634564,House, 
111,TYLER'S WAY,PISGAH FOREST,NC,28768,35.21730112,-82.6868468,House, 
79,TYLER'S WAY,PISGAH FOREST,NC,28768,35.2175573,-82.68648214,House, 
88,TROWBRIDGE LN,BREVARD,NC,28712,35.22659306,-82.72439017,House, 
86,TROWBRIDGE LN,BREVARD,NC,28712,35.22665315,-82.72430808,House, 
96,TROWBRIDGE LN,BREVARD,NC,28712,35.22654584,-82.72445663,House, 
98,TROWBRIDGE LN,BREVARD,NC,28712,35.22649414,-82.72452933,House, 
62,TROWBRIDGE LN,BREVARD,NC,28712,35.22674725,-82.72379599,House, 
64,TROWBRIDGE LN,BREVARD,NC,28712,35.22674153,-82.72390481,House, 
72,TROWBRIDGE LN,BREVARD,NC,28712,35.22673626,-82.72400191,House, 
74,TROWBRIDGE LN,BREVARD,NC,28712,35.22673182,-82.72409748,House, 
99,TROWBRIDGE LN,BREVARD,NC,28712,35.226226,-82.72434979,House, 
97,TROWBRIDGE LN,BREVARD,NC,28712,35.22622081,-82.72425158,House, 
73,TROWBRIDGE LN,BREVARD,NC,28712,35.2262794,-82.72378899,House, 
71,TROWBRIDGE LN,BREVARD,NC,28712,35.22634134,-82.72372054,House, 
63,TROWBRIDGE LN,BREVARD,NC,28712,35.22640012,-82.7236545,House, 
61,TROWBRIDGE LN,BREVARD,NC,28712,35.22646224,-82.72358434,House, 
19,TROWBRIDGE LN,BREVARD,NC,28712,35.22700136,-82.72318324,House, 
27,TROWBRIDGE LN,BREVARD,NC,28712,35.22690543,-82.72317948,House, 
20,TROWBRIDGE LN,BREVARD,NC,28712,35.22701086,-82.72360133,House, 
28,TROWBRIDGE LN,BREVARD,NC,28712,35.22690512,-82.7236044,House, 
35,TROWBRIDGE LN,BREVARD,NC,28712,35.2267708,-82.72310186,House, 
37,TROWBRIDGE LN,BREVARD,NC,28712,35.22672135,-82.72301225,House, 
39,TROWBRIDGE LN,BREVARD,NC,28712,35.22656038,-82.72293958,House, 
41,TROWBRIDGE LN,BREVARD,NC,28712,35.22650128,-82.72299701,House, 
43,TROWBRIDGE LN,BREVARD,NC,28712,35.22644198,-82.72305403,House, 
45,TROWBRIDGE LN,BREVARD,NC,28712,35.22637571,-82.72312228,House, 
47,TROWBRIDGE LN,BREVARD,NC,28712,35.22639939,-82.72332568,House, 
49,TROWBRIDGE LN,BREVARD,NC,28712,35.22645499,-82.7234044,House, 
148,ELM BEND RD,BREVARD,NC,28712,35.22711394,-82.72305456,House, 
150,ELM BEND RD,BREVARD,NC,28712,35.22711149,-82.722949,House, 
158,ELM BEND RD,BREVARD,NC,28712,35.22711023,-82.72284267,House, 
160,ELM BEND RD,BREVARD,NC,28712,35.2271137,-82.72275145,House, 
239,GREENVILLE HWY,BREVARD,NC,28712,35.22674971,-82.72488764,House, 
52,ELM BEND RD,BREVARD,NC,28712,35.22715668,-82.7246732,House, 
60,ELM BEND RD,BREVARD,NC,28712,35.22715644,-82.72456857,House, 
68,ELM BEND RD,BREVARD,NC,28712,35.22715469,-82.72445736,House, 
70,ELM BEND RD,BREVARD,NC,28712,35.22714959,-82.7243521,House, 
76,ELM BEND RD,BREVARD,NC,28712,35.22713745,-82.72425331,House, 
90,ELM BEND RD,BREVARD,NC,28712,35.22714367,-82.72404596,House, 
92,ELM BEND RD,BREVARD,NC,28712,35.2271399,-82.72395014,House, 
102,ELM BEND RD,BREVARD,NC,28712,35.22713774,-82.72385075,House, 
104,ELM BEND RD,BREVARD,NC,28712,35.22713489,-82.72375249,House, 
251,GREENVILLE HWY,BREVARD,NC,28712,35.22658516,-82.72476664,House, 
257,GREENVILLE HWY,BREVARD,NC,28712,35.22650157,-82.72471076,House, 
289,GREENVILLE HWY,BREVARD,NC,28712,35.22608897,-82.72441556,House, 
295,GREENVILLE HWY,BREVARD,NC,28712,35.22600837,-82.72435807,House, 
87,TROWBRIDGE LN,BREVARD,NC,28712,35.22619991,-82.72403272,House, 
89,TROWBRIDGE LN,BREVARD,NC,28712,35.22621196,-82.72414764,House, 
319,GREENVILLE HWY,BREVARD,NC,28712,35.22579658,-82.72421346,House,UNIT 101
319,GREENVILLE HWY,BREVARD,NC,28712,35.22583507,-82.72422746,House,UNIT 102
319,GREENVILLE HWY,BREVARD,NC,28712,35.22581161,-82.72413306,House,UNIT 201
319,GREENVILLE HWY,BREVARD,NC,28712,35.22586384,-82.72414922,House,UNIT 202
319,GREENVILLE HWY,BREVARD,NC,28712,35.22585294,-82.72403059,House,UNIT 301
319,GREENVILLE HWY,BREVARD,NC,28712,35.22588761,-82.72404594,House,UNIT 302
319,GREENVILLE HWY,BREVARD,NC,28712,35.22588335,-82.72389888,House,UNIT 401
319,GREENVILLE HWY,BREVARD,NC,28712,35.22591947,-82.72390819,House,UNIT 402
319,GREENVILLE HWY,BREVARD,NC,28712,35.22591053,-82.72379796,House,UNIT 501
319,GREENVILLE HWY,BREVARD,NC,28712,35.22595022,-82.72381354,House,UNIT 502
319,GREENVILLE HWY,BREVARD,NC,28712,35.22593819,-82.72371508,House,UNIT 601
319,GREENVILLE HWY,BREVARD,NC,28712,35.22596867,-82.72373838,House,UNIT 602
172,CLOCK CREST DR,PISGAH FOREST,NC,28768,35.22965879,-82.68084223,House, 
325,GALLIMORE RD,BREVARD,NC,28712,35.22286626,-82.72847547,House,
262,MCDONALD CT,PISGAH FOREST,NC,28768,35.21465402,-82.66214633,House,
2118,PISGAH FOREST DR,PISGAH FOREST,NC,28768,35.21993929,-82.66221663,House,
1468,WILLIAMSON CREEK RD,PISGAH FOREST,NC,28768,35.21833416,-82.68560425,House,
1583,WILLIAMSON CREEK RD,PISGAH FOREST,NC,28768,35.21991975,-82.68372411,House,
1529,WILLIAMSON CREEK RD,PISGAH FOREST,NC,28768,35.2188699,-82.68538377,House,
1028,WILSON RD,PISGAH FOREST,NC,28768,35.22176489,-82.70363248,Apartment,
318,MOUNTAIN CREST DR,PISGAH FOREST,NC,28768,35.22846756,-82.68600336,House,
210,WARREN LN,BREVARD,NC,28712,35.22864842,-82.71707481,House,
3902,RESERVE RD,PISGAH FOREST,NC,28768,35.22142665,-82.67092751,House,
1353,GREENVILLE HWY,BREVARD,NC,28712,35.21438833,-82.7127857,House,
1355,GREENVILLE HWY,BREVARD,NC,28712,35.21534024,-82.71152588,House,
3569,RESERVE RD,PISGAH FOREST,NC,28768,35.22434618,-82.66661384,House,
3399,RESERVE RD,PISGAH FOREST,NC,28768,35.22675292,-82.66681622,House,
3401,RESERVE RD,PISGAH FOREST,NC,28768,35.22644963,-82.66675865,House,
968,GREENVILLE HWY,BREVARD,NC,28712,35.21780797,-82.71903864,House,
1238,WILSON RD,PISGAH FOREST,NC,28768,35.22488922,-82.70381644,House,
152,TARAH LN,PISGAH FOREST,NC,28768,35.21389651,-82.6893403,House,
76,WILLOW RIDGE RD,PISGAH FOREST,NC,28768,35.22037091,-82.70328195,House,
75,WILLOW RIDGE RD,PISGAH FOREST,NC,28768,35.22011749,-82.70259099,House,
118,MADELINE LN,PISGAH FOREST,NC,28768,35.22096736,-82.69255755,House,
107,GORDON RD,PISGAH FOREST,NC,28768,35.22893756,-82.69571895,House,
1969,CHERRYWOOD LN,PISGAH FOREST,NC,28768,35.21136387,-82.67501572,House,
120,MADELINE LN,PISGAH FOREST,NC,28768,35.22178894,-82.69301325,House,
510,RED MAPLE LN,PISGAH FOREST,NC,28768,35.21077586,-82.66631416,House,
152,EAGLE POINT DR,BREVARD,NC,28712,35.22385823,-82.72079663,House,
85,BIG ROCK RD,PISGAH FOREST,NC,28768,35.21149846,-82.7089514,House,
1963,CHERRYWOOD LN,PISGAH FOREST,NC,28768,35.21078366,-82.67423966,House,
140,KEYLA'S WAY,PISGAH FOREST,NC,28768,35.22716684,-82.70061739,House,
86,KEYLA'S WAY,PISGAH FOREST,NC,28768,35.22670961,-82.70081768,House,
80,KEYLA'S WAY,PISGAH FOREST,NC,28768,35.22675365,-82.70125018,House,
3617,RESERVE RD,PISGAH FOREST,NC,28768,35.22357593,-82.66591114,House,
159,CHERRYWOOD LN,PISGAH FOREST,NC,28768,35.21370251,-82.6805661,House,
190,RIDGE TOP DR,PISGAH FOREST,NC,28768,35.22225549,-82.6619952,House,
35,HAROLD ST,BREVARD,NC,28712,35.23088785,-82.7257117,House,
70,LITTLE DREAMER RD,BREVARD,NC,28712,35.21989616,-82.71024664,House,
23,LITTLE DREAMER RD,BREVARD,NC,28712,35.21919702,-82.70990136,House,
31,LITTLE DREAMER RD,BREVARD,NC,28712,35.21926406,-82.71008407,House,
47,LITTLE DREAMER RD,BREVARD,NC,28712,35.21940586,-82.71042608,House,
62,PARKVIEW DR,BREVARD,NC,28712,35.22804433,-82.72459572,House,
86,SCARLETT DR,PISGAH FOREST,NC,28768,35.22678601,-82.68853755,House,
211,COVERED BRIDGE LN,PISGAH FOREST,NC,28768,35.22438618,-82.69304591,House,
403,LAUREL LN,PISGAH FOREST,NC,28768,35.2163405,-82.66977355,House,
187,RIDGE VIEW DR,PISGAH FOREST,NC,28768,35.22042936,-82.66696385,House,
21,GREENBRIAR DR,PISGAH FOREST,NC,28768,35.21852995,-82.67036538,House,
