Number,Street,City,State,PostalCode,Latitude,Longitude,Type,ApartmentNumber
70,ABERDEEN LN,PISGAH FOREST,NC,28768,35.23701987,-82.67722336,House, 
131,ABERDEEN LN,PISGAH FOREST,NC,28768,35.23828253,-82.67658698,House, 
145,ABERDEEN LN,PISGAH FOREST,NC,28768,35.238182,-82.6758294,House, 
171,ABERDEEN LN,PISGAH FOREST,NC,28768,35.23743575,-82.67548036,House, 
207,ABERDEEN LN,PISGAH FOREST,NC,28768,35.23730857,-82.67487949,House, 
258,ABERDEEN LN,PISGAH FOREST,NC,28768,35.23570669,-82.6742762,House, 
267,ABERDEEN LN,PISGAH FOREST,NC,28768,35.23665386,-82.67427771,House, 
353,ABERDEEN LN,PISGAH FOREST,NC,28768,35.23726428,-82.67389206,House, 
380,ABERDEEN LN,PISGAH FOREST,NC,28768,35.23762132,-82.67283273,House, 
454,ABERDEEN LN,PISGAH FOREST,NC,28768,35.23847873,-82.6726503,House, 
467,ABERDEEN LN,PISGAH FOREST,NC,28768,35.23788604,-82.67434238,House, 
545,ABERDEEN LN,PISGAH FOREST,NC,28768,35.2386804,-82.67495544,House, 
560,ABERDEEN LN,PISGAH FOREST,NC,28768,35.2391432,-82.67412048,House, 
676,ABERDEEN LN,PISGAH FOREST,NC,28768,35.24008304,-82.67498014,House, 
682,ABERDEEN LN,PISGAH FOREST,NC,28768,35.24111056,-82.67419912,House, 
721,ABERDEEN LN,PISGAH FOREST,NC,28768,35.23917228,-82.67728199,House, 
752,ABERDEEN LN,PISGAH FOREST,NC,28768,35.24026005,-82.67624178,House, 
850,ABERDEEN LN,PISGAH FOREST,NC,28768,35.24136995,-82.67582304,House, 
870,ABERDEEN LN,PISGAH FOREST,NC,28768,35.24169344,-82.67672113,House, 
872,ABERDEEN LN,PISGAH FOREST,NC,28768,35.24227039,-82.67621453,House, 
935,ABERDEEN LN,PISGAH FOREST,NC,28768,35.24069121,-82.67780756,House, 
1011,ABERDEEN LN,PISGAH FOREST,NC,28768,35.24061326,-82.67850825,House, 
1170,ABERDEEN LN,PISGAH FOREST,NC,28768,35.24108165,-82.68042138,House, 
1200,ABERDEEN LN,PISGAH FOREST,NC,28768,35.24048528,-82.68086219,House, 
1211,ABERDEEN LN,PISGAH FOREST,NC,28768,35.23976868,-82.68029464,House, 
19,ARGYLL CIR,PISGAH FOREST,NC,28768,35.23456553,-82.67302881,House, 
77,ARGYLL CIR,PISGAH FOREST,NC,28768,35.23572421,-82.67265803,House, 
78,ARGYLL CIR,PISGAH FOREST,NC,28768,35.23572077,-82.67152352,House, 
145,ARGYLL CIR,PISGAH FOREST,NC,28768,35.23625452,-82.67215984,House, 
183,ARGYLL CIR,PISGAH FOREST,NC,28768,35.23712408,-82.67207914,House, 
184,ARGYLL CIR,PISGAH FOREST,NC,28768,35.23736616,-82.67131522,House, 
13,BLYTHE PARK DR,PISGAH FOREST,NC,28768,35.25382083,-82.70011137,House, 
78,BRUCE CIR,PISGAH FOREST,NC,28768,35.23646698,-82.67664712,House, 
107,BRUCE CIR,PISGAH FOREST,NC,28768,35.23586191,-82.6755712,House, 
141,BRUCE CIR,PISGAH FOREST,NC,28768,35.23475684,-82.67593543,House, 
146,BRUCE CIR,PISGAH FOREST,NC,28768,35.23591498,-82.67742194,House, 
148,BRUCE CIR,PISGAH FOREST,NC,28768,35.23508464,-82.67711995,House, 
665,CAMPBELL DR,PISGAH FOREST,NC,28768,35.23454104,-82.68499436,House, 
712,CAMPBELL DR,PISGAH FOREST,NC,28768,35.23430547,-82.6829529,House, 
749,CAMPBELL DR,PISGAH FOREST,NC,28768,35.2352226,-82.68397366,House, 
900,CAMPBELL DR,PISGAH FOREST,NC,28768,35.23571371,-82.68125177,House, 
901,CAMPBELL DR,PISGAH FOREST,NC,28768,35.2358791,-82.68234621,House, 
1026,CAMPBELL DR,PISGAH FOREST,NC,28768,35.23472463,-82.67960475,House, 
1028,CAMPBELL DR,PISGAH FOREST,NC,28768,35.23524422,-82.68005437,House, 
1043,CAMPBELL DR,PISGAH FOREST,NC,28768,35.23604981,-82.67959437,House, 
1123,CAMPBELL DR,PISGAH FOREST,NC,28768,35.23625315,-82.67883608,House, 
1160,CAMPBELL DR,PISGAH FOREST,NC,28768,35.23688746,-82.67773707,House, 
1236,CAMPBELL DR,PISGAH FOREST,NC,28768,35.23730089,-82.67870517,House, 
1251,CAMPBELL DR,PISGAH FOREST,NC,28768,35.23752167,-82.67988913,House, 
1252,CAMPBELL DR,PISGAH FOREST,NC,28768,35.23779558,-82.67867483,House, 
1273,CAMPBELL DR,PISGAH FOREST,NC,28768,35.23820992,-82.67951038,House, 
1320,CAMPBELL DR,PISGAH FOREST,NC,28768,35.23830794,-82.67821609,House, 
1400,CAMPBELL DR,PISGAH FOREST,NC,28768,35.23993155,-82.67862124,House, 
1415,CAMPBELL DR,PISGAH FOREST,NC,28768,35.23944999,-82.67912834,House, 
1436,CAMPBELL DR,PISGAH FOREST,NC,28768,35.24024891,-82.67956687,House, 
1483,CAMPBELL DR,PISGAH FOREST,NC,28768,35.23891096,-82.67963707,House, 
1521,CAMPBELL DR,PISGAH FOREST,NC,28768,35.23836557,-82.68009915,House, 
1567,CAMPBELL DR,PISGAH FOREST,NC,28768,35.23800665,-82.68098165,House, 
1591,CAMPBELL DR,PISGAH FOREST,NC,28768,35.2387953,-82.68133944,House, 
1612,CAMPBELL DR,PISGAH FOREST,NC,28768,35.23903113,-82.68061366,House, 
1629,CAMPBELL DR,PISGAH FOREST,NC,28768,35.23959347,-82.68153231,House, 
1728,CAMPBELL DR,PISGAH FOREST,NC,28768,35.24112977,-82.6816907,House, 
1766,CAMPBELL DR,PISGAH FOREST,NC,28768,35.24092779,-82.68268466,House, 
1820,CAMPBELL DR,PISGAH FOREST,NC,28768,35.24002069,-82.68272072,House, 
1848,CAMPBELL DR,PISGAH FOREST,NC,28768,35.23953313,-82.6826793,House, 
1888,CAMPBELL DR,PISGAH FOREST,NC,28768,35.23891386,-82.68264123,House, 
1980,CAMPBELL DR,PISGAH FOREST,NC,28768,35.23795249,-82.68373734,House, 
1981,CAMPBELL DR,PISGAH FOREST,NC,28768,35.23766909,-82.68298677,House, 
2032,CAMPBELL DR,PISGAH FOREST,NC,28768,35.23800588,-82.684698,House, 
2043,CAMPBELL DR,PISGAH FOREST,NC,28768,35.23696276,-82.68418587,House, 
2055,CAMPBELL DR,PISGAH FOREST,NC,28768,35.23691425,-82.68542805,House, 
2134,CAMPBELL DR,PISGAH FOREST,NC,28768,35.23797707,-82.68558307,House, 
2172,CAMPBELL DR,PISGAH FOREST,NC,28768,35.23797134,-82.6864741,House, 
2205,CAMPBELL DR,PISGAH FOREST,NC,28768,35.23722603,-82.68662582,House, 
2240,CAMPBELL DR,PISGAH FOREST,NC,28768,35.23742419,-82.68765763,House, 
26,CARR LUMBER COMPANY RD,PISGAH FOREST,NC,28768,35.25941985,-82.7042401,House, 
64,CARR LUMBER COMPANY RD,PISGAH FOREST,NC,28768,35.25934168,-82.70375899,House, 
93,CARR LUMBER COMPANY RD,PISGAH FOREST,NC,28768,35.25968527,-82.70315873,House, 
108,CARR LUMBER COMPANY RD,PISGAH FOREST,NC,28768,35.25935033,-82.7029792,House, 
115,CARR LUMBER COMPANY RD,PISGAH FOREST,NC,28768,35.259714,-82.70288875,House, 
122,CARR LUMBER COMPANY RD,PISGAH FOREST,NC,28768,35.25905024,-82.70255409,House, 
129,CARR LUMBER COMPANY RD,PISGAH FOREST,NC,28768,35.25965497,-82.70252406,House, 
130,CARR LUMBER COMPANY RD,PISGAH FOREST,NC,28768,35.2593411,-82.70251706,House, 
144,CARR LUMBER COMPANY RD,PISGAH FOREST,NC,28768,35.25927366,-82.70220377,House, 
179,CARR LUMBER COMPANY RD,PISGAH FOREST,NC,28768,35.25962371,-82.70164397,House, 
276,CARR LUMBER COMPANY RD,PISGAH FOREST,NC,28768,35.25877731,-82.70103228,House, 
285,CARR LUMBER COMPANY RD,PISGAH FOREST,NC,28768,35.2585892,-82.70078867,House, 
398,CARR LUMBER COMPANY RD,PISGAH FOREST,NC,28768,35.25722003,-82.70148519,House, 
416,CARR LUMBER COMPANY RD,PISGAH FOREST,NC,28768,35.25669171,-82.70191087,House, 
440,CARR LUMBER COMPANY RD,PISGAH FOREST,NC,28768,35.25650304,-82.70172174,House, 
86,DIVA LN,PISGAH FOREST,NC,28768,35.24651835,-82.67777757,House, 
100,DIVA LN,PISGAH FOREST,NC,28768,35.24715175,-82.67863234,House, 
127,DIVA LN,PISGAH FOREST,NC,28768,35.24563173,-82.67810396,House, 
178,DIVA LN,PISGAH FOREST,NC,28768,35.24644218,-82.67902132,House, 
824,ECUSTA RD,PISGAH FOREST,NC,28768,35.2590912,-82.70684864,House, 
832,ECUSTA RD,PISGAH FOREST,NC,28768,35.25833327,-82.70634716,House, 
879,ECUSTA RD,PISGAH FOREST,NC,28768,35.25973298,-82.70470289,House, 
939,ECUSTA RD,PISGAH FOREST,NC,28768,35.25940082,-82.70441126,House, 
948,ECUSTA RD,PISGAH FOREST,NC,28768,35.25862383,-82.70503713,House, 
949,ECUSTA RD,PISGAH FOREST,NC,28768,35.25918497,-82.7041801,House, 
961,ECUSTA RD,PISGAH FOREST,NC,28768,35.25902895,-82.70412858,House, 
963,ECUSTA RD,PISGAH FOREST,NC,28768,35.25887276,-82.70392163,House, 
970,ECUSTA RD,PISGAH FOREST,NC,28768,35.25820892,-82.70421421,House, 
971,ECUSTA RD,PISGAH FOREST,NC,28768,35.25868866,-82.70354637,House, 
979,ECUSTA RD,PISGAH FOREST,NC,28768,35.25853162,-82.70361384,House, 
997,ECUSTA RD,PISGAH FOREST,NC,28768,35.25830206,-82.70340422,House, 
1011,ECUSTA RD,PISGAH FOREST,NC,28768,35.25814329,-82.70324243,House, 
1076,ECUSTA RD,PISGAH FOREST,NC,28768,35.25672517,-82.70418439,House, 
1078,ECUSTA RD,PISGAH FOREST,NC,28768,35.25694212,-82.70569766,House, 
1089,ECUSTA RD,PISGAH FOREST,NC,28768,35.25727188,-82.70229713,House, 
1109,ECUSTA RD,PISGAH FOREST,NC,28768,35.25698334,-82.70197631,House, 
1126,ECUSTA RD,PISGAH FOREST,NC,28768,35.25662709,-82.70244594,House, 
1160,ECUSTA RD,PISGAH FOREST,NC,28768,35.25647153,-82.70232008,House, 
1178,ECUSTA RD,PISGAH FOREST,NC,28768,35.25620644,-82.70214116,House, 
1180,ECUSTA RD,PISGAH FOREST,NC,28768,35.25596564,-82.70174167,House, 
1181,ECUSTA RD,PISGAH FOREST,NC,28768,35.25618437,-82.70145227,House, 
1183,ECUSTA RD,PISGAH FOREST,NC,28768,35.25609504,-82.70148179,House, 
1185,ECUSTA RD,PISGAH FOREST,NC,28768,35.25603591,-82.70139042,House, 
1190,ECUSTA RD,PISGAH FOREST,NC,28768,35.25574875,-82.7023205,House, 
1203,ECUSTA RD,PISGAH FOREST,NC,28768,35.25626493,-82.70071525,House, 
1233,ECUSTA RD,PISGAH FOREST,NC,28768,35.25555016,-82.70066771,House, 
1242,ECUSTA RD,PISGAH FOREST,NC,28768,35.25529064,-82.70116005,House, 
1275,ECUSTA RD,PISGAH FOREST,NC,28768,35.25477544,-82.70003106,House, 
1291,ECUSTA RD,PISGAH FOREST,NC,28768,35.25465513,-82.70034591,House, 
1321,ECUSTA RD,PISGAH FOREST,NC,28768,35.25431642,-82.70002789,House, 
20,EVERETT RD,PISGAH FOREST,NC,28768,35.25294163,-82.68347574,House, 
402,EVERETT RD,PISGAH FOREST,NC,28768,35.24952539,-82.67811782,House, 
543,EVERETT RD,PISGAH FOREST,NC,28768,35.25160133,-82.67552978,House, 
641,EVERETT RD,PISGAH FOREST,NC,28768,35.25243811,-82.67412442,House, 
778,EVERETT RD,PISGAH FOREST,NC,28768,35.25388558,-82.67169493,House, 
793,EVERETT RD,PISGAH FOREST,NC,28768,35.25436777,-82.6723233,House, 
795,EVERETT RD,PISGAH FOREST,NC,28768,35.25458698,-82.67203064,House, 
931,EVERETT RD,PISGAH FOREST,NC,28768,35.25561492,-82.67107617,House, 
986,EVERETT RD,PISGAH FOREST,NC,28768,35.25548841,-82.66975773,House, 
1260,EVERETT RD,PISGAH FOREST,NC,28768,35.25644164,-82.66683687,House, 
1277,EVERETT RD,PISGAH FOREST,NC,28768,35.25838649,-82.66620707,House, 
1346,EVERETT RD,PISGAH FOREST,NC,28768,35.25751887,-82.66512537,House, 
1373,EVERETT RD,PISGAH FOREST,NC,28768,35.25845245,-82.66452051,House, 
1407,EVERETT RD,PISGAH FOREST,NC,28768,35.25815736,-82.6636666,House, 
1454,EVERETT RD,PISGAH FOREST,NC,28768,35.25746897,-82.66303008,House, 
1506,EVERETT RD,PISGAH FOREST,NC,28768,35.25725147,-82.66243469,House, 
1605,EVERETT RD,PISGAH FOREST,NC,28768,35.25719859,-82.66112232,House, 
1671,EVERETT RD,PISGAH FOREST,NC,28768,35.2570011,-82.65966094,House, 
1755,EVERETT RD,PISGAH FOREST,NC,28768,35.25693527,-82.65837938,House, 
1829,EVERETT RD,PISGAH FOREST,NC,28768,35.25592234,-82.65706001,House, 
1970,EVERETT RD,PISGAH FOREST,NC,28768,35.25257784,-82.65901935,House, 
16,EVERETT RD,PISGAH FOREST,NC,28768,35.25296884,-82.68380243,House,APT A
16,EVERETT RD,PISGAH FOREST,NC,28768,35.25296884,-82.68380243,House,APT B
16,EVERETT RD,PISGAH FOREST,NC,28768,35.25296884,-82.68380243,House,APT C
16,EVERETT RD,PISGAH FOREST,NC,28768,35.25296884,-82.68380243,House,APT D
11,FLORAL DR,PISGAH FOREST,NC,28768,35.25328622,-82.67183381,House, 
12,FLORAL DR,PISGAH FOREST,NC,28768,35.25176612,-82.67286956,House, 
13,FLORAL DR,PISGAH FOREST,NC,28768,35.25262404,-82.6723464,House, 
100,FLORAL DR,PISGAH FOREST,NC,28768,35.2519954,-82.67191799,House, 
20,FRIENDSHIP LN,PISGAH FOREST,NC,28768,35.2551039,-82.67048994,House, 
170,FRIENDSHIP LN,PISGAH FOREST,NC,28768,35.25300435,-82.66931955,House, 
262,FRIENDSHIP LN,PISGAH FOREST,NC,28768,35.25208913,-82.66928587,House, 
315,FRIENDSHIP LN,PISGAH FOREST,NC,28768,35.25306988,-82.66781104,House, 
396,FRIENDSHIP LN,PISGAH FOREST,NC,28768,35.25362131,-82.66672545,House, 
406,FRIENDSHIP LN,PISGAH FOREST,NC,28768,35.25433848,-82.66657059,House, 
470,FRIENDSHIP LN,PISGAH FOREST,NC,28768,35.25520749,-82.66685155,House, 
481,FRIENDSHIP LN,PISGAH FOREST,NC,28768,35.25465713,-82.66754652,House, 
510,FRIENDSHIP LN,PISGAH FOREST,NC,28768,35.25596686,-82.66723959,House, 
585,FRIENDSHIP LN,PISGAH FOREST,NC,28768,35.25617703,-82.66874972,House, 
586,FRIENDSHIP LN,PISGAH FOREST,NC,28768,35.25662068,-82.66773945,House, 
587,FRIENDSHIP LN,PISGAH FOREST,NC,28768,35.25662612,-82.66835654,House, 
12,GLADIOLA DR,PISGAH FOREST,NC,28768,35.25416453,-82.67016016,House, 
36,GLADIOLA DR,PISGAH FOREST,NC,28768,35.25346534,-82.67093586,House, 
146,GLADIOLA DR,PISGAH FOREST,NC,28768,35.25257063,-82.67084714,House, 
188,GLADIOLA DR,PISGAH FOREST,NC,28768,35.2518165,-82.67115655,House, 
240,GLADIOLA DR,PISGAH FOREST,NC,28768,35.25128446,-82.67151428,House, 
64,GLEN CANNON DR,PISGAH FOREST,NC,28768,35.23485642,-82.70109617,House, 
67,GLEN CANNON DR,PISGAH FOREST,NC,28768,35.23384403,-82.70029899,House, 
140,GLEN CANNON DR,PISGAH FOREST,NC,28768,35.23420781,-82.70151603,House, 
1506,GLEN CANNON DR,PISGAH FOREST,NC,28768,35.23395342,-82.68635209,House, 
1507,GLEN CANNON DR,PISGAH FOREST,NC,28768,35.23427748,-82.68725297,House, 
1518,GLEN CANNON DR,PISGAH FOREST,NC,28768,35.23470905,-82.68634275,House, 
1611,GLEN CANNON DR,PISGAH FOREST,NC,28768,35.23535218,-82.68769942,House, 
1621,GLEN CANNON DR,PISGAH FOREST,NC,28768,35.23559533,-82.68800993,House, 
1663,GLEN CANNON DR,PISGAH FOREST,NC,28768,35.23605601,-82.68776205,House, 
1664,GLEN CANNON DR,PISGAH FOREST,NC,28768,35.23640036,-82.68686077,House, 
1695,GLEN CANNON DR,PISGAH FOREST,NC,28768,35.23658515,-82.68822167,House, 
1725,GLEN CANNON DR,PISGAH FOREST,NC,28768,35.23678946,-82.68849706,House, 
1784,GLEN CANNON DR,PISGAH FOREST,NC,28768,35.23790287,-82.68897749,House, 
1793,GLEN CANNON DR,PISGAH FOREST,NC,28768,35.23689858,-82.68927805,House, 
1800,GLEN CANNON DR,PISGAH FOREST,NC,28768,35.23769636,-82.689656,House, 
1813,GLEN CANNON DR,PISGAH FOREST,NC,28768,35.23669637,-82.68954954,House,UNIT 1
1813,GLEN CANNON DR,PISGAH FOREST,NC,28768,35.23666544,-82.68963052,House,UNIT 2
1813,GLEN CANNON DR,PISGAH FOREST,NC,28768,35.23663096,-82.68971133,House,UNIT 3
1813,GLEN CANNON DR,PISGAH FOREST,NC,28768,35.23661832,-82.6897758,House,UNIT 4
1883,GLEN CANNON DR,PISGAH FOREST,NC,28768,35.23661888,-82.69129344,House, 
1967,GLEN CANNON DR,PISGAH FOREST,NC,28768,35.23644444,-82.69224744,House, 
1991,GLEN CANNON DR,PISGAH FOREST,NC,28768,35.23609795,-82.69268522,House, 
2061,GLEN CANNON DR,PISGAH FOREST,NC,28768,35.23630595,-82.69324446,House, 
2073,GLEN CANNON DR,PISGAH FOREST,NC,28768,35.23565711,-82.6935944,House, 
14,GLEN CANNON PT,PISGAH FOREST,NC,28768,35.23672161,-82.69040268,House,UNIT 1
14,GLEN CANNON PT,PISGAH FOREST,NC,28768,35.23665504,-82.69036931,House,UNIT 2
14,GLEN CANNON PT,PISGAH FOREST,NC,28768,35.23660005,-82.69030611,House,UNIT 3
14,GLEN CANNON PT,PISGAH FOREST,NC,28768,35.23653085,-82.69024227,House,UNIT 4
14,GLEN CANNON PT,PISGAH FOREST,NC,28768,35.23646165,-82.69017844,House,UNIT 5
37,GLEN CANNON PT,PISGAH FOREST,NC,28768,35.2361588,-82.68972141,House,UNIT 1
37,GLEN CANNON PT,PISGAH FOREST,NC,28768,35.23615039,-82.68964732,House,UNIT 2
37,GLEN CANNON PT,PISGAH FOREST,NC,28768,35.23617014,-82.68958317,House,UNIT 3
37,GLEN CANNON PT,PISGAH FOREST,NC,28768,35.23615502,-82.68949577,House,UNIT 4
48,GLEN CANNON PT,PISGAH FOREST,NC,28768,35.23627698,-82.69017978,House,UNIT 1
48,GLEN CANNON PT,PISGAH FOREST,NC,28768,35.23620856,-82.69020703,House,UNIT 2
48,GLEN CANNON PT,PISGAH FOREST,NC,28768,35.23612291,-82.69021615,House,UNIT 3
48,GLEN CANNON PT,PISGAH FOREST,NC,28768,35.23606278,-82.69020476,House,UNIT 4
76,GLEN CANNON PT,PISGAH FOREST,NC,28768,35.23590812,-82.69023229,House,UNIT 1
76,GLEN CANNON PT,PISGAH FOREST,NC,28768,35.23583285,-82.69025056,House,UNIT 2
76,GLEN CANNON PT,PISGAH FOREST,NC,28768,35.23569023,-82.69026144,House,UNIT 3
76,GLEN CANNON PT,PISGAH FOREST,NC,28768,35.23576154,-82.690256,House,UNIT 4
108,GLEN CANNON PT,PISGAH FOREST,NC,28768,35.2355563,-82.69033169,House,UNIT 1
108,GLEN CANNON PT,PISGAH FOREST,NC,28768,35.23550827,-82.69039021,House,UNIT 2
108,GLEN CANNON PT,PISGAH FOREST,NC,28768,35.2354955,-82.69045901,House,UNIT 3
108,GLEN CANNON PT,PISGAH FOREST,NC,28768,35.23544983,-82.69055666,House,UNIT 4
130,GLEN CANNON PT,PISGAH FOREST,NC,28768,35.23531083,-82.69073095,House,UNIT 1
130,GLEN CANNON PT,PISGAH FOREST,NC,28768,35.23534808,-82.69067628,House,UNIT 2
130,GLEN CANNON PT,PISGAH FOREST,NC,28768,35.23526885,-82.69082443,House,UNIT 3
130,GLEN CANNON PT,PISGAH FOREST,NC,28768,35.2352245,-82.69087879,House,UNIT 4
141,GLEN CANNON PT,PISGAH FOREST,NC,28768,35.23491254,-82.69061909,House,UNIT 1
141,GLEN CANNON PT,PISGAH FOREST,NC,28768,35.23486766,-82.69069076,House,UNIT 2
148,GLEN CANNON PT,PISGAH FOREST,NC,28768,35.23508299,-82.69112263,House,UNIT 1
148,GLEN CANNON PT,PISGAH FOREST,NC,28768,35.23512524,-82.69102049,House,UNIT 2
157,GLEN CANNON PT,PISGAH FOREST,NC,28768,35.23471541,-82.69077721,House,UNIT 1
157,GLEN CANNON PT,PISGAH FOREST,NC,28768,35.23465818,-82.69078762,House,UNIT 2
157,GLEN CANNON PT,PISGAH FOREST,NC,28768,35.23453791,-82.69088189,House,UNIT 3
157,GLEN CANNON PT,PISGAH FOREST,NC,28768,35.23460331,-82.69083716,House,UNIT 4
164,GLEN CANNON PT,PISGAH FOREST,NC,28768,35.23503349,-82.69133947,House,UNIT 1
164,GLEN CANNON PT,PISGAH FOREST,NC,28768,35.2349669,-82.69142317,House,UNIT 2
174,GLEN CANNON PT,PISGAH FOREST,NC,28768,35.23473199,-82.69152505,House,UNIT 1
174,GLEN CANNON PT,PISGAH FOREST,NC,28768,35.23480527,-82.69157173,House,UNIT 2
174,GLEN CANNON PT,PISGAH FOREST,NC,28768,35.23458608,-82.69152711,House,UNIT 3
174,GLEN CANNON PT,PISGAH FOREST,NC,28768,35.23465936,-82.69157379,House,UNIT 4
175,GLEN CANNON PT,PISGAH FOREST,NC,28768,35.23446166,-82.69108534,House,UNIT 1
175,GLEN CANNON PT,PISGAH FOREST,NC,28768,35.23445863,-82.69118492,House,UNIT 2
175,GLEN CANNON PT,PISGAH FOREST,NC,28768,35.23445915,-82.69132923,House,UNIT 3
175,GLEN CANNON PT,PISGAH FOREST,NC,28768,35.23445625,-82.69126285,House,UNIT 4
95,GLENGARRY HTS,PISGAH FOREST,NC,28768,35.24122384,-82.68113142,House, 
150,HAWKINS HOLLOW RD,PISGAH FOREST,NC,28768,35.23670247,-82.66180053,House, 
20,HIGHWAY TO HEAVEN,PISGAH FOREST,NC,28768,35.24711893,-82.67387203,House, 
160,HIGHWAY TO HEAVEN,PISGAH FOREST,NC,28768,35.24535954,-82.67403933,House, 
181,HIGHWAY TO HEAVEN,PISGAH FOREST,NC,28768,35.24620219,-82.67427012,House, 
207,HIGHWAY TO HEAVEN,PISGAH FOREST,NC,28768,35.24608879,-82.67360718,House, 
270,HIGHWAY TO HEAVEN,PISGAH FOREST,NC,28768,35.24523377,-82.67352612,House, 
296,HIGHWAY TO HEAVEN,PISGAH FOREST,NC,28768,35.244879,-82.67358328,House, 
40,KILDRUMMY DR,PISGAH FOREST,NC,28768,35.24201905,-82.68098769,House, 
166,KILDRUMMY DR,PISGAH FOREST,NC,28768,35.24190361,-82.67953942,House, 
300,KILDRUMMY DR,PISGAH FOREST,NC,28768,35.24213192,-82.67763004,House, 
24,MIDDLEMOUNT RD,PISGAH FOREST,NC,28768,35.23414937,-82.70473632,House, 
29,MIDDLEMOUNT RD,PISGAH FOREST,NC,28768,35.2343208,-82.70409566,House, 
169,MIDDLEMOUNT RD,PISGAH FOREST,NC,28768,35.23442363,-82.70189064,House, 
180,MIDDLEMOUNT RD,PISGAH FOREST,NC,28768,35.23419526,-82.70250043,House, 
1626,OLD HENDERSONVILLE HWY,PISGAH FOREST,NC,28768,35.25385724,-82.69979936,House,APT 1
1628,OLD HENDERSONVILLE HWY,PISGAH FOREST,NC,28768,35.25358811,-82.69966313,House,APT 2
1628,OLD HENDERSONVILLE HWY,PISGAH FOREST,NC,28768,35.25350803,-82.69957253,House, 
1640,OLD HENDERSONVILLE HWY,PISGAH FOREST,NC,28768,35.2537116,-82.69943522,House, 
1692,OLD HENDERSONVILLE HWY,PISGAH FOREST,NC,28768,35.25269893,-82.69884851,House, 
1699,OLD HENDERSONVILLE HWY,PISGAH FOREST,NC,28768,35.25451162,-82.6994593,House, 
1767,OLD HENDERSONVILLE HWY,PISGAH FOREST,NC,28768,35.25495059,-82.69857618,House, 
2381,OLD HENDERSONVILLE HWY,PISGAH FOREST,NC,28768,35.25348304,-82.68836483,House, 
2551,OLD HENDERSONVILLE HWY,PISGAH FOREST,NC,28768,35.25485264,-82.68460744,House, 
2581,OLD HENDERSONVILLE HWY,PISGAH FOREST,NC,28768,35.25327042,-82.68643289,House, 
2583,OLD HENDERSONVILLE HWY,PISGAH FOREST,NC,28768,35.25323667,-82.6860374,House, 
2598,OLD HENDERSONVILLE HWY,PISGAH FOREST,NC,28768,35.25266852,-82.68436541,House, 
2639,OLD HENDERSONVILLE HWY,PISGAH FOREST,NC,28768,35.25371881,-82.68394687,House, 
2843,OLD HENDERSONVILLE HWY,PISGAH FOREST,NC,28768,35.25866622,-82.68301421,House, 
3320,OLD HENDERSONVILLE HWY,PISGAH FOREST,NC,28768,35.25953536,-82.67822827,House, 
50,PATTON MOUNTAIN RD,PISGAH FOREST,NC,28768,35.25073866,-82.67516471,House, 
168,PATTON MOUNTAIN RD,PISGAH FOREST,NC,28768,35.25008633,-82.67623414,House, 
245,PATTON MOUNTAIN RD,PISGAH FOREST,NC,28768,35.24951942,-82.67445913,House, 
249,PATTON MOUNTAIN RD,PISGAH FOREST,NC,28768,35.2493673,-82.67456307,House, 
334,PATTON MOUNTAIN RD,PISGAH FOREST,NC,28768,35.24939931,-82.67534986,House, 
394,PATTON MOUNTAIN RD,PISGAH FOREST,NC,28768,35.24899788,-82.67544862,House, 
396,PATTON MOUNTAIN RD,PISGAH FOREST,NC,28768,35.24863975,-82.67590698,House, 
398,PATTON MOUNTAIN RD,PISGAH FOREST,NC,28768,35.24853508,-82.67542245,House, 
420,PATTON MOUNTAIN RD,PISGAH FOREST,NC,28768,35.24767642,-82.67555424,House, 
454,PATTON MOUNTAIN RD,PISGAH FOREST,NC,28768,35.2472851,-82.67470534,House, 
457,PATTON MOUNTAIN RD,PISGAH FOREST,NC,28768,35.24803643,-82.67411232,House, 
467,PATTON MOUNTAIN RD,PISGAH FOREST,NC,28768,35.24817286,-82.6747821,House, 
521,PATTON MOUNTAIN RD,PISGAH FOREST,NC,28768,35.24781591,-82.67316072,House, 
539,PATTON MOUNTAIN RD,PISGAH FOREST,NC,28768,35.24774639,-82.67274134,House, 
574,PATTON MOUNTAIN RD,PISGAH FOREST,NC,28768,35.24691563,-82.67293969,House, 
608,PATTON MOUNTAIN RD,PISGAH FOREST,NC,28768,35.24630404,-82.67221036,House, 
615,PATTON MOUNTAIN RD,PISGAH FOREST,NC,28768,35.24645644,-82.67179052,House, 
819,PATTON MOUNTAIN RD,PISGAH FOREST,NC,28768,35.24320261,-82.66935328,House, 
955,PATTON MOUNTAIN RD,PISGAH FOREST,NC,28768,35.24235906,-82.67173709,House, 
33,POPLAR CREST DR,PISGAH FOREST,NC,28768,35.24731916,-82.6881486,House, 
141,POPLAR CREST DR,PISGAH FOREST,NC,28768,35.24648209,-82.68960308,House, 
181,POPLAR CREST DR,PISGAH FOREST,NC,28768,35.24661978,-82.6902506,House, 
246,POPLAR CREST DR,PISGAH FOREST,NC,28768,35.24694882,-82.6912687,House, 
293,POPLAR LN,PISGAH FOREST,NC,28768,35.24748071,-82.68074399,House, 
551,POPLAR LN,PISGAH FOREST,NC,28768,35.24683311,-82.68579248,House, 
567,POPLAR LN,PISGAH FOREST,NC,28768,35.2472895,-82.68588032,House, 
605,POPLAR LN,PISGAH FOREST,NC,28768,35.24743747,-82.68630994,House, 
607,POPLAR LN,PISGAH FOREST,NC,28768,35.24735104,-82.68629946,House, 
676,POPLAR LN,PISGAH FOREST,NC,28768,35.24799792,-82.68771435,House, 
740,POPLAR LN,PISGAH FOREST,NC,28768,35.24837488,-82.6884925,House, 
745,POPLAR LN,PISGAH FOREST,NC,28768,35.24834516,-82.68897743,House, 
859,POPLAR LN,PISGAH FOREST,NC,28768,35.24785045,-82.68951719,House, 
