Number,Street,City,State,PostalCode,Latitude,Longitude,Type,ApartmentNumber
278,KELLY LN,PISGAH FOREST,NC,28768,35.27557629,-82.68507411,House, 
301,KELLY LN,PISGAH FOREST,NC,28768,35.2759081,-82.68522921,House, 
321,KELLY LN,PISGAH FOREST,NC,28768,35.27615838,-82.68500345,House, 
333,KELLY LN,PISGAH FOREST,NC,28768,35.27624756,-82.68479974,House, 
355,KELLY LN,PISGAH FOREST,NC,28768,35.27629105,-82.68440143,House, 
387,KELLY LN,PISGAH FOREST,NC,28768,35.2760586,-82.68357695,House, 
479,KELLY LN,PISGAH FOREST,NC,28768,35.27536976,-82.68225719,House, 
481,KELLY LN,PISGAH FOREST,NC,28768,35.27426902,-82.68231589,House, 
496,KELLY LN,PISGAH FOREST,NC,28768,35.2745727,-82.68334008,House, 
526,KELLY LN,PISGAH FOREST,NC,28768,35.27411928,-82.68356342,House, 
561,KELLY LN,PISGAH FOREST,NC,28768,35.27356898,-82.68287937,House, 
562,KELLY LN,PISGAH FOREST,NC,28768,35.27364127,-82.68359527,House, 
591,KELLY LN,PISGAH FOREST,NC,28768,35.2730565,-82.68280337,House, 
614,KELLY LN,PISGAH FOREST,NC,28768,35.27272729,-82.68342605,House, 
621,KELLY LN,PISGAH FOREST,NC,28768,35.27265185,-82.68289338,House, 
40,KEMP RD,PISGAH FOREST,NC,28768,35.26560378,-82.67802323,House, 
43,KEMP RD,PISGAH FOREST,NC,28768,35.2663217,-82.6788085,House, 
153,KEMP RD,PISGAH FOREST,NC,28768,35.26721963,-82.67838777,House, 
165,KEMP RD,PISGAH FOREST,NC,28768,35.26796575,-82.6783067,House, 
248,KEMP RD,PISGAH FOREST,NC,28768,35.26773372,-82.67647636,House, 
254,KEMP RD,PISGAH FOREST,NC,28768,35.26811818,-82.67666502,House, 
255,KEMP RD,PISGAH FOREST,NC,28768,35.26766342,-82.67697267,House, 
323,KEMP RD,PISGAH FOREST,NC,28768,35.26880627,-82.67751124,House, 
16,KRISTIE LN,PISGAH FOREST,NC,28768,35.27164273,-82.68885392,House, 
21,KRISTIE LN,PISGAH FOREST,NC,28768,35.2719293,-82.6888504,House, 
30,KRISTIE LN,PISGAH FOREST,NC,28768,35.27162002,-82.688579,House, 
34,KRISTIE LN,PISGAH FOREST,NC,28768,35.2716787,-82.68827886,House, 
40,KRISTIE LN,PISGAH FOREST,NC,28768,35.27164347,-82.68796827,House, 
45,KRISTIE LN,PISGAH FOREST,NC,28768,35.27205908,-82.68858096,House, 
50,KRISTIE LN,PISGAH FOREST,NC,28768,35.27189662,-82.68830747,House, 
55,KRISTIE LN,PISGAH FOREST,NC,28768,35.27213293,-82.68841665,House, 
56,KRISTIE LN,PISGAH FOREST,NC,28768,35.27195049,-82.68815273,House, 
69,KRISTIE LN,PISGAH FOREST,NC,28768,35.27222618,-82.68818259,House, 
83,KRISTIE LN,PISGAH FOREST,NC,28768,35.27230781,-82.68798188,House, 
84,KRISTIE LN,PISGAH FOREST,NC,28768,35.27208076,-82.68785936,House, 
87,KRISTIE LN,PISGAH FOREST,NC,28768,35.2724012,-82.68782285,House, 
92,KRISTIE LN,PISGAH FOREST,NC,28768,35.27223004,-82.6876014,House, 
103,KRISTIE LN,PISGAH FOREST,NC,28768,35.27245476,-82.68760181,House, 
115,KRISTIE LN,PISGAH FOREST,NC,28768,35.27256853,-82.68741615,House, 
124,KRISTIE LN,PISGAH FOREST,NC,28768,35.27245132,-82.68713839,House, 
125,KRISTIE LN,PISGAH FOREST,NC,28768,35.27269884,-82.68705765,House, 
12,LACEY LN,PISGAH FOREST,NC,28768,35.28396976,-82.68800861,House, 
45,LACEY LN,PISGAH FOREST,NC,28768,35.28260077,-82.68819351,House, 
72,LACEY LN,PISGAH FOREST,NC,28768,35.28347843,-82.68815135,House, 
92,LACEY LN,PISGAH FOREST,NC,28768,35.28319474,-82.68839015,House, 
101,LACEY LN,PISGAH FOREST,NC,28768,35.28296627,-82.68860231,House, 
225,LACEY LN,PISGAH FOREST,NC,28768,35.28245835,-82.69000033,House, 
22,LANDRETH LN,PISGAH FOREST,NC,28768,35.27842663,-82.67073874,House, 
71,LANDRETH LN,PISGAH FOREST,NC,28768,35.27880756,-82.67143798,House, 
121,LANDRETH LN,PISGAH FOREST,NC,28768,35.27915977,-82.67063168,House, 
161,LANDRETH LN,PISGAH FOREST,NC,28768,35.27954126,-82.67013054,House, 
81,LANKFORD RD,PISGAH FOREST,NC,28768,35.26594864,-82.67273047,House, 
83,LANKFORD RD,PISGAH FOREST,NC,28768,35.26566643,-82.67297044,House, 
116,LANKFORD RD,PISGAH FOREST,NC,28768,35.2665474,-82.67356578,House, 
117,LANKFORD RD,PISGAH FOREST,NC,28768,35.26594358,-82.67482816,House, 
118,LANKFORD RD,PISGAH FOREST,NC,28768,35.26741366,-82.6735482,House, 
119,LANKFORD RD,PISGAH FOREST,NC,28768,35.26652108,-82.67447834,House, 
40,LITTLE COVE FARM LN,PISGAH FOREST,NC,28768,35.27678668,-82.67685684,House, 
88,LITTLE COVE FARM LN,PISGAH FOREST,NC,28768,35.27736579,-82.67703463,House, 
89,LITTLE COVE FARM LN,PISGAH FOREST,NC,28768,35.27705179,-82.6772259,House, 
91,LITTLE COVE FARM LN,PISGAH FOREST,NC,28768,35.27692635,-82.67756753,House, 
98,LITTLE COVE FARM LN,PISGAH FOREST,NC,28768,35.27741001,-82.67736068,House, 
50,LOCUST LN,PISGAH FOREST,NC,28768,35.27534784,-82.67477669,House, 
55,LOCUST LN,PISGAH FOREST,NC,28768,35.27544491,-82.67497083,House, 
85,LOCUST LN,PISGAH FOREST,NC,28768,35.27586097,-82.67487394,House, 
97,LOCUST LN,PISGAH FOREST,NC,28768,35.27602253,-82.67483442,House, 
19,LORI LN,PISGAH FOREST,NC,28768,35.27295126,-82.68536531,House, 
20,LORI LN,PISGAH FOREST,NC,28768,35.27349649,-82.68528588,House, 
49,LORI LN,PISGAH FOREST,NC,28768,35.27297662,-82.68598592,House, 
60,LORI LN,PISGAH FOREST,NC,28768,35.27345342,-82.68587451,House, 
72,LORI LN,PISGAH FOREST,NC,28768,35.2730613,-82.68669218,House, 
105,LORI LN,PISGAH FOREST,NC,28768,35.27361926,-82.68672752,House, 
108,LORI LN,PISGAH FOREST,NC,28768,35.27395783,-82.686011,House, 
113,LORI LN,PISGAH FOREST,NC,28768,35.27413044,-82.68648784,House, 
41,LYDAY CREEK RD,PISGAH FOREST,NC,28768,35.278555,-82.65942757,House, 
121,LYDAY CREEK RD,PISGAH FOREST,NC,28768,35.27942023,-82.658951,House, 
233,LYDAY CREEK RD,PISGAH FOREST,NC,28768,35.28102506,-82.65984549,House, 
291,LYDAY CREEK RD,PISGAH FOREST,NC,28768,35.28074283,-82.66097667,House, 
297,LYDAY CREEK RD,PISGAH FOREST,NC,28768,35.28202403,-82.66033821,House, 
395,LYDAY CREEK RD,PISGAH FOREST,NC,28768,35.28259724,-82.66078526,House, 
398,LYDAY CREEK RD,PISGAH FOREST,NC,28768,35.28288827,-82.66079539,House, 
408,LYDAY CREEK RD,PISGAH FOREST,NC,28768,35.28382676,-82.66151105,House, 
412,LYDAY CREEK RD,PISGAH FOREST,NC,28768,35.28392501,-82.66315929,House, 
555,LYDAY CREEK RD,PISGAH FOREST,NC,28768,35.28285428,-82.66362027,House, 
571,LYDAY CREEK RD,PISGAH FOREST,NC,28768,35.28312311,-82.66359395,House, 
598,LYDAY CREEK RD,PISGAH FOREST,NC,28768,35.28416176,-82.66374803,House, 
625,LYDAY CREEK RD,PISGAH FOREST,NC,28768,35.28370795,-82.66443844,House, 
174,LYDAY LOOP,PISGAH FOREST,NC,28768,35.27534332,-82.66114257,House, 
176,LYDAY LOOP,PISGAH FOREST,NC,28768,35.27565015,-82.66237803,House, 
317,LYDAY LOOP,PISGAH FOREST,NC,28768,35.27687882,-82.660631,House, 
370,LYDAY LOOP,PISGAH FOREST,NC,28768,35.27687443,-82.65990629,House, 
374,LYDAY LOOP,PISGAH FOREST,NC,28768,35.27693348,-82.65985684,House, 
401,LYDAY LOOP,PISGAH FOREST,NC,28768,35.27740197,-82.65979517,House, 
489,LYDAY LOOP,PISGAH FOREST,NC,28768,35.27815422,-82.65734544,House, 
587,LYDAY LOOP,PISGAH FOREST,NC,28768,35.27816649,-82.65709359,House, 
61,DIRT RD,PISGAH FOREST,NC,28768,35.26241238,-82.69509956,House, 
99,DIRT RD,PISGAH FOREST,NC,28768,35.26209202,-82.69452579,Other, 
5,MATHIS DR,PISGAH FOREST,NC,28768,35.27465021,-82.67551223,House, 
7,MATHIS DR,PISGAH FOREST,NC,28768,35.27462879,-82.67553434,House, 
65,MATHIS DR,PISGAH FOREST,NC,28768,35.27381708,-82.67658047,House, 
76,MATHIS DR,PISGAH FOREST,NC,28768,35.27424412,-82.67643416,House, 
56,MAX WILSON RIDGE RD,PISGAH FOREST,NC,28768,35.27929072,-82.67780108,House, 
234,MAX WILSON RIDGE RD,PISGAH FOREST,NC,28768,35.2808966,-82.67703464,House, 
300,MAX WILSON RIDGE RD,PISGAH FOREST,NC,28768,35.28108072,-82.677917,House, 
12,MCCALL RD,PISGAH FOREST,NC,28768,35.26518604,-82.68002554,House, 
55,MCCALL RD,PISGAH FOREST,NC,28768,35.26448554,-82.67996032,House, 
63,MCCALL RD,PISGAH FOREST,NC,28768,35.26471073,-82.68047974,House, 
86,MCCALL RD,PISGAH FOREST,NC,28768,35.2652372,-82.68046472,House, 
122,MCCALL RD,PISGAH FOREST,NC,28768,35.26559614,-82.68047068,House, 
161,MCCALL RD,PISGAH FOREST,NC,28768,35.26523802,-82.68120588,House, 
164,MCCALL RD,PISGAH FOREST,NC,28768,35.26543195,-82.68178764,House, 
20,MEADOW LARK DR,PISGAH FOREST,NC,28768,35.27133625,-82.68422506,House, 
21,MEADOW LARK DR,PISGAH FOREST,NC,28768,35.27191335,-82.68360515,House, 
58,MEADOW LARK DR,PISGAH FOREST,NC,28768,35.27143921,-82.68352625,House, 
66,MEADOW LARK DR,PISGAH FOREST,NC,28768,35.27191925,-82.68324829,House, 
9,METCALF DR,PISGAH FOREST,NC,28768,35.26096232,-82.6974759,House, 
12,METCALF DR,PISGAH FOREST,NC,28768,35.26094496,-82.69704717,House, 
13,METCALF DR,PISGAH FOREST,NC,28768,35.26107994,-82.6974899,House, 
18,METCALF DR,PISGAH FOREST,NC,28768,35.26105537,-82.69705427,House, 
19,METCALF DR,PISGAH FOREST,NC,28768,35.26118935,-82.69749024,House, 
24,METCALF DR,PISGAH FOREST,NC,28768,35.26116788,-82.6970587,House, 
25,METCALF DR,PISGAH FOREST,NC,28768,35.26130797,-82.69750679,House, 
30,METCALF DR,PISGAH FOREST,NC,28768,35.26128113,-82.69703947,House, 
62,MOUNTAIN VIEW LN,PISGAH FOREST,NC,28768,35.26615776,-82.69840169,House, 
72,MOUNTAIN VIEW LN,PISGAH FOREST,NC,28768,35.26613801,-82.69822189,House, 
73,MOUNTAIN VIEW LN,PISGAH FOREST,NC,28768,35.26640242,-82.69813166,House, 
82,MOUNTAIN VIEW LN,PISGAH FOREST,NC,28768,35.26613874,-82.69804345,House, 
83,MOUNTAIN VIEW LN,PISGAH FOREST,NC,28768,35.26638924,-82.6979648,House, 
92,MOUNTAIN VIEW LN,PISGAH FOREST,NC,28768,35.26612932,-82.69784936,House, 
93,MOUNTAIN VIEW LN,PISGAH FOREST,NC,28768,35.26639053,-82.69784864,House, 
102,MOUNTAIN VIEW LN,PISGAH FOREST,NC,28768,35.26613644,-82.69764418,House, 
103,MOUNTAIN VIEW LN,PISGAH FOREST,NC,28768,35.2663753,-82.69763697,House, 
112,MOUNTAIN VIEW LN,PISGAH FOREST,NC,28768,35.2661166,-82.6974733,House, 
113,MOUNTAIN VIEW LN,PISGAH FOREST,NC,28768,35.26636282,-82.69744122,House, 
123,MOUNTAIN VIEW LN,PISGAH FOREST,NC,28768,35.26635932,-82.69726957,House, 
132,MOUNTAIN VIEW LN,PISGAH FOREST,NC,28768,35.26600865,-82.6971403,House, 
137,MOUNTAIN VIEW LN,PISGAH FOREST,NC,28768,35.26636299,-82.69706677,House, 
44,N BLACK HAWK RD,PISGAH FOREST,NC,28768,35.26996326,-82.67175427,House, 
94,N BLACK HAWK RD,PISGAH FOREST,NC,28768,35.26969082,-82.67191107,House, 
139,N BLACK HAWK RD,PISGAH FOREST,NC,28768,35.26897892,-82.67241371,House, 
14,NA WEST DR,PISGAH FOREST,NC,28768,35.27033974,-82.6931201,House, 
15,NA WEST DR,PISGAH FOREST,NC,28768,35.27030875,-82.69286838,House, 
26,NA WEST DR,PISGAH FOREST,NC,28768,35.27017782,-82.69312253,House, 
27,NA WEST DR,PISGAH FOREST,NC,28768,35.27015408,-82.69286274,House, 
36,NA WEST DR,PISGAH FOREST,NC,28768,35.2700566,-82.69312761,House, 
41,NA WEST DR,PISGAH FOREST,NC,28768,35.26998306,-82.69291669,House, 
35,NENA'S PL,PISGAH FOREST,NC,28768,35.27567938,-82.67685136,House, 
36,NENA'S PL,PISGAH FOREST,NC,28768,35.27570186,-82.67705091,House, 
37,NENA'S PL,PISGAH FOREST,NC,28768,35.27565253,-82.67685797,House, 
75,NENA'S PL,PISGAH FOREST,NC,28768,35.27514411,-82.67690804,House, 
29,NORMCOL DR,PISGAH FOREST,NC,28768,35.28066424,-82.68489706,House, 
61,NORMCOL DR,PISGAH FOREST,NC,28768,35.28130553,-82.68460259,House, 
93,NORMCOL DR,PISGAH FOREST,NC,28768,35.28140706,-82.68436063,House, 
124,NORMCOL DR,PISGAH FOREST,NC,28768,35.28117023,-82.68371297,House, 
126,NORMCOL DR,PISGAH FOREST,NC,28768,35.28140569,-82.68398653,House, 
131,NORMCOL DR,PISGAH FOREST,NC,28768,35.28187168,-82.6840704,House, 
291,NORMCOL DR,PISGAH FOREST,NC,28768,35.28373199,-82.68481632,House, 
371,NORMCOL DR,PISGAH FOREST,NC,28768,35.28483761,-82.68399092,House, 
398,NORMCOL DR,PISGAH FOREST,NC,28768,35.28514343,-82.68378924,House, 
422,NORMCOL DR,PISGAH FOREST,NC,28768,35.2854689,-82.6835716,House, 
436,NORMCOL DR,PISGAH FOREST,NC,28768,35.28543478,-82.68406123,House, 
331,OLD FARM RD,PISGAH FOREST,NC,28768,35.26493964,-82.6826905,House, 
3837,OLD HENDERSONVILLE HWY,PISGAH FOREST,NC,28768,35.26640942,-82.67165505,House, 
3222,OLD HENDERSONVILLE HWY,PISGAH FOREST,NC,28768,35.26073774,-82.6775318,House, 
3251,OLD HENDERSONVILLE HWY,PISGAH FOREST,NC,28768,35.26133898,-82.67879377,House, 
3750,OLD HENDERSONVILLE HWY,PISGAH FOREST,NC,28768,35.26532044,-82.67218616,House, 
3831,OLD HENDERSONVILLE HWY,PISGAH FOREST,NC,28768,35.26635079,-82.67178423,House, 
3851,OLD HENDERSONVILLE HWY,PISGAH FOREST,NC,28768,35.267357,-82.671282,House, 
3920,OLD HENDERSONVILLE HWY,PISGAH FOREST,NC,28768,35.26759347,-82.67045977,House, 
3940,OLD HENDERSONVILLE HWY,PISGAH FOREST,NC,28768,35.26788928,-82.67013478,House, 
3950,OLD HENDERSONVILLE HWY,PISGAH FOREST,NC,28768,35.2679838,-82.67002857,House, 
3964,OLD HENDERSONVILLE HWY,PISGAH FOREST,NC,28768,35.26822064,-82.66976437,House, 
3985,OLD HENDERSONVILLE HWY,PISGAH FOREST,NC,28768,35.26864388,-82.6699462,House, 
4013,OLD HENDERSONVILLE HWY,PISGAH FOREST,NC,28768,35.26881188,-82.66976705,House, 
4014,OLD HENDERSONVILLE HWY,PISGAH FOREST,NC,28768,35.2686275,-82.66933738,House, 
4015,OLD HENDERSONVILLE HWY,PISGAH FOREST,NC,28768,35.2689692,-82.66957576,House, 
4020,OLD HENDERSONVILLE HWY,PISGAH FOREST,NC,28768,35.26886835,-82.66906595,House, 
4033,OLD HENDERSONVILLE HWY,PISGAH FOREST,NC,28768,35.26937197,-82.66912666,House, 
4042,OLD HENDERSONVILLE HWY,PISGAH FOREST,NC,28768,35.26894644,-82.66894397,House, 
4050,OLD HENDERSONVILLE HWY,PISGAH FOREST,NC,28768,35.26916079,-82.66871697,House, 
4171,OLD HENDERSONVILLE HWY,PISGAH FOREST,NC,28768,35.27012679,-82.66818185,House, 
4178,OLD HENDERSONVILLE HWY,PISGAH FOREST,NC,28768,35.27029863,-82.6664029,House, 
4180,OLD HENDERSONVILLE HWY,PISGAH FOREST,NC,28768,35.27044071,-82.66534464,House, 
4181,OLD HENDERSONVILLE HWY,PISGAH FOREST,NC,28768,35.27095283,-82.66669574,House, 
4321,OLD HENDERSONVILLE HWY,PISGAH FOREST,NC,28768,35.27127505,-82.66513202,House, 
4490,OLD HENDERSONVILLE HWY,PISGAH FOREST,NC,28768,35.2708404,-82.66167392,House, 
4622,OLD HENDERSONVILLE HWY,PISGAH FOREST,NC,28768,35.26975714,-82.6590581,House, 
4733,OLD HENDERSONVILLE HWY,PISGAH FOREST,NC,28768,35.27183286,-82.65757436,House, 
2,OLD LITTLE MOUNTAIN RD,PISGAH FOREST,NC,28768,35.27604153,-82.67641199,House, 
32,OLD LITTLE MOUNTAIN RD,PISGAH FOREST,NC,28768,35.27652168,-82.67626762,House, 
54,OLD LITTLE MOUNTAIN RD,PISGAH FOREST,NC,28768,35.27684844,-82.67615926,House, 
72,OLD LITTLE MOUNTAIN RD,PISGAH FOREST,NC,28768,35.27752026,-82.67606059,House, 
116,OLD LITTLE MOUNTAIN RD,PISGAH FOREST,NC,28768,35.2781209,-82.676316,House, 
152,OLD LITTLE MOUNTAIN RD,PISGAH FOREST,NC,28768,35.27901262,-82.67589063,House, 
154,OLD LITTLE MOUNTAIN RD,PISGAH FOREST,NC,28768,35.28029054,-82.67608919,House, 
160,OLD LITTLE MOUNTAIN RD,PISGAH FOREST,NC,28768,35.27839195,-82.67701756,House, 
248,OLD LITTLE MOUNTAIN RD,PISGAH FOREST,NC,28768,35.27909777,-82.67832626,House, 
250,OLD LITTLE MOUNTAIN RD,PISGAH FOREST,NC,28768,35.27851815,-82.67842322,House, 
251,OLD LITTLE MOUNTAIN RD,PISGAH FOREST,NC,28768,35.27791559,-82.67819916,House, 
253,OLD LITTLE MOUNTAIN RD,PISGAH FOREST,NC,28768,35.27758804,-82.6788022,House, 
364,OLD LITTLE MOUNTAIN RD,PISGAH FOREST,NC,28768,35.27733539,-82.67950018,House, 
385,OLD LITTLE MOUNTAIN RD,PISGAH FOREST,NC,28768,35.27693436,-82.6797831,House, 
90,OLD NC 280 HWY,PISGAH FOREST,NC,28768,35.28306632,-82.69369668,House, 
142,OLD NC 280 HWY,PISGAH FOREST,NC,28768,35.28356626,-82.69356794,House, 
165,OLD NC 280 HWY,PISGAH FOREST,NC,28768,35.28450802,-82.69401402,House, 
167,OLD NC 280 HWY,PISGAH FOREST,NC,28768,35.28513358,-82.69403117,House, 
184,OLD NC 280 HWY,PISGAH FOREST,NC,28768,35.2841805,-82.69336305,House, 
198,OLD NC 280 HWY,PISGAH FOREST,NC,28768,35.28443449,-82.69334245,House, 
276,OLD NC 280 HWY,PISGAH FOREST,NC,28768,35.28452767,-82.69319517,House, 
278,OLD NC 280 HWY,PISGAH FOREST,NC,28768,35.28452874,-82.69319377,House, 
280,OLD NC 280 HWY,PISGAH FOREST,NC,28768,35.28514875,-82.69224923,House, 
296,OLD NC 280 HWY,PISGAH FOREST,NC,28768,35.28528676,-82.69204247,House, 
25,ORCHID HEIGHTS DR,PISGAH FOREST,NC,28768,35.2705651,-82.67525262,House, 
63,ORCHID HEIGHTS DR,PISGAH FOREST,NC,28768,35.26984822,-82.67583927,House, 
100,ORCHID HEIGHTS DR,PISGAH FOREST,NC,28768,35.26960146,-82.67640237,House, 
109,ORCHID HEIGHTS DR,PISGAH FOREST,NC,28768,35.26942374,-82.67544172,House, 
115,ORCHID HEIGHTS DR,PISGAH FOREST,NC,28768,35.2690125,-82.67541289,House, 
119,ORCHID HEIGHTS DR,PISGAH FOREST,NC,28768,35.26902429,-82.67581752,House, 
120,ORCHID HEIGHTS DR,PISGAH FOREST,NC,28768,35.26903211,-82.67613369,House, 
23,PARKER'S CREEK LN,PISGAH FOREST,NC,28768,35.27004012,-82.69173158,House, 
50,PARKER'S CREEK LN,PISGAH FOREST,NC,28768,35.26969879,-82.69193623,House, 
61,PARKER'S CREEK LN,PISGAH FOREST,NC,28768,35.26985527,-82.69177552,House, 
65,PARKER'S CREEK LN,PISGAH FOREST,NC,28768,35.2698174,-82.69154692,House, 
66,PARKER'S CREEK LN,PISGAH FOREST,NC,28768,35.26965151,-82.6915063,House, 
30,PEARL DR,PISGAH FOREST,NC,28768,35.2740562,-82.67368041,House, 
62,PEARL DR,PISGAH FOREST,NC,28768,35.2747506,-82.67371966,House, 
49,PISGAH HWY,PISGAH FOREST,NC,28768,35.27338826,-82.70497858,House,STE 1
49,PISGAH HWY,PISGAH FOREST,NC,28768,35.27353465,-82.70516913,House,STE 2
49,PISGAH HWY,PISGAH FOREST,NC,28768,35.27351671,-82.70514554,House,STE 3
49,PISGAH HWY,PISGAH FOREST,NC,28768,35.2736641,-82.70516276,House,STE 4
49,PISGAH HWY,PISGAH FOREST,NC,28768,35.27344592,-82.70506527,House,STE 5
49,PISGAH HWY,PISGAH FOREST,NC,28768,35.27387047,-82.70508285,House,STE 6
91,PISGAH HWY,PISGAH FOREST,NC,28768,35.27389033,-82.70555325,House, 
95,PISGAH HWY,PISGAH FOREST,NC,28768,35.27390171,-82.70577891,House, 
114,PISGAH HWY,PISGAH FOREST,NC,28768,35.27520996,-82.70589455,House, 
128,PISGAH HWY,PISGAH FOREST,NC,28768,35.27459559,-82.70612169,House, 
489,PISGAH HWY,PISGAH FOREST,NC,28768,35.27601915,-82.71218558,House, 
1346,PISGAH HWY,PISGAH FOREST,NC,28768,35.28408376,-82.72295932,House, 
1600,PISGAH HWY,PISGAH FOREST,NC,28768,35.28483396,-82.72696945,House, 
16,POOR HOUSE RD,PISGAH FOREST,NC,28768,35.27718696,-82.68977167,House, 
136,POOR HOUSE RD,PISGAH FOREST,NC,28768,35.27883126,-82.68895606,House, 
165,POOR HOUSE RD,PISGAH FOREST,NC,28768,35.27951082,-82.68847807,House, 
220,POOR HOUSE RD,PISGAH FOREST,NC,28768,35.2797321,-82.68782865,House, 
21,PORTIA'S WAY,PISGAH FOREST,NC,28768,35.27313723,-82.66454151,House, 
45,PORTIA'S WAY,PISGAH FOREST,NC,28768,35.27380984,-82.66431947,House, 
47,PORTIA'S WAY,PISGAH FOREST,NC,28768,35.27381064,-82.6646983,House, 
49,PORTIA'S WAY,PISGAH FOREST,NC,28768,35.27415694,-82.66425174,House, 
60,PORTIA'S WAY,PISGAH FOREST,NC,28768,35.27334645,-82.6639026,House, 
63,PORTIA'S WAY,PISGAH FOREST,NC,28768,35.2737169,-82.66384575,House, 
81,PORTIA'S WAY,PISGAH FOREST,NC,28768,35.27366561,-82.66347964,House, 
24,RED CAGLE HL,PISGAH FOREST,NC,28768,35.27641196,-82.68923456,House, 
25,RED CAGLE HL,PISGAH FOREST,NC,28768,35.27689583,-82.68947805,House, 
68,RED CAGLE HL,PISGAH FOREST,NC,28768,35.27693252,-82.68883072,House, 
28,RHEA LN,PISGAH FOREST,NC,28768,35.27143877,-82.69323301,House, 
72,RHEA LN,PISGAH FOREST,NC,28768,35.27209235,-82.69325508,House, 
98,RHEA LN,PISGAH FOREST,NC,28768,35.27245622,-82.69322067,House, 
132,RHEA LN,PISGAH FOREST,NC,28768,35.27279729,-82.69320561,House, 
144,RHEA LN,PISGAH FOREST,NC,28768,35.27314643,-82.69312119,House, 
80,RILEY LN,PISGAH FOREST,NC,28768,35.27207275,-82.69386872,House, 
120,RILEY LN,PISGAH FOREST,NC,28768,35.27264034,-82.69378284,House, 
200,RILEY LN,PISGAH FOREST,NC,28768,35.27379924,-82.69380319,House, 
14,RIVERSIDE PARK DR,PISGAH FOREST,NC,28768,35.26285185,-82.69844056,House, 
17,RIVERSIDE PARK DR,PISGAH FOREST,NC,28768,35.26314051,-82.69858073,House, 
30,RIVERSIDE PARK DR,PISGAH FOREST,NC,28768,35.26285705,-82.69814586,House, 
33,RIVERSIDE PARK DR,PISGAH FOREST,NC,28768,35.26314783,-82.6983038,House, 
46,RIVERSIDE PARK DR,PISGAH FOREST,NC,28768,35.26286037,-82.69781983,House, 
49,RIVERSIDE PARK DR,PISGAH FOREST,NC,28768,35.26314477,-82.6979809,House, 
64,RIVERSIDE PARK DR,PISGAH FOREST,NC,28768,35.26285484,-82.69748765,House, 
65,RIVERSIDE PARK DR,PISGAH FOREST,NC,28768,35.2631447,-82.69764982,House, 
80,RIVERSIDE PARK DR,PISGAH FOREST,NC,28768,35.26285182,-82.69715718,House, 
81,RIVERSIDE PARK DR,PISGAH FOREST,NC,28768,35.26314295,-82.69731202,House, 
22,ROBIN CREST DR,PISGAH FOREST,NC,28768,35.26747958,-82.69316848,House, 
33,ROBIN CREST DR,PISGAH FOREST,NC,28768,35.26785948,-82.6929935,House, 
46,ROBIN CREST DR,PISGAH FOREST,NC,28768,35.26754431,-82.69273879,House, 
56,ROBIN CREST DR,PISGAH FOREST,NC,28768,35.26757942,-82.69246096,House, 
79,ROBIN CREST DR,PISGAH FOREST,NC,28768,35.26800151,-82.69192351,House, 
55,ROSEY WAY,PISGAH FOREST,NC,28768,35.26731509,-82.68893539,House, 
81,ROSEY WAY,PISGAH FOREST,NC,28768,35.26688441,-82.68866216,House, 
101,ROSEY WAY,PISGAH FOREST,NC,28768,35.26657033,-82.6882754,House, 
148,ROSEY WAY,PISGAH FOREST,NC,28768,35.26643666,-82.68899172,House, 
156,ROSEY WAY,PISGAH FOREST,NC,28768,35.26619183,-82.68943762,House, 
40,RUTH LN,PISGAH FOREST,NC,28768,35.27495245,-82.68856654,House, 
50,RUTH LN,PISGAH FOREST,NC,28768,35.27495617,-82.68845681,House, 
118,SENTELLE LN,PISGAH FOREST,NC,28768,35.26357306,-82.680314,House, 
120,SENTELLE LN,PISGAH FOREST,NC,28768,35.26327869,-82.68115773,House, 
180,SENTELLE LN,PISGAH FOREST,NC,28768,35.26217514,-82.68171061,House, 
329,SENTELLE LN,PISGAH FOREST,NC,28768,35.26188051,-82.6831727,House, 
353,SENTELLE LN,PISGAH FOREST,NC,28768,35.26217258,-82.68366657,House, 
21,SMITH RD,PISGAH FOREST,NC,28768,35.26707881,-82.68067667,House, 
35,SMITH RD,PISGAH FOREST,NC,28768,35.26739493,-82.68062337,House, 
99,SMITH RD,PISGAH FOREST,NC,28768,35.26784306,-82.67977122,House, 
111,SMITH RD,PISGAH FOREST,NC,28768,35.26808215,-82.67974328,House, 
115,SMITH RD,PISGAH FOREST,NC,28768,35.2678662,-82.67933393,House, 
163,SMITH RD,PISGAH FOREST,NC,28768,35.26701977,-82.67871738,House, 
170,SMITH RD,PISGAH FOREST,NC,28768,35.26714068,-82.67916989,House, 
176,SMITH RD,PISGAH FOREST,NC,28768,35.26686376,-82.67888147,House, 
16,SMOKEY DR,PISGAH FOREST,NC,28768,35.26688477,-82.68036443,House, 
17,SMOKEY DR,PISGAH FOREST,NC,28768,35.26731195,-82.68013714,House, 
21,SMOKEY DR,PISGAH FOREST,NC,28768,35.26710072,-82.67987542,House, 
36,SMOKEY DR,PISGAH FOREST,NC,28768,35.26665847,-82.67995018,House, 
